<?xml version="1.0" encoding="UTF-8"?>
<gpx xmlns="http://www.topografix.com/GPX/1/1" xmlns:gpxtpx="http://www.garmin.com/xmlschemas/TrackPointExtension/v1" xmlns:xsi="http://www.w3.org/2001/XMLSchema-instance" xsi:schemaLocation="http://www.topografix.com/GPX/1/1 http://www.topografix.com/GPX/1/1/gpx.xsd" version="1.1" creator="gpx.py -- https://github.com/tkrajina/gpxpy">
  <trk>
    <name>gpx from keep</name>
    <type>Run</type>
    <trkseg>
      <trkpt lat="39.86747362674262" lon="116.46701468092687">
        <time>2026-08-09T00:15:49.013000Z</time>
      </trkpt>
      <trkpt lat="39.86750839545683" lon="116.46692938191299">
        <time>2026-08-09T00:15:52.013000Z</time>
      </trkpt>
      <trkpt lat="39.8675534499273" lon="116.46657816498904">
        <time>2026-08-09T00:16:04.113000Z</time>
      </trkpt>
      <trkpt lat="39.86755796836491" lon="116.46639854620078">
        <time>2026-08-09T00:16:10.213000Z</time>
      </trkpt>
      <trkpt lat="39.86754372737497" lon="116.46630823747336">
        <time>2026-08-09T00:16:13.213000Z</time>
      </trkpt>
      <trkpt lat="39.867489577221" lon="116.4662510477189">
        <time>2026-08-09T00:16:16.313000Z</time>
      </trkpt>
      <trkpt lat="39.86728948849927" lon="116.46621394527841">
        <time>2026-08-09T00:16:25.613000Z</time>
      </trkpt>
      <trkpt lat="39.86699267325967" lon="116.46627719967977">
        <time>2026-08-09T00:16:37.713000Z</time>
      </trkpt>
      <trkpt lat="39.866742627448595" lon="116.46625515518784">
        <time>2026-08-09T00:16:49.813000Z</time>
      </trkpt>
      <trkpt lat="39.86667374920976" lon="116.46629931554087">
        <time>2026-08-09T00:16:52.813000Z</time>
      </trkpt>
      <trkpt lat="39.86652784555789" lon="116.46633244765874">
        <time>2026-08-09T00:16:58.813000Z</time>
      </trkpt>
      <trkpt lat="39.86648604656663" lon="116.46640670823967">
        <time>2026-08-09T00:17:01.813000Z</time>
      </trkpt>
      <trkpt lat="39.866528902615514" lon="116.46672680525947">
        <time>2026-08-09T00:17:10.813000Z</time>
      </trkpt>
      <trkpt lat="39.86655312771499" lon="116.46681109295747">
        <time>2026-08-09T00:17:13.813000Z</time>
      </trkpt>
      <trkpt lat="39.866541319356855" lon="116.46725362384531">
        <time>2026-08-09T00:17:28.813000Z</time>
      </trkpt>
      <trkpt lat="39.86654851956857" lon="116.46769816437786">
        <time>2026-08-09T00:17:43.813000Z</time>
      </trkpt>
      <trkpt lat="39.86652645315333" lon="116.46804236407738">
        <time>2026-08-09T00:17:55.813000Z</time>
      </trkpt>
      <trkpt lat="39.86653717190883" lon="116.4683072860146">
        <time>2026-08-09T00:18:04.913000Z</time>
      </trkpt>
      <trkpt lat="39.866525133872656" lon="116.4686605212708">
        <time>2026-08-09T00:18:16.913000Z</time>
      </trkpt>
      <trkpt lat="39.86653615470833" lon="116.46903483057542">
        <time>2026-08-09T00:18:29.113000Z</time>
      </trkpt>
      <trkpt lat="39.8665311434369" lon="116.46939609941428">
        <time>2026-08-09T00:18:41.313000Z</time>
      </trkpt>
      <trkpt lat="39.866506356345226" lon="116.46983765676458">
        <time>2026-08-09T00:18:56.713000Z</time>
      </trkpt>
      <trkpt lat="39.86650737804296" lon="116.47020896714368">
        <time>2026-08-09T00:19:08.813000Z</time>
      </trkpt>
      <trkpt lat="39.86654148964232" lon="116.46988682573448">
        <time>2026-08-09T00:19:20.813000Z</time>
      </trkpt>
      <trkpt lat="39.86660894569949" lon="116.46969012414607">
        <time>2026-08-09T00:19:26.813000Z</time>
      </trkpt>
      <trkpt lat="39.86662495979801" lon="116.46933085844928">
        <time>2026-08-09T00:19:38.913000Z</time>
      </trkpt>
      <trkpt lat="39.86662702103026" lon="116.46898765385129">
        <time>2026-08-09T00:19:50.913000Z</time>
      </trkpt>
      <trkpt lat="39.866651102580924" lon="116.46865147390466">
        <time>2026-08-09T00:20:03.013000Z</time>
      </trkpt>
      <trkpt lat="39.86663810928394" lon="116.46828619985907">
        <time>2026-08-09T00:20:15.113000Z</time>
      </trkpt>
      <trkpt lat="39.866614934377154" lon="116.46785269308279">
        <time>2026-08-09T00:20:30.413000Z</time>
      </trkpt>
      <trkpt lat="39.86658742792722" lon="116.46766504450213">
        <time>2026-08-09T00:20:36.513000Z</time>
      </trkpt>
      <trkpt lat="39.86661025077646" lon="116.46722953183982">
        <time>2026-08-09T00:20:51.813000Z</time>
      </trkpt>
      <trkpt lat="39.86664557334007" lon="116.4669786599301">
        <time>2026-08-09T00:21:00.813000Z</time>
      </trkpt>
      <trkpt lat="39.86661140019605" lon="116.46654115526441">
        <time>2026-08-09T00:21:15.813000Z</time>
      </trkpt>
      <trkpt lat="39.866576708716" lon="116.46628226908761">
        <time>2026-08-09T00:21:24.813000Z</time>
      </trkpt>
      <trkpt lat="39.86652152378566" lon="116.46621203470113">
        <time>2026-08-09T00:21:27.813000Z</time>
      </trkpt>
      <trkpt lat="39.866445423207225" lon="116.46617290986008">
        <time>2026-08-09T00:21:30.813000Z</time>
      </trkpt>
      <trkpt lat="39.86614143935505" lon="116.46617294798422">
        <time>2026-08-09T00:21:42.813000Z</time>
      </trkpt>
      <trkpt lat="39.86586333080235" lon="116.46612682441136">
        <time>2026-08-09T00:21:54.913000Z</time>
      </trkpt>
      <trkpt lat="39.86553921137477" lon="116.46607568945387">
        <time>2026-08-09T00:22:10.113000Z</time>
      </trkpt>
      <trkpt lat="39.865204213185535" lon="116.46606971081272">
        <time>2026-08-09T00:22:25.213000Z</time>
      </trkpt>
      <trkpt lat="39.86513930778049" lon="116.46610383600982">
        <time>2026-08-09T00:22:28.313000Z</time>
      </trkpt>
      <trkpt lat="39.86508620341759" lon="116.46606370495891">
        <time>2026-08-09T00:22:31.413000Z</time>
      </trkpt>
      <trkpt lat="39.864746074282884" lon="116.46600855833488">
        <time>2026-08-09T00:22:46.713000Z</time>
      </trkpt>
      <trkpt lat="39.864476094120754" lon="116.4660105990756">
        <time>2026-08-09T00:22:58.713000Z</time>
      </trkpt>
      <trkpt lat="39.864145087800715" lon="116.46600160962221">
        <time>2026-08-09T00:23:13.813000Z</time>
      </trkpt>
      <trkpt lat="39.86395106610399" lon="116.46598959267077">
        <time>2026-08-09T00:23:22.813000Z</time>
      </trkpt>
      <trkpt lat="39.86389620566472" lon="116.4660407750344">
        <time>2026-08-09T00:23:25.813000Z</time>
      </trkpt>
      <trkpt lat="39.8638624942739" lon="116.46614814766258">
        <time>2026-08-09T00:23:28.813000Z</time>
      </trkpt>
      <trkpt lat="39.863820633314376" lon="116.46619932861375">
        <time>2026-08-09T00:23:31.813000Z</time>
      </trkpt>
      <trkpt lat="39.86373866724229" lon="116.46621037679792">
        <time>2026-08-09T00:23:34.813000Z</time>
      </trkpt>
      <trkpt lat="39.86370830421379" lon="116.46607391218421">
        <time>2026-08-09T00:23:40.813000Z</time>
      </trkpt>
      <trkpt lat="39.86338223338853" lon="116.4660408394901">
        <time>2026-08-09T00:23:55.813000Z</time>
      </trkpt>
      <trkpt lat="39.863317228863515" lon="116.4660378373176">
        <time>2026-08-09T00:23:58.913000Z</time>
      </trkpt>
      <trkpt lat="39.86300092999828" lon="116.4659194710845">
        <time>2026-08-09T00:24:14.013000Z</time>
      </trkpt>
      <trkpt lat="39.862680877762536" lon="116.46589342183792">
        <time>2026-08-09T00:24:29.113000Z</time>
      </trkpt>
      <trkpt lat="39.86236486816179" lon="116.46588342709472">
        <time>2026-08-09T00:24:44.413000Z</time>
      </trkpt>
      <trkpt lat="39.86217487581642" lon="116.46588244748395">
        <time>2026-08-09T00:24:53.613000Z</time>
      </trkpt>
      <trkpt lat="39.86196782287916" lon="116.46585839096589">
        <time>2026-08-09T00:25:02.713000Z</time>
      </trkpt>
      <trkpt lat="39.861691888751324" lon="116.46587749086775">
        <time>2026-08-09T00:25:14.713000Z</time>
      </trkpt>
      <trkpt lat="39.86138084955534" lon="116.46585645770246">
        <time>2026-08-09T00:25:29.813000Z</time>
      </trkpt>
      <trkpt lat="39.86151901593094" lon="116.46592166380076">
        <time>2026-08-09T00:25:38.813000Z</time>
      </trkpt>
      <trkpt lat="39.861791089420414" lon="116.46595474315787">
        <time>2026-08-09T00:25:50.913000Z</time>
      </trkpt>
      <trkpt lat="39.86211106128173" lon="116.4659506892765">
        <time>2026-08-09T00:26:06.013000Z</time>
      </trkpt>
      <trkpt lat="39.86231313329254" lon="116.46598177055871">
        <time>2026-08-09T00:26:15.113000Z</time>
      </trkpt>
      <trkpt lat="39.862639123622635" lon="116.46598473999815">
        <time>2026-08-09T00:26:30.413000Z</time>
      </trkpt>
      <trkpt lat="39.86297014049495" lon="116.46599774320896">
        <time>2026-08-09T00:26:45.713000Z</time>
      </trkpt>
      <trkpt lat="39.863248278137654" lon="116.46605490447267">
        <time>2026-08-09T00:26:57.713000Z</time>
      </trkpt>
      <trkpt lat="39.86351614847185" lon="116.46601172290349">
        <time>2026-08-09T00:27:09.713000Z</time>
      </trkpt>
      <trkpt lat="39.86371332270274" lon="116.46608093565256">
        <time>2026-08-09T00:27:18.713000Z</time>
      </trkpt>
      <trkpt lat="39.86385354034492" lon="116.46616520734487">
        <time>2026-08-09T00:27:24.713000Z</time>
      </trkpt>
      <trkpt lat="39.86392649887117" lon="116.46615114996966">
        <time>2026-08-09T00:27:27.713000Z</time>
      </trkpt>
      <trkpt lat="39.86404327277127" lon="116.46606885296502">
        <time>2026-08-09T00:27:33.713000Z</time>
      </trkpt>
      <trkpt lat="39.86436427963126" lon="116.46607784369003">
        <time>2026-08-09T00:27:48.713000Z</time>
      </trkpt>
      <trkpt lat="39.86468824348709" lon="116.46607077896425">
        <time>2026-08-09T00:28:03.713000Z</time>
      </trkpt>
      <trkpt lat="39.86482322821364" lon="116.46606775170852">
        <time>2026-08-09T00:28:09.713000Z</time>
      </trkpt>
      <trkpt lat="39.864949304544" lon="116.46609884262223">
        <time>2026-08-09T00:28:15.713000Z</time>
      </trkpt>
      <trkpt lat="39.86509428606452" lon="116.46609481066737">
        <time>2026-08-09T00:28:21.813000Z</time>
      </trkpt>
      <trkpt lat="39.86523739368737" lon="116.46613794079717">
        <time>2026-08-09T00:28:27.813000Z</time>
      </trkpt>
      <trkpt lat="39.86554737445428" lon="116.46613689847767">
        <time>2026-08-09T00:28:42.813000Z</time>
      </trkpt>
      <trkpt lat="39.865836436811534" lon="116.46616596211976">
        <time>2026-08-09T00:28:54.913000Z</time>
      </trkpt>
      <trkpt lat="39.86616357499129" lon="116.46622412095007">
        <time>2026-08-09T00:29:09.913000Z</time>
      </trkpt>
      <trkpt lat="39.86642654492362" lon="116.4662180672911">
        <time>2026-08-09T00:29:22.213000Z</time>
      </trkpt>
      <trkpt lat="39.866488606029286" lon="116.46624214223067">
        <time>2026-08-09T00:29:25.213000Z</time>
      </trkpt>
      <trkpt lat="39.86659799226276" lon="116.46638863207802">
        <time>2026-08-09T00:29:31.413000Z</time>
      </trkpt>
      <trkpt lat="39.86667692360163" lon="116.46636453936215">
        <time>2026-08-09T00:29:34.413000Z</time>
      </trkpt>
      <trkpt lat="39.8667766041784" lon="116.46624712334777">
        <time>2026-08-09T00:29:40.613000Z</time>
      </trkpt>
      <trkpt lat="39.86704957631112" lon="116.46624207187699">
        <time>2026-08-09T00:29:52.713000Z</time>
      </trkpt>
      <trkpt lat="39.8673626107608" lon="116.46626109811803">
        <time>2026-08-09T00:30:07.713000Z</time>
      </trkpt>
      <trkpt lat="39.86763255626211" lon="116.46624601255004">
        <time>2026-08-09T00:30:19.713000Z</time>
      </trkpt>
      <trkpt lat="39.867916624503145" lon="116.4662770838012">
        <time>2026-08-09T00:30:34.713000Z</time>
      </trkpt>
      <trkpt lat="39.868120420885916" lon="116.46627660315598">
        <time>2026-08-09T00:30:43.813000Z</time>
      </trkpt>
      <trkpt lat="39.86840749403184" lon="116.46623788777897">
        <time>2026-08-09T00:30:55.813000Z</time>
      </trkpt>
      <trkpt lat="39.868670464139846" lon="116.466231834114">
        <time>2026-08-09T00:31:07.813000Z</time>
      </trkpt>
      <trkpt lat="39.86885057816268" lon="116.4662779701116">
        <time>2026-08-09T00:31:16.813000Z</time>
      </trkpt>
      <trkpt lat="39.86912444306239" lon="116.46623278062003">
        <time>2026-08-09T00:31:28.913000Z</time>
      </trkpt>
      <trkpt lat="39.8693953913453" lon="116.46621869837995">
        <time>2026-08-09T00:31:41.013000Z</time>
      </trkpt>
      <trkpt lat="39.869678483921746" lon="116.46625880075892">
        <time>2026-08-09T00:31:53.213000Z</time>
      </trkpt>
      <trkpt lat="39.869752498853806" lon="116.46626581561002">
        <time>2026-08-09T00:31:56.313000Z</time>
      </trkpt>
      <trkpt lat="39.86981762969405" lon="116.46631597987036">
        <time>2026-08-09T00:31:59.413000Z</time>
      </trkpt>
      <trkpt lat="39.869580644726874" lon="116.46631701304386">
        <time>2026-08-09T00:32:11.513000Z</time>
      </trkpt>
      <trkpt lat="39.86948245055229" lon="116.46628404230682">
        <time>2026-08-09T00:32:17.613000Z</time>
      </trkpt>
      <trkpt lat="39.86938237077317" lon="116.46619867960939">
        <time>2026-08-09T00:32:20.613000Z</time>
      </trkpt>
      <trkpt lat="39.869116226211865" lon="116.4661515025325">
        <time>2026-08-09T00:32:32.713000Z</time>
      </trkpt>
      <trkpt lat="39.86884222445712" lon="116.46614551623246">
        <time>2026-08-09T00:32:44.713000Z</time>
      </trkpt>
      <trkpt lat="39.868527337504034" lon="116.46618167975232">
        <time>2026-08-09T00:32:59.813000Z</time>
      </trkpt>
      <trkpt lat="39.86822936655688" lon="116.46618673435385">
        <time>2026-08-09T00:33:11.813000Z</time>
      </trkpt>
      <trkpt lat="39.86790066292614" lon="116.46629113407944">
        <time>2026-08-09T00:33:26.813000Z</time>
      </trkpt>
      <trkpt lat="39.867706694619315" lon="116.46629918599525">
        <time>2026-08-09T00:33:35.813000Z</time>
      </trkpt>
      <trkpt lat="39.86737159418299" lon="116.46625507630584">
        <time>2026-08-09T00:33:51.013000Z</time>
      </trkpt>
      <trkpt lat="39.86708161755647" lon="116.46625812301619">
        <time>2026-08-09T00:34:03.113000Z</time>
      </trkpt>
      <trkpt lat="39.866766615442444" lon="116.46625113838974">
        <time>2026-08-09T00:34:18.513000Z</time>
      </trkpt>
      <trkpt lat="39.86670760515061" lon="116.46624612855396">
        <time>2026-08-09T00:34:21.513000Z</time>
      </trkpt>
      <trkpt lat="39.86665167252934" lon="116.46627021830987">
        <time>2026-08-09T00:34:24.613000Z</time>
      </trkpt>
      <trkpt lat="39.866599814886314" lon="116.46632240413912">
        <time>2026-08-09T00:34:27.713000Z</time>
      </trkpt>
      <trkpt lat="39.86653678869173" lon="116.46631137410287">
        <time>2026-08-09T00:34:30.713000Z</time>
      </trkpt>
      <trkpt lat="39.86641651326124" lon="116.4662060271936">
        <time>2026-08-09T00:34:36.713000Z</time>
      </trkpt>
      <trkpt lat="39.86614250367391" lon="116.46619703054408">
        <time>2026-08-09T00:34:48.713000Z</time>
      </trkpt>
      <trkpt lat="39.865826415890844" lon="116.46615793581717">
        <time>2026-08-09T00:35:03.713000Z</time>
      </trkpt>
      <trkpt lat="39.86555734174916" lon="116.46612485589884">
        <time>2026-08-09T00:35:15.713000Z</time>
      </trkpt>
      <trkpt lat="39.865283310805495" lon="116.46610783172355">
        <time>2026-08-09T00:35:27.713000Z</time>
      </trkpt>
      <trkpt lat="39.86514433163742" lon="116.46611286637071">
        <time>2026-08-09T00:35:33.713000Z</time>
      </trkpt>
      <trkpt lat="39.86482124707837" lon="116.4660747760539">
        <time>2026-08-09T00:35:48.713000Z</time>
      </trkpt>
      <trkpt lat="39.864551092774235" lon="116.46601159311055">
        <time>2026-08-09T00:36:00.713000Z</time>
      </trkpt>
      <trkpt lat="39.86426408140319" lon="116.46600159469898">
        <time>2026-08-09T00:36:12.713000Z</time>
      </trkpt>
      <trkpt lat="39.86392918245649" lon="116.46603274336732">
        <time>2026-08-09T00:36:27.713000Z</time>
      </trkpt>
      <trkpt lat="39.86385926392112" lon="116.46606185194562">
        <time>2026-08-09T00:36:30.713000Z</time>
      </trkpt>
      <trkpt lat="39.863594219264805" lon="116.46603980946426">
        <time>2026-08-09T00:36:42.713000Z</time>
      </trkpt>
      <trkpt lat="39.86340015741351" lon="116.46601274089036">
        <time>2026-08-09T00:36:51.713000Z</time>
      </trkpt>
      <trkpt lat="39.86327320177479" lon="116.4660268049847">
        <time>2026-08-09T00:36:57.713000Z</time>
      </trkpt>
      <trkpt lat="39.863037016379174" lon="116.46595258003478">
        <time>2026-08-09T00:37:09.713000Z</time>
      </trkpt>
      <trkpt lat="39.86281496148436" lon="116.46592752191309">
        <time>2026-08-09T00:37:18.713000Z</time>
      </trkpt>
      <trkpt lat="39.862622990631706" lon="116.4659345700572">
        <time>2026-08-09T00:37:27.713000Z</time>
      </trkpt>
      <trkpt lat="39.86234394690145" lon="116.46591252940857">
        <time>2026-08-09T00:37:39.713000Z</time>
      </trkpt>
      <trkpt lat="39.86202492143856" lon="116.465896514412">
        <time>2026-08-09T00:37:54.713000Z</time>
      </trkpt>
      <trkpt lat="39.861697963342635" lon="116.46590558635272">
        <time>2026-08-09T00:38:09.713000Z</time>
      </trkpt>
      <trkpt lat="39.861421930246976" lon="116.46588755909276">
        <time>2026-08-09T00:38:21.713000Z</time>
      </trkpt>
      <trkpt lat="39.86135195547786" lon="116.46589559536667">
        <time>2026-08-09T00:38:24.713000Z</time>
      </trkpt>
      <trkpt lat="39.861426077218866" lon="116.46594274766333">
        <time>2026-08-09T00:38:30.713000Z</time>
      </trkpt>
      <trkpt lat="39.86173308187511" lon="116.46595073667586">
        <time>2026-08-09T00:38:42.713000Z</time>
      </trkpt>
      <trkpt lat="39.86201503170862" lon="116.46593765661409">
        <time>2026-08-09T00:38:54.713000Z</time>
      </trkpt>
      <trkpt lat="39.86228908907998" lon="116.46596471510016">
        <time>2026-08-09T00:39:06.713000Z</time>
      </trkpt>
      <trkpt lat="39.86261913274105" lon="116.4659877528251">
        <time>2026-08-09T00:39:21.713000Z</time>
      </trkpt>
      <trkpt lat="39.86296515147798" lon="116.46600175759615">
        <time>2026-08-09T00:39:36.713000Z</time>
      </trkpt>
      <trkpt lat="39.86328926252528" lon="116.4660498821239">
        <time>2026-08-09T00:39:51.713000Z</time>
      </trkpt>
      <trkpt lat="39.86349613616003" lon="116.46600670820982">
        <time>2026-08-09T00:40:00.713000Z</time>
      </trkpt>
      <trkpt lat="39.86377539976668" lon="116.46611103115872">
        <time>2026-08-09T00:40:12.713000Z</time>
      </trkpt>
      <trkpt lat="39.86387763292617" lon="116.46620032491181">
        <time>2026-08-09T00:40:18.713000Z</time>
      </trkpt>
      <trkpt lat="39.864064231449774" lon="116.46605379870498">
        <time>2026-08-09T00:40:27.813000Z</time>
      </trkpt>
      <trkpt lat="39.864367284829775" lon="116.46607985019835">
        <time>2026-08-09T00:40:42.913000Z</time>
      </trkpt>
      <trkpt lat="39.86455629612356" lon="116.4660878540365">
        <time>2026-08-09T00:40:51.913000Z</time>
      </trkpt>
      <trkpt lat="39.86487124172056" lon="116.46607376634148">
        <time>2026-08-09T00:41:07.113000Z</time>
      </trkpt>
      <trkpt lat="39.86516431448503" lon="116.46610684320375">
        <time>2026-08-09T00:41:19.413000Z</time>
      </trkpt>
      <trkpt lat="39.86545538472566" lon="116.46613891690285">
        <time>2026-08-09T00:41:31.713000Z</time>
      </trkpt>
      <trkpt lat="39.86576639227241" lon="116.4661479088982">
        <time>2026-08-09T00:41:46.813000Z</time>
      </trkpt>
      <trkpt lat="39.8659625174221" lon="116.46618190066691">
        <time>2026-08-09T00:41:55.813000Z</time>
      </trkpt>
      <trkpt lat="39.86625454600885" lon="116.46621507852278">
        <time>2026-08-09T00:42:07.813000Z</time>
      </trkpt>
      <trkpt lat="39.86640459438712" lon="116.46623613208463">
        <time>2026-08-09T00:42:13.813000Z</time>
      </trkpt>
      <trkpt lat="39.86646955069037" lon="116.46622107223709">
        <time>2026-08-09T00:42:16.913000Z</time>
      </trkpt>
      <trkpt lat="39.86653459017206" lon="116.46623711922844">
        <time>2026-08-09T00:42:19.913000Z</time>
      </trkpt>
      <trkpt lat="39.866566079943475" lon="116.46642074652706">
        <time>2026-08-09T00:42:26.013000Z</time>
      </trkpt>
      <trkpt lat="39.86664597628495" lon="116.46638360880563">
        <time>2026-08-09T00:42:29.013000Z</time>
      </trkpt>
      <trkpt lat="39.86675559724035" lon="116.46624411564068">
        <time>2026-08-09T00:42:35.113000Z</time>
      </trkpt>
      <trkpt lat="39.86707055641708" lon="116.46623504511643">
        <time>2026-08-09T00:42:50.313000Z</time>
      </trkpt>
      <trkpt lat="39.8674105733389" lon="116.46624804728532">
        <time>2026-08-09T00:43:05.613000Z</time>
      </trkpt>
      <trkpt lat="39.86773155372849" lon="116.46624700358116">
        <time>2026-08-09T00:43:20.713000Z</time>
      </trkpt>
      <trkpt lat="39.868051665720174" lon="116.46629512893514">
        <time>2026-08-09T00:43:35.813000Z</time>
      </trkpt>
      <trkpt lat="39.86842048261644" lon="116.46623387236173">
        <time>2026-08-09T00:43:50.813000Z</time>
      </trkpt>
      <trkpt lat="39.868749449268265" lon="116.46622781041967">
        <time>2026-08-09T00:44:05.813000Z</time>
      </trkpt>
      <trkpt lat="39.86888848760643" lon="116.46624485158098">
        <time>2026-08-09T00:44:11.813000Z</time>
      </trkpt>
      <trkpt lat="39.86916238205079" lon="116.46621070003398">
        <time>2026-08-09T00:44:23.913000Z</time>
      </trkpt>
      <trkpt lat="39.86943630872829" lon="116.46618858986078">
        <time>2026-08-09T00:44:36.013000Z</time>
      </trkpt>
      <trkpt lat="39.869576309473224" lon="116.46619158263785">
        <time>2026-08-09T00:44:42.113000Z</time>
      </trkpt>
      <trkpt lat="39.869779473292965" lon="116.46625678119645">
        <time>2026-08-09T00:44:51.213000Z</time>
      </trkpt>
      <trkpt lat="39.869828553948494" lon="116.46628788193122">
        <time>2026-08-09T00:44:54.313000Z</time>
      </trkpt>
      <trkpt lat="39.86978765273727" lon="116.46632401122525">
        <time>2026-08-09T00:44:57.313000Z</time>
      </trkpt>
      <trkpt lat="39.869581749409406" lon="116.46635614744773">
        <time>2026-08-09T00:45:06.613000Z</time>
      </trkpt>
      <trkpt lat="39.86932336559297" lon="116.46620766950282">
        <time>2026-08-09T00:45:18.713000Z</time>
      </trkpt>
      <trkpt lat="39.86899426476998" lon="116.46616355916984">
        <time>2026-08-09T00:45:33.713000Z</time>
      </trkpt>
      <trkpt lat="39.86867823304689" lon="116.46614553680187">
        <time>2026-08-09T00:45:48.813000Z</time>
      </trkpt>
      <trkpt lat="39.868331291469936" lon="116.46616063199039">
        <time>2026-08-09T00:46:03.813000Z</time>
      </trkpt>
      <trkpt lat="39.868013364500534" lon="116.46618174421761">
        <time>2026-08-09T00:46:18.813000Z</time>
      </trkpt>
      <trkpt lat="39.86781060055858" lon="116.46626605917089">
        <time>2026-08-09T00:46:27.813000Z</time>
      </trkpt>
      <trkpt lat="39.86749059058664" lon="116.46625606482917">
        <time>2026-08-09T00:46:42.813000Z</time>
      </trkpt>
      <trkpt lat="39.86716659159332" lon="116.46625008477939">
        <time>2026-08-09T00:46:57.913000Z</time>
      </trkpt>
      <trkpt lat="39.86688555547257" lon="116.46623105453092">
        <time>2026-08-09T00:47:10.013000Z</time>
      </trkpt>
      <trkpt lat="39.86674056046863" lon="116.46623006926866">
        <time>2026-08-09T00:47:16.013000Z</time>
      </trkpt>
      <trkpt lat="39.866678612054585" lon="116.4662481390846">
        <time>2026-08-09T00:47:19.113000Z</time>
      </trkpt>
      <trkpt lat="39.86664579096667" lon="116.46631437077997">
        <time>2026-08-09T00:47:22.113000Z</time>
      </trkpt>
      <trkpt lat="39.866649306735084" lon="116.46650703305264">
        <time>2026-08-09T00:47:28.213000Z</time>
      </trkpt>
      <trkpt lat="39.86660846492069" lon="116.4665652385628">
        <time>2026-08-09T00:47:31.313000Z</time>
      </trkpt>
      <trkpt lat="39.8665484681026" lon="116.46656524608623">
        <time>2026-08-09T00:47:34.313000Z</time>
      </trkpt>
      <trkpt lat="39.86650624171753" lon="116.46647995773947">
        <time>2026-08-09T00:47:37.413000Z</time>
      </trkpt>
      <trkpt lat="39.86653374589453" lon="116.46629531930438">
        <time>2026-08-09T00:47:43.513000Z</time>
      </trkpt>
      <trkpt lat="39.86650060270919" lon="116.46624113727904">
        <time>2026-08-09T00:47:46.613000Z</time>
      </trkpt>
      <trkpt lat="39.8664504980438" lon="116.4662010057011">
        <time>2026-08-09T00:47:49.613000Z</time>
      </trkpt>
      <trkpt lat="39.86614256269279" lon="116.46621910635255">
        <time>2026-08-09T00:48:01.713000Z</time>
      </trkpt>
      <trkpt lat="39.86582249387876" lon="116.4661870362199">
        <time>2026-08-09T00:48:16.713000Z</time>
      </trkpt>
      <trkpt lat="39.86561799140473" lon="116.46611895135436">
        <time>2026-08-09T00:48:25.713000Z</time>
      </trkpt>
      <trkpt lat="39.86535264071376" lon="116.46610225701414">
        <time>2026-08-09T00:48:37.713000Z</time>
      </trkpt>
      <trkpt lat="39.86523125193929" lon="116.4660847590607">
        <time>2026-08-09T00:48:43.713000Z</time>
      </trkpt>
      <trkpt lat="39.86491326358986" lon="116.46608279205495">
        <time>2026-08-09T00:48:58.713000Z</time>
      </trkpt>
      <trkpt lat="39.86477213985322" lon="116.46603364109235">
        <time>2026-08-09T00:49:04.713000Z</time>
      </trkpt>
      <trkpt lat="39.86446719371663" lon="116.4660477275185">
        <time>2026-08-09T00:49:19.713000Z</time>
      </trkpt>
      <trkpt lat="39.86414120855341" lon="116.46604676495866">
        <time>2026-08-09T00:49:34.713000Z</time>
      </trkpt>
      <trkpt lat="39.8638432433482" lon="116.46605382641867">
        <time>2026-08-09T00:49:46.713000Z</time>
      </trkpt>
      <trkpt lat="39.863523161485986" lon="116.46601673922804">
        <time>2026-08-09T00:50:01.713000Z</time>
      </trkpt>
      <trkpt lat="39.863210178395114" lon="116.4660167784782">
        <time>2026-08-09T00:50:16.713000Z</time>
      </trkpt>
      <trkpt lat="39.862885126353" lon="116.46599072978853">
        <time>2026-08-09T00:50:31.713000Z</time>
      </trkpt>
      <trkpt lat="39.86255504250475" lon="116.46595264047751">
        <time>2026-08-09T00:50:46.713000Z</time>
      </trkpt>
      <trkpt lat="39.86222499083886" lon="116.46592659246079">
        <time>2026-08-09T00:51:01.713000Z</time>
      </trkpt>
      <trkpt lat="39.86189300355881" lon="116.46592462721665">
        <time>2026-08-09T00:51:16.713000Z</time>
      </trkpt>
      <trkpt lat="39.86156098419933" lon="116.46591062071938">
        <time>2026-08-09T00:51:31.713000Z</time>
      </trkpt>
      <trkpt lat="39.86137098387399" lon="116.46590663079436">
        <time>2026-08-09T00:51:46.713000Z</time>
      </trkpt>
      <trkpt lat="39.86168005264402" lon="116.46593870205984">
        <time>2026-08-09T00:51:58.713000Z</time>
      </trkpt>
      <trkpt lat="39.86195406982953" lon="116.46595070896363">
        <time>2026-08-09T00:52:10.713000Z</time>
      </trkpt>
      <trkpt lat="39.86227804416725" lon="116.46594765801933">
        <time>2026-08-09T00:52:25.713000Z</time>
      </trkpt>
      <trkpt lat="39.86247205771924" lon="116.46595666464077">
        <time>2026-08-09T00:52:34.813000Z</time>
      </trkpt>
      <trkpt lat="39.86260815476105" lon="116.465995781723">
        <time>2026-08-09T00:52:40.813000Z</time>
      </trkpt>
      <trkpt lat="39.862939102005804" lon="116.46598269549945">
        <time>2026-08-09T00:52:55.813000Z</time>
      </trkpt>
      <trkpt lat="39.86327020997306" lon="116.4660298156834">
        <time>2026-08-09T00:53:10.813000Z</time>
      </trkpt>
      <trkpt lat="39.863583168962094" lon="116.46602074546638">
        <time>2026-08-09T00:53:25.913000Z</time>
      </trkpt>
      <trkpt lat="39.86373325195545" lon="116.46605484365429">
        <time>2026-08-09T00:53:32.013000Z</time>
      </trkpt>
      <trkpt lat="39.8638565053227" lon="116.4661521621916">
        <time>2026-08-09T00:53:38.213000Z</time>
      </trkpt>
      <trkpt lat="39.863993420193026" lon="116.46612304514123">
        <time>2026-08-09T00:53:44.413000Z</time>
      </trkpt>
      <trkpt lat="39.86403825696311" lon="116.46606283294066">
        <time>2026-08-09T00:53:47.413000Z</time>
      </trkpt>
      <trkpt lat="39.86433324914045" lon="116.46606580627264">
        <time>2026-08-09T00:54:02.713000Z</time>
      </trkpt>
      <trkpt lat="39.864632192901304" lon="116.46605071715113">
        <time>2026-08-09T00:54:14.713000Z</time>
      </trkpt>
      <trkpt lat="39.864938256891655" lon="116.46608078203506">
        <time>2026-08-09T00:54:29.713000Z</time>
      </trkpt>
      <trkpt lat="39.86521931422545" lon="116.46610783974953">
        <time>2026-08-09T00:54:41.713000Z</time>
      </trkpt>
      <trkpt lat="39.86552534345628" lon="116.46612485991186">
        <time>2026-08-09T00:54:56.713000Z</time>
      </trkpt>
      <trkpt lat="39.86584743622572" lon="116.4661659607403">
        <time>2026-08-09T00:55:11.713000Z</time>
      </trkpt>
      <trkpt lat="39.86612045656338" lon="116.46617897128763">
        <time>2026-08-09T00:55:23.713000Z</time>
      </trkpt>
      <trkpt lat="39.86641052162773" lon="116.46620903828358">
        <time>2026-08-09T00:55:35.713000Z</time>
      </trkpt>
      <trkpt lat="39.86647956089176" lon="116.46622508476807">
        <time>2026-08-09T00:55:38.713000Z</time>
      </trkpt>
      <trkpt lat="39.866569730562404" lon="116.46629029754914">
        <time>2026-08-09T00:55:41.713000Z</time>
      </trkpt>
      <trkpt lat="39.86666174984581" lon="116.46629931704571">
        <time>2026-08-09T00:55:44.713000Z</time>
      </trkpt>
      <trkpt lat="39.866784593020675" lon="116.46624310855702">
        <time>2026-08-09T00:55:50.713000Z</time>
      </trkpt>
      <trkpt lat="39.8670735991936" lon="116.46625109988948">
        <time>2026-08-09T00:56:05.713000Z</time>
      </trkpt>
      <trkpt lat="39.86738661754545" lon="116.4662641054503">
        <time>2026-08-09T00:56:20.813000Z</time>
      </trkpt>
      <trkpt lat="39.86762448960289" lon="116.4662209273883">
        <time>2026-08-09T00:56:29.813000Z</time>
      </trkpt>
      <trkpt lat="39.867870506157836" lon="116.46623193444712">
        <time>2026-08-09T00:56:41.813000Z</time>
      </trkpt>
      <trkpt lat="39.86797360271499" lon="116.46627005251882">
        <time>2026-08-09T00:56:47.813000Z</time>
      </trkpt>
      <trkpt lat="39.8682333671848" lon="116.4662660220217">
        <time>2026-08-09T00:56:59.813000Z</time>
      </trkpt>
      <trkpt lat="39.86831517958524" lon="116.46624844261949">
        <time>2026-08-09T00:57:02.813000Z</time>
      </trkpt>
      <trkpt lat="39.86859148706361" lon="116.46623886814896">
        <time>2026-08-09T00:57:14.813000Z</time>
      </trkpt>
      <trkpt lat="39.86892403143513" lon="116.46624243048703">
        <time>2026-08-09T00:57:29.913000Z</time>
      </trkpt>
      <trkpt lat="39.86916740861799" lon="116.46622073386892">
        <time>2026-08-09T00:57:41.913000Z</time>
      </trkpt>
      <trkpt lat="39.86938347515257" lon="116.46624980673313">
        <time>2026-08-09T00:57:51.013000Z</time>
      </trkpt>
      <trkpt lat="39.86966046070642" lon="116.46624977199113">
        <time>2026-08-09T00:58:03.213000Z</time>
      </trkpt>
      <trkpt lat="39.86984953406474" lon="116.46628085516078">
        <time>2026-08-09T00:58:12.413000Z</time>
      </trkpt>
      <trkpt lat="39.86958654239711" lon="116.46627888125086">
        <time>2026-08-09T00:58:24.713000Z</time>
      </trkpt>
      <trkpt lat="39.86930844418293" lon="116.46623677132936">
        <time>2026-08-09T00:58:36.813000Z</time>
      </trkpt>
      <trkpt lat="39.86902532483353" lon="116.46618663451908">
        <time>2026-08-09T00:58:48.813000Z</time>
      </trkpt>
      <trkpt lat="39.868696213335156" lon="116.4661385104349">
        <time>2026-08-09T00:59:03.913000Z</time>
      </trkpt>
      <trkpt lat="39.868406820230945" lon="116.46616553792086">
        <time>2026-08-09T00:59:16.013000Z</time>
      </trkpt>
      <trkpt lat="39.86815625775941" lon="116.46614459882761">
        <time>2026-08-09T00:59:28.213000Z</time>
      </trkpt>
      <trkpt lat="39.86785660887253" lon="116.4662700671921">
        <time>2026-08-09T00:59:43.613000Z</time>
      </trkpt>
      <trkpt lat="39.867586666045405" lon="116.46628615621798">
        <time>2026-08-09T00:59:55.713000Z</time>
      </trkpt>
      <trkpt lat="39.86727955878789" lon="116.46624003613915">
        <time>2026-08-09T01:00:07.713000Z</time>
      </trkpt>
      <trkpt lat="39.86697057512346" lon="116.46624007489076">
        <time>2026-08-09T01:00:22.713000Z</time>
      </trkpt>
      <trkpt lat="39.86667364720772" lon="116.46626118452419">
        <time>2026-08-09T01:00:34.713000Z</time>
      </trkpt>
      <trkpt lat="39.86653765173503" lon="116.4662601981321">
        <time>2026-08-09T01:00:40.713000Z</time>
      </trkpt>
      <trkpt lat="39.86622853397645" lon="116.4662100645535">
        <time>2026-08-09T01:00:55.713000Z</time>
      </trkpt>
      <trkpt lat="39.86591446484096" lon="116.46617799367635">
        <time>2026-08-09T01:01:10.713000Z</time>
      </trkpt>
      <trkpt lat="39.865641404297385" lon="116.46614993146244">
        <time>2026-08-09T01:01:22.713000Z</time>
      </trkpt>
      <trkpt lat="39.865366521372586" lon="116.46610931265926">
        <time>2026-08-09T01:01:34.713000Z</time>
      </trkpt>
      <trkpt lat="39.865295982741614" lon="116.46609477332039">
        <time>2026-08-09T01:01:37.713000Z</time>
      </trkpt>
      <trkpt lat="39.8652254560463" lon="116.46609723862579">
        <time>2026-08-09T01:01:40.713000Z</time>
      </trkpt>
      <trkpt lat="39.86490622644808" lon="116.46606874474185">
        <time>2026-08-09T01:01:55.713000Z</time>
      </trkpt>
      <trkpt lat="39.864584160648064" lon="116.46603767843317">
        <time>2026-08-09T01:02:10.713000Z</time>
      </trkpt>
      <trkpt lat="39.86445464077979" lon="116.46604316085325">
        <time>2026-08-09T01:02:16.713000Z</time>
      </trkpt>
      <trkpt lat="39.864169083832" lon="116.46600060317233">
        <time>2026-08-09T01:02:28.713000Z</time>
      </trkpt>
      <trkpt lat="39.86402906190545" lon="116.46598958288921">
        <time>2026-08-09T01:02:34.713000Z</time>
      </trkpt>
      <trkpt lat="39.86375530435981" lon="116.46607490973257">
        <time>2026-08-09T01:02:46.713000Z</time>
      </trkpt>
      <trkpt lat="39.86344011240238" lon="116.46599668083098">
        <time>2026-08-09T01:03:01.713000Z</time>
      </trkpt>
      <trkpt lat="39.863127094507504" lon="116.4659836753639">
        <time>2026-08-09T01:03:16.713000Z</time>
      </trkpt>
      <trkpt lat="39.86286699881609" lon="116.46594256696659">
        <time>2026-08-09T01:03:28.713000Z</time>
      </trkpt>
      <trkpt lat="39.86255103201394" lon="116.46594862722431">
        <time>2026-08-09T01:03:43.813000Z</time>
      </trkpt>
      <trkpt lat="39.86222093485596" lon="116.4659055207698">
        <time>2026-08-09T01:03:58.813000Z</time>
      </trkpt>
      <trkpt lat="39.86202091095342" lon="116.465892501165">
        <time>2026-08-09T01:04:07.913000Z</time>
      </trkpt>
      <trkpt lat="39.86169695804528" lon="116.4659035796033">
        <time>2026-08-09T01:04:23.113000Z</time>
      </trkpt>
      <trkpt lat="39.8613669707129" lon="116.46590161410909">
        <time>2026-08-09T01:04:38.513000Z</time>
      </trkpt>
      <trkpt lat="39.861307089076746" lon="116.46594476946193">
        <time>2026-08-09T01:04:41.613000Z</time>
      </trkpt>
      <trkpt lat="39.86123107987054" lon="116.46631404631036">
        <time>2026-08-09T01:04:53.713000Z</time>
      </trkpt>
      <trkpt lat="39.8611401741264" lon="116.4667204566513">
        <time>2026-08-09T01:05:08.713000Z</time>
      </trkpt>
      <trkpt lat="39.86105126102798" lon="116.46712285720614">
        <time>2026-08-09T01:05:23.713000Z</time>
      </trkpt>
      <trkpt lat="39.8609665789603" lon="116.46760955388281">
        <time>2026-08-09T01:05:41.713000Z</time>
      </trkpt>
      <trkpt lat="39.8609025115313" lon="116.46795275448108">
        <time>2026-08-09T01:05:53.813000Z</time>
      </trkpt>
      <trkpt lat="39.86087261106286" lon="116.4683571673069">
        <time>2026-08-09T01:06:08.813000Z</time>
      </trkpt>
      <trkpt lat="39.86077570665582" lon="116.46875757853049">
        <time>2026-08-09T01:06:23.813000Z</time>
      </trkpt>
      <trkpt lat="39.86072783571711" lon="116.46917002977517">
        <time>2026-08-09T01:06:38.913000Z</time>
      </trkpt>
      <trkpt lat="39.860660905877005" lon="116.4695594062738">
        <time>2026-08-09T01:06:54.113000Z</time>
      </trkpt>
      <trkpt lat="39.86061408554581" lon="116.469987921906">
        <time>2026-08-09T01:07:09.513000Z</time>
      </trkpt>
      <trkpt lat="39.86053909587404" lon="116.47035322167723">
        <time>2026-08-09T01:07:21.713000Z</time>
      </trkpt>
      <trkpt lat="39.86047323587848" lon="116.47076468702268">
        <time>2026-08-09T01:07:36.813000Z</time>
      </trkpt>
      <trkpt lat="39.86045970317504" lon="116.47093328687417">
        <time>2026-08-09T01:07:42.913000Z</time>
      </trkpt>
      <trkpt lat="39.860455525608195" lon="116.47086905945241">
        <time>2026-08-09T01:07:48.913000Z</time>
      </trkpt>
      <trkpt lat="39.8605264787034" lon="116.47049171326736">
        <time>2026-08-09T01:08:01.013000Z</time>
      </trkpt>
      <trkpt lat="39.86062245797169" lon="116.47012339907567">
        <time>2026-08-09T01:08:13.313000Z</time>
      </trkpt>
      <trkpt lat="39.86069833896224" lon="116.46971795973577">
        <time>2026-08-09T01:08:28.513000Z</time>
      </trkpt>
      <trkpt lat="39.86070690059995" lon="116.46955839698376">
        <time>2026-08-09T01:08:34.613000Z</time>
      </trkpt>
      <trkpt lat="39.860786917575" lon="116.46920113155144">
        <time>2026-08-09T01:08:46.713000Z</time>
      </trkpt>
      <trkpt lat="39.86084677117913" lon="116.4687826574219">
        <time>2026-08-09T01:09:01.713000Z</time>
      </trkpt>
      <trkpt lat="39.86085538771275" lon="116.46864216490087">
        <time>2026-08-09T01:09:10.713000Z</time>
      </trkpt>
      <trkpt lat="39.86093535396628" lon="116.4682638339122">
        <time>2026-08-09T01:09:22.713000Z</time>
      </trkpt>
      <trkpt lat="39.86097921639384" lon="116.46784537143542">
        <time>2026-08-09T01:09:37.813000Z</time>
      </trkpt>
      <trkpt lat="39.861066348392214" lon="116.46752625240585">
        <time>2026-08-09T01:09:49.813000Z</time>
      </trkpt>
      <trkpt lat="39.861060641801174" lon="116.46726434557709">
        <time>2026-08-09T01:09:58.913000Z</time>
      </trkpt>
      <trkpt lat="39.86116756078873" lon="116.4668649516714">
        <time>2026-08-09T01:10:14.013000Z</time>
      </trkpt>
      <trkpt lat="39.86125462411979" lon="116.46651774401076">
        <time>2026-08-09T01:10:26.213000Z</time>
      </trkpt>
      <trkpt lat="39.86127595123868" lon="116.466266878622">
        <time>2026-08-09T01:10:35.413000Z</time>
      </trkpt>
      <trkpt lat="39.86135608639798" lon="116.46594476331771">
        <time>2026-08-09T01:10:47.713000Z</time>
      </trkpt>
      <trkpt lat="39.861440974696905" lon="116.46590461514192">
        <time>2026-08-09T01:10:50.713000Z</time>
      </trkpt>
      <trkpt lat="39.86171202145586" lon="116.46592766022724">
        <time>2026-08-09T01:11:02.713000Z</time>
      </trkpt>
      <trkpt lat="39.861975049947425" lon="116.46594368226032">
        <time>2026-08-09T01:11:14.713000Z</time>
      </trkpt>
      <trkpt lat="39.86210797579303" lon="116.46591857962899">
        <time>2026-08-09T01:11:20.713000Z</time>
      </trkpt>
      <trkpt lat="39.862430078740665" lon="116.46596369398013">
        <time>2026-08-09T01:11:35.713000Z</time>
      </trkpt>
      <trkpt lat="39.86271308212272" lon="116.46597068256656">
        <time>2026-08-09T01:11:47.713000Z</time>
      </trkpt>
      <trkpt lat="39.863039118013894" lon="116.4659907104771">
        <time>2026-08-09T01:12:02.713000Z</time>
      </trkpt>
      <trkpt lat="39.86336514055616" lon="116.46600572119708">
        <time>2026-08-09T01:12:17.713000Z</time>
      </trkpt>
      <trkpt lat="39.86356099271034" lon="116.46600711298748">
        <time>2026-08-09T01:12:26.713000Z</time>
      </trkpt>
      <trkpt lat="39.86389239346313" lon="116.46611101648718">
        <time>2026-08-09T01:12:38.713000Z</time>
      </trkpt>
      <trkpt lat="39.86393939361268" lon="116.46611201403657">
        <time>2026-08-09T01:12:41.713000Z</time>
      </trkpt>
      <trkpt lat="39.86414219510435" lon="116.46604174762666">
        <time>2026-08-09T01:12:50.713000Z</time>
      </trkpt>
      <trkpt lat="39.864458204916474" lon="116.46605174241307">
        <time>2026-08-09T01:13:05.713000Z</time>
      </trkpt>
      <trkpt lat="39.86458524901062" lon="116.4660707918809">
        <time>2026-08-09T01:13:11.713000Z</time>
      </trkpt>
      <trkpt lat="39.86489223791629" lon="116.46607276026583">
        <time>2026-08-09T01:13:26.713000Z</time>
      </trkpt>
      <trkpt lat="39.865164285001505" lon="116.4660958053317">
        <time>2026-08-09T01:13:38.713000Z</time>
      </trkpt>
      <trkpt lat="39.86548635357988" lon="116.46612787513352">
        <time>2026-08-09T01:13:53.813000Z</time>
      </trkpt>
      <trkpt lat="39.865676359532" lon="116.46613387196868">
        <time>2026-08-09T01:14:02.813000Z</time>
      </trkpt>
      <trkpt lat="39.86578844205" lon="116.46616697158397">
        <time>2026-08-09T01:14:08.913000Z</time>
      </trkpt>
    </trkseg>
  </trk>
</gpx>