<?xml version="1.0" encoding="UTF-8"?>
<gpx xmlns="http://www.topografix.com/GPX/1/1" xmlns:gpxtpx="http://www.garmin.com/xmlschemas/TrackPointExtension/v1" xmlns:xsi="http://www.w3.org/2001/XMLSchema-instance" xsi:schemaLocation="http://www.topografix.com/GPX/1/1 http://www.topografix.com/GPX/1/1/gpx.xsd" version="1.1" creator="gpx.py -- https://github.com/tkrajina/gpxpy">
  <trk>
    <name>gpx from keep</name>
    <type>Run</type>
    <trkseg>
      <trkpt lat="39.890327285311564" lon="116.34109377129978">
        <time>2026-09-22T22:15:20.896000Z</time>
      </trkpt>
      <trkpt lat="39.89036665136844" lon="116.3408872090322">
        <time>2026-09-22T22:15:26.896000Z</time>
      </trkpt>
      <trkpt lat="39.89027880849601" lon="116.34080140428408">
        <time>2026-09-22T22:15:35.996000Z</time>
      </trkpt>
      <trkpt lat="39.890262343943796" lon="116.34050204976263">
        <time>2026-09-22T22:15:45.296000Z</time>
      </trkpt>
      <trkpt lat="39.8903614071436" lon="116.34046411885264">
        <time>2026-09-22T22:15:48.296000Z</time>
      </trkpt>
      <trkpt lat="39.89063925144373" lon="116.34054391196138">
        <time>2026-09-22T22:16:00.296000Z</time>
      </trkpt>
      <trkpt lat="39.89068810829084" lon="116.34062273626344">
        <time>2026-09-22T22:16:03.296000Z</time>
      </trkpt>
      <trkpt lat="39.890677485742806" lon="116.34097198786601">
        <time>2026-09-22T22:16:15.296000Z</time>
      </trkpt>
      <trkpt lat="39.89069675908621" lon="116.34138011206473">
        <time>2026-09-22T22:16:27.496000Z</time>
      </trkpt>
      <trkpt lat="39.8907111058155" lon="116.34174832490555">
        <time>2026-09-22T22:16:39.496000Z</time>
      </trkpt>
      <trkpt lat="39.89069376259909" lon="116.34194291309349">
        <time>2026-09-22T22:16:45.596000Z</time>
      </trkpt>
      <trkpt lat="39.890720555222224" lon="116.34205966164471">
        <time>2026-09-22T22:16:48.696000Z</time>
      </trkpt>
      <trkpt lat="39.89077238559779" lon="116.34215445386388">
        <time>2026-09-22T22:16:51.696000Z</time>
      </trkpt>
      <trkpt lat="39.891020407494345" lon="116.34213546273907">
        <time>2026-09-22T22:17:00.896000Z</time>
      </trkpt>
      <trkpt lat="39.891314432554815" lon="116.34211347215907">
        <time>2026-09-22T22:17:13.196000Z</time>
      </trkpt>
      <trkpt lat="39.89161846598018" lon="116.34208649091558">
        <time>2026-09-22T22:17:25.296000Z</time>
      </trkpt>
      <trkpt lat="39.89191052464532" lon="116.3420455408694">
        <time>2026-09-22T22:17:37.296000Z</time>
      </trkpt>
      <trkpt lat="39.8922095020123" lon="116.34205049247258">
        <time>2026-09-22T22:17:49.296000Z</time>
      </trkpt>
      <trkpt lat="39.89243946673693" lon="116.34206443372899">
        <time>2026-09-22T22:17:58.296000Z</time>
      </trkpt>
      <trkpt lat="39.89266449509475" lon="116.34204245190138">
        <time>2026-09-22T22:18:07.296000Z</time>
      </trkpt>
      <trkpt lat="39.892880657797825" lon="116.34194463236956">
        <time>2026-09-22T22:18:16.296000Z</time>
      </trkpt>
      <trkpt lat="39.89315868730541" lon="116.3419206481345">
        <time>2026-09-22T22:18:28.296000Z</time>
      </trkpt>
      <trkpt lat="39.893442644278835" lon="116.34193757616511">
        <time>2026-09-22T22:18:40.296000Z</time>
      </trkpt>
      <trkpt lat="39.89351164992253" lon="116.3419325780479">
        <time>2026-09-22T22:18:43.296000Z</time>
      </trkpt>
      <trkpt lat="39.89337561386937" lon="116.34195654433573">
        <time>2026-09-22T22:18:52.296000Z</time>
      </trkpt>
      <trkpt lat="39.89309462679371" lon="116.3419565798623">
        <time>2026-09-22T22:19:04.396000Z</time>
      </trkpt>
      <trkpt lat="39.89304059051013" lon="116.34197854003477">
        <time>2026-09-22T22:19:07.396000Z</time>
      </trkpt>
      <trkpt lat="39.89296351071207" lon="116.34233187372051">
        <time>2026-09-22T22:19:25.596000Z</time>
      </trkpt>
      <trkpt lat="39.8930117873271" lon="116.34249489954719">
        <time>2026-09-22T22:19:31.596000Z</time>
      </trkpt>
      <trkpt lat="39.893210509194574" lon="116.3426025700141">
        <time>2026-09-22T22:19:37.696000Z</time>
      </trkpt>
      <trkpt lat="39.89329828950001" lon="116.3427109559815">
        <time>2026-09-22T22:19:40.696000Z</time>
      </trkpt>
      <trkpt lat="39.89345216343274" lon="116.34277879331427">
        <time>2026-09-22T22:19:46.796000Z</time>
      </trkpt>
      <trkpt lat="39.89315722423322" lon="116.34275188746382">
        <time>2026-09-22T22:19:58.896000Z</time>
      </trkpt>
      <trkpt lat="39.892987233807915" lon="116.34275091106657">
        <time>2026-09-22T22:20:05.096000Z</time>
      </trkpt>
      <trkpt lat="39.892914181186654" lon="116.34278285292682">
        <time>2026-09-22T22:20:08.096000Z</time>
      </trkpt>
      <trkpt lat="39.89284887307842" lon="116.34296048676248">
        <time>2026-09-22T22:20:14.196000Z</time>
      </trkpt>
      <trkpt lat="39.89277669835773" lon="116.34306228161431">
        <time>2026-09-22T22:20:17.196000Z</time>
      </trkpt>
      <trkpt lat="39.89248972206339" lon="116.34305633050599">
        <time>2026-09-22T22:20:29.196000Z</time>
      </trkpt>
      <trkpt lat="39.89241268723767" lon="116.34307829405654">
        <time>2026-09-22T22:20:32.196000Z</time>
      </trkpt>
      <trkpt lat="39.89241268723767" lon="116.34307829405654">
        <time>2026-09-22T22:20:34.696000Z</time>
      </trkpt>
      <trkpt lat="39.89252342412686" lon="116.34322596955725">
        <time>2026-09-22T22:21:26.196000Z</time>
      </trkpt>
      <trkpt lat="39.892844437197674" lon="116.34320996250412">
        <time>2026-09-22T22:21:38.196000Z</time>
      </trkpt>
      <trkpt lat="39.893163455614406" lon="116.3431909619996">
        <time>2026-09-22T22:21:50.196000Z</time>
      </trkpt>
      <trkpt lat="39.8934783923481" lon="116.34321886345451">
        <time>2026-09-22T22:22:02.296000Z</time>
      </trkpt>
      <trkpt lat="39.89377139109086" lon="116.3432118410738">
        <time>2026-09-22T22:22:14.296000Z</time>
      </trkpt>
      <trkpt lat="39.89409539714401" lon="116.34319982525686">
        <time>2026-09-22T22:22:26.296000Z</time>
      </trkpt>
      <trkpt lat="39.894403430093924" lon="116.3431728429242">
        <time>2026-09-22T22:22:38.296000Z</time>
      </trkpt>
      <trkpt lat="39.8947164837677" lon="116.34313388515002">
        <time>2026-09-22T22:22:50.296000Z</time>
      </trkpt>
      <trkpt lat="39.8950075245384" lon="116.34310291339796">
        <time>2026-09-22T22:23:02.296000Z</time>
      </trkpt>
      <trkpt lat="39.895334521839814" lon="116.34309588673212">
        <time>2026-09-22T22:23:14.296000Z</time>
      </trkpt>
      <trkpt lat="39.89562752245498" lon="116.34308786646615">
        <time>2026-09-22T22:23:26.296000Z</time>
      </trkpt>
      <trkpt lat="39.89591356178651" lon="116.34305789327492">
        <time>2026-09-22T22:23:38.296000Z</time>
      </trkpt>
      <trkpt lat="39.896199618602445" lon="116.34301794110553">
        <time>2026-09-22T22:23:50.296000Z</time>
      </trkpt>
      <trkpt lat="39.89647163768726" lon="116.34299994451513">
        <time>2026-09-22T22:24:02.296000Z</time>
      </trkpt>
      <trkpt lat="39.896844767490585" lon="116.34291607388008">
        <time>2026-09-22T22:24:17.296000Z</time>
      </trkpt>
      <trkpt lat="39.89710595871913" lon="116.3429204234471">
        <time>2026-09-22T22:24:26.296000Z</time>
      </trkpt>
      <trkpt lat="39.89741877999245" lon="116.34289404754044">
        <time>2026-09-22T22:24:38.296000Z</time>
      </trkpt>
      <trkpt lat="39.89769778837923" lon="116.34288203748888">
        <time>2026-09-22T22:24:50.296000Z</time>
      </trkpt>
      <trkpt lat="39.898002977003365" lon="116.34289857693646">
        <time>2026-09-22T22:25:02.296000Z</time>
      </trkpt>
      <trkpt lat="39.898294777234874" lon="116.34287298090719">
        <time>2026-09-22T22:25:14.296000Z</time>
      </trkpt>
      <trkpt lat="39.8985738783376" lon="116.3428080823812">
        <time>2026-09-22T22:25:26.296000Z</time>
      </trkpt>
      <trkpt lat="39.898702051053924" lon="116.34270628097207">
        <time>2026-09-22T22:25:32.296000Z</time>
      </trkpt>
      <trkpt lat="39.89879730954137" lon="116.34255658517876">
        <time>2026-09-22T22:25:38.296000Z</time>
      </trkpt>
      <trkpt lat="39.8986180093178" lon="116.34273223682932">
        <time>2026-09-22T22:25:47.296000Z</time>
      </trkpt>
      <trkpt lat="39.89845789404043" lon="116.34280210968204">
        <time>2026-09-22T22:25:53.296000Z</time>
      </trkpt>
      <trkpt lat="39.89814289071278" lon="116.34281212847755">
        <time>2026-09-22T22:26:05.396000Z</time>
      </trkpt>
      <trkpt lat="39.89784884624756" lon="116.34284509622252">
        <time>2026-09-22T22:26:17.396000Z</time>
      </trkpt>
      <trkpt lat="39.8975907949508" lon="116.34288105312581">
        <time>2026-09-22T22:26:29.596000Z</time>
      </trkpt>
      <trkpt lat="39.89726782530828" lon="116.34287824511416">
        <time>2026-09-22T22:26:41.796000Z</time>
      </trkpt>
      <trkpt lat="39.89698480483945" lon="116.3428911087422">
        <time>2026-09-22T22:26:53.996000Z</time>
      </trkpt>
      <trkpt lat="39.89669384072393" lon="116.34287817288838">
        <time>2026-09-22T22:27:09.196000Z</time>
      </trkpt>
      <trkpt lat="39.89663480844558" lon="116.34289813828921">
        <time>2026-09-22T22:27:12.296000Z</time>
      </trkpt>
      <trkpt lat="39.896362782333654" lon="116.34292012643282">
        <time>2026-09-22T22:27:24.296000Z</time>
      </trkpt>
      <trkpt lat="39.896301708248956" lon="116.34296404166014">
        <time>2026-09-22T22:27:27.296000Z</time>
      </trkpt>
      <trkpt lat="39.896000727148575" lon="116.3429610860346">
        <time>2026-09-22T22:27:39.296000Z</time>
      </trkpt>
      <trkpt lat="39.89572271358932" lon="116.34297608967304">
        <time>2026-09-22T22:27:51.296000Z</time>
      </trkpt>
      <trkpt lat="39.895436834957806" lon="116.34299799754605">
        <time>2026-09-22T22:28:03.296000Z</time>
      </trkpt>
      <trkpt lat="39.895139701725576" lon="116.34299811718373">
        <time>2026-09-22T22:28:15.296000Z</time>
      </trkpt>
      <trkpt lat="39.89485167122774" lon="116.34302310109275">
        <time>2026-09-22T22:28:27.396000Z</time>
      </trkpt>
      <trkpt lat="39.89456469131996" lon="116.34301914579154">
        <time>2026-09-22T22:28:39.396000Z</time>
      </trkpt>
      <trkpt lat="39.89423462963717" lon="116.34306309512756">
        <time>2026-09-22T22:28:54.496000Z</time>
      </trkpt>
      <trkpt lat="39.89394081363042" lon="116.34307891641262">
        <time>2026-09-22T22:29:06.596000Z</time>
      </trkpt>
      <trkpt lat="39.89366360173774" lon="116.34309410226534">
        <time>2026-09-22T22:29:18.796000Z</time>
      </trkpt>
      <trkpt lat="39.893388489090626" lon="116.34311975141486">
        <time>2026-09-22T22:29:31.096000Z</time>
      </trkpt>
      <trkpt lat="39.89309009139081" lon="116.34313727992682">
        <time>2026-09-22T22:29:43.296000Z</time>
      </trkpt>
      <trkpt lat="39.892790442078244" lon="116.34314496541232">
        <time>2026-09-22T22:29:55.296000Z</time>
      </trkpt>
      <trkpt lat="39.89251850276133" lon="116.34318106454072">
        <time>2026-09-22T22:30:07.296000Z</time>
      </trkpt>
      <trkpt lat="39.89220348942817" lon="116.3431970708251">
        <time>2026-09-22T22:30:19.296000Z</time>
      </trkpt>
      <trkpt lat="39.89191744168084" lon="116.34323203361738">
        <time>2026-09-22T22:30:31.296000Z</time>
      </trkpt>
      <trkpt lat="39.891707387914664" lon="116.34327255823467">
        <time>2026-09-22T22:30:40.296000Z</time>
      </trkpt>
      <trkpt lat="39.89142144898651" lon="116.34324107747805">
        <time>2026-09-22T22:30:52.296000Z</time>
      </trkpt>
      <trkpt lat="39.891129490410286" lon="116.34322514794106">
        <time>2026-09-22T22:31:04.296000Z</time>
      </trkpt>
      <trkpt lat="39.89081851706179" lon="116.34321820194309">
        <time>2026-09-22T22:31:16.296000Z</time>
      </trkpt>
      <trkpt lat="39.89052951135409" lon="116.34322921543006">
        <time>2026-09-22T22:31:28.296000Z</time>
      </trkpt>
      <trkpt lat="39.890255539804606" lon="116.34322026894422">
        <time>2026-09-22T22:31:40.296000Z</time>
      </trkpt>
      <trkpt lat="39.889953155407525" lon="116.34321082451436">
        <time>2026-09-22T22:31:52.296000Z</time>
      </trkpt>
      <trkpt lat="39.889805607859415" lon="116.34319338245415">
        <time>2026-09-22T22:31:58.296000Z</time>
      </trkpt>
      <trkpt lat="39.889656574754824" lon="116.34321635307367">
        <time>2026-09-22T22:32:04.296000Z</time>
      </trkpt>
      <trkpt lat="39.88935362901276" lon="116.34319343960871">
        <time>2026-09-22T22:32:16.296000Z</time>
      </trkpt>
      <trkpt lat="39.88906166884186" lon="116.34317850798507">
        <time>2026-09-22T22:32:28.296000Z</time>
      </trkpt>
      <trkpt lat="39.88876469498582" lon="116.34317156021899">
        <time>2026-09-22T22:32:40.296000Z</time>
      </trkpt>
      <trkpt lat="39.888473691240605" lon="116.34318157604253">
        <time>2026-09-22T22:32:52.396000Z</time>
      </trkpt>
      <trkpt lat="39.88813875407418" lon="116.34315467502645">
        <time>2026-09-22T22:33:07.496000Z</time>
      </trkpt>
      <trkpt lat="39.888077702920675" lon="116.34318561772513">
        <time>2026-09-22T22:33:10.496000Z</time>
      </trkpt>
      <trkpt lat="39.887807450061246" lon="116.3431496406291">
        <time>2026-09-22T22:33:19.596000Z</time>
      </trkpt>
      <trkpt lat="39.88750574735154" lon="116.34317571101764">
        <time>2026-09-22T22:33:31.796000Z</time>
      </trkpt>
      <trkpt lat="39.88722879531482" lon="116.34315578798603">
        <time>2026-09-22T22:33:44.096000Z</time>
      </trkpt>
      <trkpt lat="39.88692178720064" lon="116.34316879953539">
        <time>2026-09-22T22:33:56.296000Z</time>
      </trkpt>
      <trkpt lat="39.88664880189612" lon="116.34316783614848">
        <time>2026-09-22T22:34:08.296000Z</time>
      </trkpt>
      <trkpt lat="39.88632382605357" lon="116.34316288772463">
        <time>2026-09-22T22:34:20.396000Z</time>
      </trkpt>
      <trkpt lat="39.886198845944186" lon="116.34315492030741">
        <time>2026-09-22T22:34:26.396000Z</time>
      </trkpt>
      <trkpt lat="39.886138815683374" lon="116.34317388804462">
        <time>2026-09-22T22:34:29.396000Z</time>
      </trkpt>
      <trkpt lat="39.88580981218635" lon="116.34318490657249">
        <time>2026-09-22T22:34:41.496000Z</time>
      </trkpt>
      <trkpt lat="39.88551684707869" lon="116.34317296877907">
        <time>2026-09-22T22:34:53.596000Z</time>
      </trkpt>
      <trkpt lat="39.885224864516836" lon="116.34317100988912">
        <time>2026-09-22T22:35:05.796000Z</time>
      </trkpt>
      <trkpt lat="39.88494385530739" lon="116.34318401815293">
        <time>2026-09-22T22:35:18.096000Z</time>
      </trkpt>
      <trkpt lat="39.8847229146964" lon="116.34315610481178">
        <time>2026-09-22T22:35:27.296000Z</time>
      </trkpt>
      <trkpt lat="39.88441189127295" lon="116.34317809799008">
        <time>2026-09-22T22:35:39.296000Z</time>
      </trkpt>
      <trkpt lat="39.884191891385974" lon="116.34318411322072">
        <time>2026-09-22T22:35:48.296000Z</time>
      </trkpt>
      <trkpt lat="39.883894942272185" lon="116.34316319480435">
        <time>2026-09-22T22:36:00.296000Z</time>
      </trkpt>
      <trkpt lat="39.88361496970582" lon="116.34315524697901">
        <time>2026-09-22T22:36:12.296000Z</time>
      </trkpt>
      <trkpt lat="39.88327490071861" lon="116.34320418721136">
        <time>2026-09-22T22:36:27.296000Z</time>
      </trkpt>
      <trkpt lat="39.88298092538199" lon="116.34319823695542">
        <time>2026-09-22T22:36:39.296000Z</time>
      </trkpt>
      <trkpt lat="39.882697949534624" lon="116.34319228530909">
        <time>2026-09-22T22:36:51.296000Z</time>
      </trkpt>
      <trkpt lat="39.8824219977664" lon="116.34317236213438">
        <time>2026-09-22T22:37:03.296000Z</time>
      </trkpt>
      <trkpt lat="39.882136018621075" lon="116.34316840667493">
        <time>2026-09-22T22:37:15.296000Z</time>
      </trkpt>
      <trkpt lat="39.881788979728604" lon="116.34320038344109">
        <time>2026-09-22T22:37:30.296000Z</time>
      </trkpt>
      <trkpt lat="39.88156995380636" lon="116.3432213671029">
        <time>2026-09-22T22:37:39.296000Z</time>
      </trkpt>
      <trkpt lat="39.881235992741246" lon="116.34320843657142">
        <time>2026-09-22T22:37:54.396000Z</time>
      </trkpt>
      <trkpt lat="39.88095899059089" lon="116.3432174527191">
        <time>2026-09-22T22:38:06.496000Z</time>
      </trkpt>
      <trkpt lat="39.88068595343019" lon="116.34324642644876">
        <time>2026-09-22T22:38:18.696000Z</time>
      </trkpt>
      <trkpt lat="39.8803469247617" lon="116.34327241482245">
        <time>2026-09-22T22:38:30.896000Z</time>
      </trkpt>
      <trkpt lat="39.88004291008235" lon="116.34328941763631">
        <time>2026-09-22T22:38:43.296000Z</time>
      </trkpt>
      <trkpt lat="39.879705881390315" lon="116.34331540577938">
        <time>2026-09-22T22:38:55.296000Z</time>
      </trkpt>
      <trkpt lat="39.87940487184641" lon="116.34332941450964">
        <time>2026-09-22T22:39:07.296000Z</time>
      </trkpt>
      <trkpt lat="39.87927681899797" lon="116.34336335951124">
        <time>2026-09-22T22:39:13.296000Z</time>
      </trkpt>
      <trkpt lat="39.87899082093457" lon="116.34337038100917">
        <time>2026-09-22T22:39:25.296000Z</time>
      </trkpt>
      <trkpt lat="39.87870581588637" lon="116.34338139401032">
        <time>2026-09-22T22:39:37.296000Z</time>
      </trkpt>
      <trkpt lat="39.8784288035087" lon="116.34339639763272">
        <time>2026-09-22T22:39:49.296000Z</time>
      </trkpt>
      <trkpt lat="39.87808279805636" lon="116.3434094141647">
        <time>2026-09-22T22:40:04.296000Z</time>
      </trkpt>
      <trkpt lat="39.87779076735283" lon="116.34343539668211">
        <time>2026-09-22T22:40:16.296000Z</time>
      </trkpt>
      <trkpt lat="39.877426698560505" lon="116.34348533813338">
        <time>2026-09-22T22:40:31.296000Z</time>
      </trkpt>
      <trkpt lat="39.8771356366247" lon="116.3435292829469">
        <time>2026-09-22T22:40:43.296000Z</time>
      </trkpt>
      <trkpt lat="39.87680061514173" lon="116.34355127931916">
        <time>2026-09-22T22:40:58.296000Z</time>
      </trkpt>
      <trkpt lat="39.87651862577062" lon="116.34355331078206">
        <time>2026-09-22T22:41:10.296000Z</time>
      </trkpt>
      <trkpt lat="39.87622316874262" lon="116.34354253007194">
        <time>2026-09-22T22:41:25.296000Z</time>
      </trkpt>
      <trkpt lat="39.87611265653029" lon="116.34354737462999">
        <time>2026-09-22T22:41:31.296000Z</time>
      </trkpt>
      <trkpt lat="39.875814850441536" lon="116.34361344065915">
        <time>2026-09-22T22:41:43.296000Z</time>
      </trkpt>
      <trkpt lat="39.875509534069344" lon="116.34363526706186">
        <time>2026-09-22T22:41:55.296000Z</time>
      </trkpt>
      <trkpt lat="39.87536953244146" lon="116.3436402743184">
        <time>2026-09-22T22:42:01.296000Z</time>
      </trkpt>
      <trkpt lat="39.87531257348665" lon="116.34361832744933">
        <time>2026-09-22T22:42:04.296000Z</time>
      </trkpt>
      <trkpt lat="39.875041547238546" lon="116.34364131368443">
        <time>2026-09-22T22:42:16.296000Z</time>
      </trkpt>
      <trkpt lat="39.874758521625886" lon="116.34366430144686">
        <time>2026-09-22T22:42:28.296000Z</time>
      </trkpt>
      <trkpt lat="39.87447351348854" lon="116.34367731033768">
        <time>2026-09-22T22:42:40.296000Z</time>
      </trkpt>
      <trkpt lat="39.87417949369397" lon="116.34369730576542">
        <time>2026-09-22T22:42:52.296000Z</time>
      </trkpt>
      <trkpt lat="39.8739024840068" lon="116.3437214097381">
        <time>2026-09-22T22:43:04.296000Z</time>
      </trkpt>
      <trkpt lat="39.87360964302843" lon="116.34376279578781">
        <time>2026-09-22T22:43:16.296000Z</time>
      </trkpt>
      <trkpt lat="39.87327182078498" lon="116.34378805655813">
        <time>2026-09-22T22:43:31.296000Z</time>
      </trkpt>
      <trkpt lat="39.87299857046491" lon="116.34380093832118">
        <time>2026-09-22T22:43:43.396000Z</time>
      </trkpt>
      <trkpt lat="39.87272526369367" lon="116.34383734243302">
        <time>2026-09-22T22:43:55.396000Z</time>
      </trkpt>
      <trkpt lat="39.87244676071442" lon="116.3438681335449">
        <time>2026-09-22T22:44:07.396000Z</time>
      </trkpt>
      <trkpt lat="39.87214223720952" lon="116.343905129719">
        <time>2026-09-22T22:44:19.496000Z</time>
      </trkpt>
      <trkpt lat="39.87180118722892" lon="116.34394409163637">
        <time>2026-09-22T22:44:37.696000Z</time>
      </trkpt>
      <trkpt lat="39.87146217352117" lon="116.34396209702153">
        <time>2026-09-22T22:44:49.896000Z</time>
      </trkpt>
      <trkpt lat="39.87119409913738" lon="116.34401302480349">
        <time>2026-09-22T22:45:02.196000Z</time>
      </trkpt>
      <trkpt lat="39.87090398931479" lon="116.34405257683986">
        <time>2026-09-22T22:45:14.296000Z</time>
      </trkpt>
      <trkpt lat="39.87060961582983" lon="116.34408651573467">
        <time>2026-09-22T22:45:26.296000Z</time>
      </trkpt>
      <trkpt lat="39.87031461058694" lon="116.34410236139202">
        <time>2026-09-22T22:45:38.296000Z</time>
      </trkpt>
      <trkpt lat="39.869984943976256" lon="116.34413891572545">
        <time>2026-09-22T22:45:53.296000Z</time>
      </trkpt>
      <trkpt lat="39.8697077917421" lon="116.34419253209138">
        <time>2026-09-22T22:46:05.296000Z</time>
      </trkpt>
      <trkpt lat="39.86943281217117" lon="116.34423179241838">
        <time>2026-09-22T22:46:17.296000Z</time>
      </trkpt>
      <trkpt lat="39.86914036992771" lon="116.34427045031194">
        <time>2026-09-22T22:46:29.296000Z</time>
      </trkpt>
      <trkpt lat="39.86886374871378" lon="116.34428575230487">
        <time>2026-09-22T22:46:41.296000Z</time>
      </trkpt>
      <trkpt lat="39.86857871189575" lon="116.34431572611467">
        <time>2026-09-22T22:46:53.296000Z</time>
      </trkpt>
      <trkpt lat="39.868311648333126" lon="116.34436066658324">
        <time>2026-09-22T22:47:05.296000Z</time>
      </trkpt>
      <trkpt lat="39.86844438946519" lon="116.34439415119037">
        <time>2026-09-22T22:47:17.296000Z</time>
      </trkpt>
      <trkpt lat="39.868724625004525" lon="116.34436161232118">
        <time>2026-09-22T22:47:26.296000Z</time>
      </trkpt>
      <trkpt lat="39.8690036776329" lon="116.34432265789658">
        <time>2026-09-22T22:47:38.396000Z</time>
      </trkpt>
      <trkpt lat="39.86927369457977" lon="116.34430466109495">
        <time>2026-09-22T22:47:50.396000Z</time>
      </trkpt>
      <trkpt lat="39.86954573558643" lon="116.34427269308273">
        <time>2026-09-22T22:48:02.496000Z</time>
      </trkpt>
      <trkpt lat="39.869830791480744" lon="116.34423174212318">
        <time>2026-09-22T22:48:14.796000Z</time>
      </trkpt>
      <trkpt lat="39.870106880683956" lon="116.34417183178122">
        <time>2026-09-22T22:48:26.996000Z</time>
      </trkpt>
      <trkpt lat="39.870413932104725" lon="116.34413287397467">
        <time>2026-09-22T22:48:39.296000Z</time>
      </trkpt>
      <trkpt lat="39.87072896589398" lon="116.3441038944113">
        <time>2026-09-22T22:48:51.296000Z</time>
      </trkpt>
      <trkpt lat="39.87101098588098" lon="116.34408390033201">
        <time>2026-09-22T22:49:03.296000Z</time>
      </trkpt>
      <trkpt lat="39.87129304045693" lon="116.34404394783559">
        <time>2026-09-22T22:49:15.296000Z</time>
      </trkpt>
      <trkpt lat="39.87157808455644" lon="116.34400998251522">
        <time>2026-09-22T22:49:27.396000Z</time>
      </trkpt>
      <trkpt lat="39.87184912250084" lon="116.3439800106669">
        <time>2026-09-22T22:49:39.396000Z</time>
      </trkpt>
      <trkpt lat="39.87201414862097" lon="116.34396003142496">
        <time>2026-09-22T22:49:48.496000Z</time>
      </trkpt>
      <trkpt lat="39.87229515497394" lon="116.3439480208835">
        <time>2026-09-22T22:50:00.596000Z</time>
      </trkpt>
      <trkpt lat="39.872508220197915" lon="116.34390408554778">
        <time>2026-09-22T22:50:09.696000Z</time>
      </trkpt>
      <trkpt lat="39.87264721135945" lon="116.34390506589966">
        <time>2026-09-22T22:50:15.896000Z</time>
      </trkpt>
      <trkpt lat="39.87285227358298" lon="116.34386312744883">
        <time>2026-09-22T22:50:25.096000Z</time>
      </trkpt>
      <trkpt lat="39.87313928837413" lon="116.34384612658815">
        <time>2026-09-22T22:50:37.296000Z</time>
      </trkpt>
      <trkpt lat="39.87343730090175" lon="116.34383012225966">
        <time>2026-09-22T22:50:49.296000Z</time>
      </trkpt>
      <trkpt lat="39.87372936226793" lon="116.34378617704793">
        <time>2026-09-22T22:51:01.296000Z</time>
      </trkpt>
      <trkpt lat="39.874007388005886" lon="116.34376318985986">
        <time>2026-09-22T22:51:13.296000Z</time>
      </trkpt>
      <trkpt lat="39.87431343662422" lon="116.34372622834013">
        <time>2026-09-22T22:51:25.296000Z</time>
      </trkpt>
      <trkpt lat="39.87459545529283" lon="116.3437072323307">
        <time>2026-09-22T22:51:37.296000Z</time>
      </trkpt>
      <trkpt lat="39.87487845833196" lon="116.3436972174256">
        <time>2026-09-22T22:51:49.296000Z</time>
      </trkpt>
      <trkpt lat="39.875219481017545" lon="116.34367422231708">
        <time>2026-09-22T22:52:04.296000Z</time>
      </trkpt>
      <trkpt lat="39.87537049249028" lon="116.34366322618783">
        <time>2026-09-22T22:52:10.296000Z</time>
      </trkpt>
      <trkpt lat="39.8757064617092" lon="116.34367116702788">
        <time>2026-09-22T22:52:25.296000Z</time>
      </trkpt>
      <trkpt lat="39.875980437540065" lon="116.3436771198777">
        <time>2026-09-22T22:52:37.296000Z</time>
      </trkpt>
      <trkpt lat="39.87626444931457" lon="116.34366211528535">
        <time>2026-09-22T22:52:52.296000Z</time>
      </trkpt>
      <trkpt lat="39.87637444900771" lon="116.34365910764353">
        <time>2026-09-22T22:52:58.296000Z</time>
      </trkpt>
      <trkpt lat="39.87660380015996" lon="116.34369895332082">
        <time>2026-09-22T22:53:07.396000Z</time>
      </trkpt>
      <trkpt lat="39.87689537091757" lon="116.34368897919208">
        <time>2026-09-22T22:53:19.396000Z</time>
      </trkpt>
      <trkpt lat="39.8771674371334" lon="116.3436430408103">
        <time>2026-09-22T22:53:31.596000Z</time>
      </trkpt>
      <trkpt lat="39.877369555498575" lon="116.3435691698002">
        <time>2026-09-22T22:53:40.696000Z</time>
      </trkpt>
      <trkpt lat="39.87766756150105" lon="116.34355715720325">
        <time>2026-09-22T22:53:52.996000Z</time>
      </trkpt>
      <trkpt lat="39.87795562186933" lon="116.34351421065357">
        <time>2026-09-22T22:54:05.196000Z</time>
      </trkpt>
      <trkpt lat="39.87824665086325" lon="116.34348922612966">
        <time>2026-09-22T22:54:17.296000Z</time>
      </trkpt>
      <trkpt lat="39.878545693398365" lon="116.34345625733623">
        <time>2026-09-22T22:54:29.296000Z</time>
      </trkpt>
      <trkpt lat="39.87883271918263" lon="116.34343326916385">
        <time>2026-09-22T22:54:41.296000Z</time>
      </trkpt>
      <trkpt lat="39.87912471866933" lon="116.34342524899016">
        <time>2026-09-22T22:54:53.296000Z</time>
      </trkpt>
      <trkpt lat="39.87941375310582" lon="116.34339727104098">
        <time>2026-09-22T22:55:05.296000Z</time>
      </trkpt>
      <trkpt lat="39.879705785690035" lon="116.34337029063548">
        <time>2026-09-22T22:55:17.296000Z</time>
      </trkpt>
      <trkpt lat="39.879988822230715" lon="116.34334131556933">
        <time>2026-09-22T22:55:29.296000Z</time>
      </trkpt>
      <trkpt lat="39.88027581336221" lon="116.34333828557328">
        <time>2026-09-22T22:55:41.296000Z</time>
      </trkpt>
      <trkpt lat="39.88048777512974" lon="116.34335422528048">
        <time>2026-09-22T22:55:50.296000Z</time>
      </trkpt>
      <trkpt lat="39.880828848929255" lon="116.34330229105716">
        <time>2026-09-22T22:56:05.296000Z</time>
      </trkpt>
      <trkpt lat="39.88112485709325" lon="116.34328928087034">
        <time>2026-09-22T22:56:17.296000Z</time>
      </trkpt>
      <trkpt lat="39.88141586378508" lon="116.34327726922379">
        <time>2026-09-22T22:56:29.296000Z</time>
      </trkpt>
      <trkpt lat="39.881695857106564" lon="116.34327324220983">
        <time>2026-09-22T22:56:41.396000Z</time>
      </trkpt>
      <trkpt lat="39.88196683695643" lon="116.3432771995736">
        <time>2026-09-22T22:56:53.396000Z</time>
      </trkpt>
      <trkpt lat="39.882263857352285" lon="116.34325720393244">
        <time>2026-09-22T22:57:05.396000Z</time>
      </trkpt>
      <trkpt lat="39.8825348442054" lon="116.34325716967528">
        <time>2026-09-22T22:57:17.496000Z</time>
      </trkpt>
      <trkpt lat="39.88283184200871" lon="116.34325014679885">
        <time>2026-09-22T22:57:29.496000Z</time>
      </trkpt>
      <trkpt lat="39.88313284486655" lon="116.34324012970434">
        <time>2026-09-22T22:57:41.796000Z</time>
      </trkpt>
      <trkpt lat="39.883405819490264" lon="116.34324708052381">
        <time>2026-09-22T22:57:53.996000Z</time>
      </trkpt>
      <trkpt lat="39.88369380037638" lon="116.34325003782934">
        <time>2026-09-22T22:58:06.196000Z</time>
      </trkpt>
      <trkpt lat="39.884001808186774" lon="116.34323702613597">
        <time>2026-09-22T22:58:18.296000Z</time>
      </trkpt>
      <trkpt lat="39.88428979085631" lon="116.34323898553568">
        <time>2026-09-22T22:58:30.296000Z</time>
      </trkpt>
      <trkpt lat="39.88461673336206" lon="116.34326289390367">
        <time>2026-09-22T22:58:45.296000Z</time>
      </trkpt>
      <trkpt lat="39.88490574214906" lon="116.34324988460766">
        <time>2026-09-22T22:58:57.296000Z</time>
      </trkpt>
      <trkpt lat="39.885188733829246" lon="116.3432468551162">
        <time>2026-09-22T22:59:09.296000Z</time>
      </trkpt>
      <trkpt lat="39.88546175039118" lon="116.34322985623031">
        <time>2026-09-22T22:59:21.296000Z</time>
      </trkpt>
      <trkpt lat="39.88574770539035" lon="116.34324778234794">
        <time>2026-09-22T22:59:33.296000Z</time>
      </trkpt>
      <trkpt lat="39.88603269354944" lon="116.3432467484112">
        <time>2026-09-22T22:59:45.296000Z</time>
      </trkpt>
      <trkpt lat="39.88644369838011" lon="116.34323272578906">
        <time>2026-09-22T23:00:03.396000Z</time>
      </trkpt>
      <trkpt lat="39.88672868658661" lon="116.3432316918517">
        <time>2026-09-22T23:00:15.396000Z</time>
      </trkpt>
      <trkpt lat="39.887000678912166" lon="116.34322866374957">
        <time>2026-09-22T23:00:27.496000Z</time>
      </trkpt>
      <trkpt lat="39.8872896774186" lon="116.34322164188241">
        <time>2026-09-22T23:00:39.696000Z</time>
      </trkpt>
      <trkpt lat="39.887497644934925" lon="116.34323458833484">
        <time>2026-09-22T23:00:48.896000Z</time>
      </trkpt>
      <trkpt lat="39.88735775609378" lon="116.34317473182722">
        <time>2026-09-22T23:00:58.096000Z</time>
      </trkpt>
      <trkpt lat="39.887058785935984" lon="116.34316578850584">
        <time>2026-09-22T23:01:10.196000Z</time>
      </trkpt>
      <trkpt lat="39.8867378098723" lon="116.34316083957725">
        <time>2026-09-22T23:01:22.296000Z</time>
      </trkpt>
      <trkpt lat="39.88646279853112" lon="116.34317484498446">
        <time>2026-09-22T23:01:34.296000Z</time>
      </trkpt>
      <trkpt lat="39.8861908236657" lon="116.3431678940533">
        <time>2026-09-22T23:01:46.296000Z</time>
      </trkpt>
      <trkpt lat="39.88586739896767" lon="116.3431686702326">
        <time>2026-09-22T23:01:58.296000Z</time>
      </trkpt>
      <trkpt lat="39.88555284535994" lon="116.34317296422778">
        <time>2026-09-22T23:02:10.296000Z</time>
      </trkpt>
      <trkpt lat="39.885270851860646" lon="116.34317699149122">
        <time>2026-09-22T23:02:22.296000Z</time>
      </trkpt>
      <trkpt lat="39.88504488184239" lon="116.34316604313106">
        <time>2026-09-22T23:02:31.296000Z</time>
      </trkpt>
      <trkpt lat="39.88515276341881" lon="116.34323089319986">
        <time>2026-09-22T23:02:40.296000Z</time>
      </trkpt>
      <trkpt lat="39.88547873041963" lon="116.3432408310267">
        <time>2026-09-22T23:02:52.296000Z</time>
      </trkpt>
      <trkpt lat="39.8857876982582" lon="116.34325077100405">
        <time>2026-09-22T23:03:04.296000Z</time>
      </trkpt>
      <trkpt lat="39.88607871051756" lon="116.34323576564867">
        <time>2026-09-22T23:03:16.296000Z</time>
      </trkpt>
      <trkpt lat="39.88640470720126" lon="116.34322873910378">
        <time>2026-09-22T23:03:31.296000Z</time>
      </trkpt>
      <trkpt lat="39.88671265773699" lon="116.3432486582462">
        <time>2026-09-22T23:03:43.296000Z</time>
      </trkpt>
      <trkpt lat="39.88700466827151" lon="116.34323465066802">
        <time>2026-09-22T23:03:55.296000Z</time>
      </trkpt>
      <trkpt lat="39.88729569629778" lon="116.34321066418296">
        <time>2026-09-22T23:04:07.296000Z</time>
      </trkpt>
      <trkpt lat="39.8875746552301" lon="116.34322659536717">
        <time>2026-09-22T23:04:19.296000Z</time>
      </trkpt>
      <trkpt lat="39.88788261978303" lon="116.34323853127228">
        <time>2026-09-22T23:04:31.296000Z</time>
      </trkpt>
      <trkpt lat="39.88802162541859" lon="116.34323152836856">
        <time>2026-09-22T23:04:37.296000Z</time>
      </trkpt>
      <trkpt lat="39.88830372189893" lon="116.3431686248003">
        <time>2026-09-22T23:04:52.296000Z</time>
      </trkpt>
      <trkpt lat="39.88849860295132" lon="116.34323146805573">
        <time>2026-09-22T23:04:58.296000Z</time>
      </trkpt>
      <trkpt lat="39.88874958940813" lon="116.34323243422227">
        <time>2026-09-22T23:05:07.396000Z</time>
      </trkpt>
      <trkpt lat="39.88903553766251" lon="116.34325435195139">
        <time>2026-09-22T23:05:19.396000Z</time>
      </trkpt>
      <trkpt lat="39.88933352368954" lon="116.34325431426993">
        <time>2026-09-22T23:05:31.396000Z</time>
      </trkpt>
      <trkpt lat="39.88961148107003" lon="116.34327124349481">
        <time>2026-09-22T23:05:43.596000Z</time>
      </trkpt>
      <trkpt lat="39.88989545734335" lon="116.34327719501135">
        <time>2026-09-22T23:05:55.796000Z</time>
      </trkpt>
      <trkpt lat="39.89017844238723" lon="116.34327815712992">
        <time>2026-09-22T23:06:07.996000Z</time>
      </trkpt>
      <trkpt lat="39.890363409384825" lon="116.34329210440589">
        <time>2026-09-22T23:06:17.096000Z</time>
      </trkpt>
      <trkpt lat="39.890363409384825" lon="116.34329210440589">
        <time>2026-09-22T23:06:19.996000Z</time>
      </trkpt>
      <trkpt lat="39.89073493173873" lon="116.3418461137412">
        <time>2026-09-22T23:09:14.296000Z</time>
      </trkpt>
      <trkpt lat="39.890719658846294" lon="116.34143598982448">
        <time>2026-09-22T23:09:26.296000Z</time>
      </trkpt>
      <trkpt lat="39.89071541999534" lon="116.34100790607806">
        <time>2026-09-22T23:09:38.396000Z</time>
      </trkpt>
      <trkpt lat="39.89071619613625" lon="116.34057283999465">
        <time>2026-09-22T23:09:50.396000Z</time>
      </trkpt>
      <trkpt lat="39.890695425500155" lon="116.34044511745611">
        <time>2026-09-22T23:09:53.396000Z</time>
      </trkpt>
      <trkpt lat="39.89065042938026" lon="116.34044412529063">
        <time>2026-09-22T23:09:56.396000Z</time>
      </trkpt>
      <trkpt lat="39.89065042938026" lon="116.34044412529063">
        <time>2026-09-22T23:09:58.596000Z</time>
      </trkpt>
    </trkseg>
  </trk>
</gpx>