<?xml version="1.0" encoding="UTF-8"?>
<gpx xmlns="http://www.topografix.com/GPX/1/1" xmlns:gpxtpx="http://www.garmin.com/xmlschemas/TrackPointExtension/v1" xmlns:xsi="http://www.w3.org/2001/XMLSchema-instance" xsi:schemaLocation="http://www.topografix.com/GPX/1/1 http://www.topografix.com/GPX/1/1/gpx.xsd" version="1.1" creator="gpx.py -- https://github.com/tkrajina/gpxpy">
  <trk>
    <name>gpx from keep</name>
    <type>Run</type>
    <trkseg>
      <trkpt lat="37.85616411377673" lon="112.56111687476874">
        <ele>0.0</ele>
        <time>2026-09-25T23:43:27Z</time>
      </trkpt>
      <trkpt lat="37.8561346068523" lon="112.5607432939485">
        <ele>0.0</ele>
        <time>2026-09-25T23:43:42Z</time>
      </trkpt>
      <trkpt lat="37.85616648339923" lon="112.56064814023482">
        <ele>0.0</ele>
        <time>2026-09-25T23:43:48.200000Z</time>
      </trkpt>
      <trkpt lat="37.85617326674639" lon="112.56048788566683">
        <ele>0.0</ele>
        <time>2026-09-25T23:43:54.300000Z</time>
      </trkpt>
      <trkpt lat="37.856203158350766" lon="112.56040475000157">
        <ele>0.0</ele>
        <time>2026-09-25T23:43:57.400000Z</time>
      </trkpt>
      <trkpt lat="37.856369153346535" lon="112.56038069246733">
        <ele>0.0</ele>
        <time>2026-09-25T23:44:03.500000Z</time>
      </trkpt>
      <trkpt lat="37.85648515538198" lon="112.5603860691525">
        <ele>0.0</ele>
        <time>2026-09-25T23:44:09.700000Z</time>
      </trkpt>
      <trkpt lat="37.856624780435176" lon="112.56036303433697">
        <ele>0.0</ele>
        <time>2026-09-25T23:44:15.800000Z</time>
      </trkpt>
      <trkpt lat="37.85685835878121" lon="112.56039865240125">
        <ele>0.0</ele>
        <time>2026-09-25T23:44:24.800000Z</time>
      </trkpt>
      <trkpt lat="37.856916267134054" lon="112.56039665459649">
        <ele>0.0</ele>
        <time>2026-09-25T23:44:27.800000Z</time>
      </trkpt>
      <trkpt lat="37.856956210855394" lon="112.56035057651607">
        <ele>0.0</ele>
        <time>2026-09-25T23:44:30.800000Z</time>
      </trkpt>
      <trkpt lat="37.856876000967205" lon="112.56020735673614">
        <ele>0.0</ele>
        <time>2026-09-25T23:44:36.800000Z</time>
      </trkpt>
      <trkpt lat="37.85686190627793" lon="112.56014025065623">
        <ele>0.0</ele>
        <time>2026-09-25T23:44:39.800000Z</time>
      </trkpt>
      <trkpt lat="37.85685551176151" lon="112.55985579210157">
        <ele>0.0</ele>
        <time>2026-09-25T23:44:48.800000Z</time>
      </trkpt>
      <trkpt lat="37.85692644917852" lon="112.55955206380227">
        <ele>0.0</ele>
        <time>2026-09-25T23:44:54.800000Z</time>
      </trkpt>
      <trkpt lat="37.85694885198358" lon="112.55942932006708">
        <ele>0.0</ele>
        <time>2026-09-25T23:44:57.800000Z</time>
      </trkpt>
      <trkpt lat="37.85691636114115" lon="112.55903042759978">
        <ele>0.0</ele>
        <time>2026-09-25T23:45:09.900000Z</time>
      </trkpt>
      <trkpt lat="37.856884231502534" lon="112.55894328585053">
        <ele>0.0</ele>
        <time>2026-09-25T23:45:12.900000Z</time>
      </trkpt>
      <trkpt lat="37.85682512567382" lon="112.55887618039142">
        <ele>0.0</ele>
        <time>2026-09-25T23:45:15.900000Z</time>
      </trkpt>
      <trkpt lat="37.85668096228513" lon="112.55877903407392">
        <ele>0.0</ele>
        <time>2026-09-25T23:45:21.900000Z</time>
      </trkpt>
      <trkpt lat="37.856510623809044" lon="112.55856369065346">
        <ele>0.0</ele>
        <time>2026-09-25T23:45:31Z</time>
      </trkpt>
      <trkpt lat="37.856478480874735" lon="112.55846853311517">
        <ele>0.0</ele>
        <time>2026-09-25T23:45:34Z</time>
      </trkpt>
      <trkpt lat="37.856528364413336" lon="112.55838238092501">
        <ele>0.0</ele>
        <time>2026-09-25T23:45:37Z</time>
      </trkpt>
      <trkpt lat="37.85669009567444" lon="112.55817901500349">
        <ele>0.0</ele>
        <time>2026-09-25T23:45:46.300000Z</time>
      </trkpt>
      <trkpt lat="37.85697094073673" lon="112.55804074516594">
        <ele>0.0</ele>
        <time>2026-09-25T23:45:58.600000Z</time>
      </trkpt>
      <trkpt lat="37.85727583622644" lon="112.55793452686262">
        <ele>0.0</ele>
        <time>2026-09-25T23:46:10.700000Z</time>
      </trkpt>
      <trkpt lat="37.857552664522466" lon="112.55778623831038">
        <ele>0.0</ele>
        <time>2026-09-25T23:46:22.700000Z</time>
      </trkpt>
      <trkpt lat="37.857740426435065" lon="112.5576038995555">
        <ele>0.0</ele>
        <time>2026-09-25T23:46:31.700000Z</time>
      </trkpt>
      <trkpt lat="37.85779132346102" lon="112.55752876251142">
        <ele>0.0</ele>
        <time>2026-09-25T23:46:34.700000Z</time>
      </trkpt>
      <trkpt lat="37.85787307753653" lon="112.55735444761997">
        <ele>0.0</ele>
        <time>2026-09-25T23:46:40.700000Z</time>
      </trkpt>
      <trkpt lat="37.85797488333167" lon="112.55721318713633">
        <ele>0.0</ele>
        <time>2026-09-25T23:46:46.700000Z</time>
      </trkpt>
      <trkpt lat="37.858105834790834" lon="112.55716608882118">
        <ele>0.0</ele>
        <time>2026-09-25T23:46:52.700000Z</time>
      </trkpt>
      <trkpt lat="37.85840587644853" lon="112.55716004340483">
        <ele>0.0</ele>
        <time>2026-09-25T23:47:04.700000Z</time>
      </trkpt>
      <trkpt lat="37.858621848240375" lon="112.55711694218641">
        <ele>0.0</ele>
        <time>2026-09-25T23:47:13.700000Z</time>
      </trkpt>
      <trkpt lat="37.858691808844036" lon="112.55708287377384">
        <ele>0.0</ele>
        <time>2026-09-25T23:47:16.700000Z</time>
      </trkpt>
      <trkpt lat="37.858770522865974" lon="112.5568845122646">
        <ele>0.0</ele>
        <time>2026-09-25T23:47:22.700000Z</time>
      </trkpt>
      <trkpt lat="37.85883335505496" lon="112.55671850105469">
        <ele>0.0</ele>
        <time>2026-09-25T23:47:28.700000Z</time>
      </trkpt>
      <trkpt lat="37.85875279677078" lon="112.5564096622524">
        <ele>0.0</ele>
        <time>2026-09-25T23:47:37.700000Z</time>
      </trkpt>
      <trkpt lat="37.85876948244289" lon="112.55620328628345">
        <ele>0.0</ele>
        <time>2026-09-25T23:47:43.700000Z</time>
      </trkpt>
      <trkpt lat="37.85876090851843" lon="112.5558336116586">
        <ele>0.0</ele>
        <time>2026-09-25T23:47:55.700000Z</time>
      </trkpt>
      <trkpt lat="37.85875262582932" lon="112.55565328043345">
        <ele>0.0</ele>
        <time>2026-09-25T23:48:01.700000Z</time>
      </trkpt>
      <trkpt lat="37.85867337228004" lon="112.55550000592365">
        <ele>0.0</ele>
        <time>2026-09-25T23:48:07.700000Z</time>
      </trkpt>
      <trkpt lat="37.85865423521684" lon="112.55541484999677">
        <ele>0.0</ele>
        <time>2026-09-25T23:48:10.700000Z</time>
      </trkpt>
      <trkpt lat="37.85867079350005" lon="112.55513332255043">
        <ele>0.0</ele>
        <time>2026-09-25T23:48:19.700000Z</time>
      </trkpt>
      <trkpt lat="37.85864265523256" lon="112.55504916791163">
        <ele>0.0</ele>
        <time>2026-09-25T23:48:22.700000Z</time>
      </trkpt>
      <trkpt lat="37.858539411425134" lon="112.55490691211514">
        <ele>0.0</ele>
        <time>2026-09-25T23:48:28.700000Z</time>
      </trkpt>
      <trkpt lat="37.85852427618389" lon="112.55482375686455">
        <ele>0.0</ele>
        <time>2026-09-25T23:48:31.800000Z</time>
      </trkpt>
      <trkpt lat="37.858609723201546" lon="112.55447007516422">
        <ele>0.0</ele>
        <time>2026-09-25T23:48:43.800000Z</time>
      </trkpt>
      <trkpt lat="37.858637436596915" lon="112.55428972688397">
        <ele>0.0</ele>
        <time>2026-09-25T23:48:49.800000Z</time>
      </trkpt>
      <trkpt lat="37.85860812110787" lon="112.55409836228368">
        <ele>0.0</ele>
        <time>2026-09-25T23:48:55.800000Z</time>
      </trkpt>
      <trkpt lat="37.858472740344475" lon="112.55387895370393">
        <ele>0.0</ele>
        <time>2026-09-25T23:49:04.800000Z</time>
      </trkpt>
      <trkpt lat="37.85833457428629" lon="112.55379180049174">
        <ele>0.0</ele>
        <time>2026-09-25T23:49:10.800000Z</time>
      </trkpt>
      <trkpt lat="37.85817351258681" lon="112.55377077827154">
        <ele>0.0</ele>
        <time>2026-09-25T23:49:16.800000Z</time>
      </trkpt>
      <trkpt lat="37.85801652221627" lon="112.55379283934911">
        <ele>0.0</ele>
        <time>2026-09-25T23:49:22.800000Z</time>
      </trkpt>
      <trkpt lat="37.85787444567681" lon="112.55376079348842">
        <ele>0.0</ele>
        <time>2026-09-25T23:49:28.800000Z</time>
      </trkpt>
      <trkpt lat="37.857637431997446" lon="112.55377685217421">
        <ele>0.0</ele>
        <time>2026-09-25T23:49:37.800000Z</time>
      </trkpt>
      <trkpt lat="37.85741738013489" lon="112.55376786017298">
        <ele>0.0</ele>
        <time>2026-09-25T23:49:46.900000Z</time>
      </trkpt>
      <trkpt lat="37.85707740172722" lon="112.5538159931102">
        <ele>0.0</ele>
        <time>2026-09-25T23:49:59Z</time>
      </trkpt>
      <trkpt lat="37.857005356779275" lon="112.55379596253334">
        <ele>0.0</ele>
        <time>2026-09-25T23:50:02.100000Z</time>
      </trkpt>
      <trkpt lat="37.85682809506773" lon="112.55365470800686">
        <ele>0.0</ele>
        <time>2026-09-25T23:50:11.200000Z</time>
      </trkpt>
      <trkpt lat="37.85665277666491" lon="112.55347938548502">
        <ele>0.0</ele>
        <time>2026-09-25T23:50:20.400000Z</time>
      </trkpt>
      <trkpt lat="37.856516621300344" lon="112.55339924401791">
        <ele>0.0</ele>
        <time>2026-09-25T23:50:26.600000Z</time>
      </trkpt>
      <trkpt lat="37.85629547135911" lon="112.55333113574447">
        <ele>0.0</ele>
        <time>2026-09-25T23:50:35.700000Z</time>
      </trkpt>
      <trkpt lat="37.85601738985167" lon="112.55331012660466">
        <ele>0.0</ele>
        <time>2026-09-25T23:50:44.700000Z</time>
      </trkpt>
      <trkpt lat="37.85572130369659" lon="112.55328811755776">
        <ele>0.0</ele>
        <time>2026-09-25T23:50:56.700000Z</time>
      </trkpt>
      <trkpt lat="37.855501243594894" lon="112.55327411545953">
        <ele>0.0</ele>
        <time>2026-09-25T23:51:05.700000Z</time>
      </trkpt>
      <trkpt lat="37.85521021987849" lon="112.553289178842">
        <ele>0.0</ele>
        <time>2026-09-25T23:51:17.700000Z</time>
      </trkpt>
      <trkpt lat="37.85505160152431" lon="112.5532797232428">
        <ele>0.0</ele>
        <time>2026-09-25T23:51:23.700000Z</time>
      </trkpt>
      <trkpt lat="37.85487052574581" lon="112.55328922871172">
        <ele>0.0</ele>
        <time>2026-09-25T23:51:35.700000Z</time>
      </trkpt>
      <trkpt lat="37.8547500582488" lon="112.55329261465094">
        <ele>0.0</ele>
        <time>2026-09-25T23:51:38.700000Z</time>
      </trkpt>
      <trkpt lat="37.854532699066304" lon="112.55329872389092">
        <ele>0.0</ele>
        <time>2026-09-25T23:51:50.700000Z</time>
      </trkpt>
      <trkpt lat="37.85427259657795" lon="112.55330603450042">
        <ele>0.0</ele>
        <time>2026-09-25T23:52:02.700000Z</time>
      </trkpt>
      <trkpt lat="37.85400218946246" lon="112.55331363473627">
        <ele>0.0</ele>
        <time>2026-09-25T23:52:14.700000Z</time>
      </trkpt>
      <trkpt lat="37.853706000842394" lon="112.55334091781947">
        <ele>0.0</ele>
        <time>2026-09-25T23:52:26.700000Z</time>
      </trkpt>
      <trkpt lat="37.853566981722494" lon="112.55333346340406">
        <ele>0.0</ele>
        <time>2026-09-25T23:52:29.700000Z</time>
      </trkpt>
      <trkpt lat="37.853468980265" lon="112.55319702581845">
        <ele>0.0</ele>
        <time>2026-09-25T23:52:38.700000Z</time>
      </trkpt>
      <trkpt lat="37.85341881536006" lon="112.55308226476988">
        <ele>0.0</ele>
        <time>2026-09-25T23:52:41.700000Z</time>
      </trkpt>
      <trkpt lat="37.85339719438731" lon="112.55285552984309">
        <ele>0.0</ele>
        <time>2026-09-25T23:52:44.700000Z</time>
      </trkpt>
      <trkpt lat="37.85335424946809" lon="112.55248066238423">
        <ele>0.0</ele>
        <time>2026-09-25T23:52:56.700000Z</time>
      </trkpt>
      <trkpt lat="37.85335474846375" lon="112.55208909585623">
        <ele>0.0</ele>
        <time>2026-09-25T23:53:08.700000Z</time>
      </trkpt>
      <trkpt lat="37.85334147636069" lon="112.55171944096924">
        <ele>0.0</ele>
        <time>2026-09-25T23:53:20.700000Z</time>
      </trkpt>
      <trkpt lat="37.85331291635075" lon="112.55152310691724">
        <ele>0.0</ele>
        <time>2026-09-25T23:53:26.700000Z</time>
      </trkpt>
      <trkpt lat="37.853242692387234" lon="112.55134488228504">
        <ele>0.0</ele>
        <time>2026-09-25T23:53:32.700000Z</time>
      </trkpt>
      <trkpt lat="37.853109280100426" lon="112.5512082700551">
        <ele>0.0</ele>
        <time>2026-09-25T23:53:38.700000Z</time>
      </trkpt>
      <trkpt lat="37.85301628286225" lon="112.55118918396337">
        <ele>0.0</ele>
        <time>2026-09-25T23:53:41.700000Z</time>
      </trkpt>
      <trkpt lat="37.85269237395894" lon="112.55127239410928">
        <ele>0.0</ele>
        <time>2026-09-25T23:53:53.700000Z</time>
      </trkpt>
      <trkpt lat="37.8524933375325" lon="112.5512704130613">
        <ele>0.0</ele>
        <time>2026-09-25T23:54:02.700000Z</time>
      </trkpt>
      <trkpt lat="37.85220512939829" lon="112.55117825523655">
        <ele>0.0</ele>
        <time>2026-09-25T23:54:14.700000Z</time>
      </trkpt>
      <trkpt lat="37.8519139432338" lon="112.55109912444475">
        <ele>0.0</ele>
        <time>2026-09-25T23:54:26.700000Z</time>
      </trkpt>
      <trkpt lat="37.85178184267536" lon="112.5510540458823">
        <ele>0.0</ele>
        <time>2026-09-25T23:54:32.700000Z</time>
      </trkpt>
      <trkpt lat="37.85160553644282" lon="112.55089573585263">
        <ele>0.0</ele>
        <time>2026-09-25T23:54:41.700000Z</time>
      </trkpt>
      <trkpt lat="37.85132443738069" lon="112.5508657055909">
        <ele>0.0</ele>
        <time>2026-09-25T23:54:53.700000Z</time>
      </trkpt>
      <trkpt lat="37.85102834818172" lon="112.55084269171408">
        <ele>0.0</ele>
        <time>2026-09-25T23:55:05.700000Z</time>
      </trkpt>
      <trkpt lat="37.85073927953018" lon="112.55083070008763">
        <ele>0.0</ele>
        <time>2026-09-25T23:55:17.700000Z</time>
      </trkpt>
      <trkpt lat="37.8504382177567" lon="112.55082372034337">
        <ele>0.0</ele>
        <time>2026-09-25T23:55:29.800000Z</time>
      </trkpt>
      <trkpt lat="37.85015121113472" lon="112.55084680193303">
        <ele>0.0</ele>
        <time>2026-09-25T23:55:41.800000Z</time>
      </trkpt>
      <trkpt lat="37.84985719108587" lon="112.550862869629">
        <ele>0.0</ele>
        <time>2026-09-25T23:55:53.900000Z</time>
      </trkpt>
      <trkpt lat="37.84970317993175" lon="112.55087090428458">
        <ele>0.0</ele>
        <time>2026-09-25T23:55:59.900000Z</time>
      </trkpt>
      <trkpt lat="37.849419254697644" lon="112.55094008181291">
        <ele>0.0</ele>
        <time>2026-09-25T23:56:12.100000Z</time>
      </trkpt>
      <trkpt lat="37.849142421577554" lon="112.55106136688534">
        <ele>0.0</ele>
        <time>2026-09-25T23:56:24.300000Z</time>
      </trkpt>
      <trkpt lat="37.848881646401786" lon="112.55121471592211">
        <ele>0.0</ele>
        <time>2026-09-25T23:56:36.600000Z</time>
      </trkpt>
      <trkpt lat="37.84859092803287" lon="112.55140414179557">
        <ele>0.0</ele>
        <time>2026-09-25T23:56:48.700000Z</time>
      </trkpt>
      <trkpt lat="37.848411196971256" lon="112.5515765179358">
        <ele>0.0</ele>
        <time>2026-09-25T23:56:57.700000Z</time>
      </trkpt>
      <trkpt lat="37.848369337100706" lon="112.55166169781232">
        <ele>0.0</ele>
        <time>2026-09-25T23:57:00.700000Z</time>
      </trkpt>
      <trkpt lat="37.84835298959457" lon="112.55204347967488">
        <ele>0.0</ele>
        <time>2026-09-25T23:57:12.700000Z</time>
      </trkpt>
      <trkpt lat="37.8483512883114" lon="112.55221883563719">
        <ele>0.0</ele>
        <time>2026-09-25T23:57:18.700000Z</time>
      </trkpt>
      <trkpt lat="37.848327587321194" lon="112.55239719864132">
        <ele>0.0</ele>
        <time>2026-09-25T23:57:24.700000Z</time>
      </trkpt>
      <trkpt lat="37.848359928004236" lon="112.5525955937099">
        <ele>0.0</ele>
        <time>2026-09-25T23:57:30.700000Z</time>
      </trkpt>
      <trkpt lat="37.8485045104585" lon="112.55292824113957">
        <ele>0.0</ele>
        <time>2026-09-25T23:57:42.800000Z</time>
      </trkpt>
      <trkpt lat="37.84865609630571" lon="112.55326488997271">
        <ele>0.0</ele>
        <time>2026-09-25T23:57:54.800000Z</time>
      </trkpt>
      <trkpt lat="37.84879266198032" lon="112.5535935190491">
        <ele>0.0</ele>
        <time>2026-09-25T23:58:06.800000Z</time>
      </trkpt>
      <trkpt lat="37.84882879646135" lon="112.55367166740133">
        <ele>0.0</ele>
        <time>2026-09-25T23:58:09.700000Z</time>
      </trkpt>
      <trkpt lat="37.84895041802529" lon="112.55403936678863">
        <ele>0.0</ele>
        <time>2026-09-25T23:58:21.700000Z</time>
      </trkpt>
      <trkpt lat="37.84905399399252" lon="112.55438401718453">
        <ele>0.0</ele>
        <time>2026-09-25T23:58:33.800000Z</time>
      </trkpt>
      <trkpt lat="37.84905856663551" lon="112.55473969376189">
        <ele>0.0</ele>
        <time>2026-09-25T23:58:45.800000Z</time>
      </trkpt>
      <trkpt lat="37.849113128005015" lon="112.55508634101864">
        <ele>0.0</ele>
        <time>2026-09-25T23:58:57.800000Z</time>
      </trkpt>
      <trkpt lat="37.84919167107132" lon="112.5554219587194">
        <ele>0.0</ele>
        <time>2026-09-25T23:59:09.800000Z</time>
      </trkpt>
      <trkpt lat="37.84921521149027" lon="112.55576458979307">
        <ele>0.0</ele>
        <time>2026-09-25T23:59:21.800000Z</time>
      </trkpt>
      <trkpt lat="37.849194775508124" lon="112.55613026176792">
        <ele>0.0</ele>
        <time>2026-09-25T23:59:33.900000Z</time>
      </trkpt>
      <trkpt lat="37.84916916751332" lon="112.5563877319752">
        <ele>0.0</ele>
        <time>2026-09-25T23:59:42.900000Z</time>
      </trkpt>
      <trkpt lat="37.84919760222442" lon="112.55666923553304">
        <ele>0.0</ele>
        <time>2026-09-25T23:59:52Z</time>
      </trkpt>
      <trkpt lat="37.84924189840259" lon="112.55685957072855">
        <ele>0.0</ele>
        <time>2026-09-25T23:59:58.100000Z</time>
      </trkpt>
      <trkpt lat="37.84928005611141" lon="112.5569597446534">
        <ele>0.0</ele>
        <time>2026-09-26T00:00:01.100000Z</time>
      </trkpt>
      <trkpt lat="37.849459396158345" lon="112.55716608957871">
        <ele>0.0</ele>
        <time>2026-09-26T00:00:10.300000Z</time>
      </trkpt>
      <trkpt lat="37.84977556809373" lon="112.55724619434102">
        <ele>0.0</ele>
        <time>2026-09-26T00:00:22.600000Z</time>
      </trkpt>
      <trkpt lat="37.85011362048192" lon="112.55724415162075">
        <ele>0.0</ele>
        <time>2026-09-26T00:00:34.700000Z</time>
      </trkpt>
      <trkpt lat="37.85039874224558" lon="112.55729420678382">
        <ele>0.0</ele>
        <time>2026-09-26T00:00:46.700000Z</time>
      </trkpt>
      <trkpt lat="37.85069177537888" lon="112.55728415518045">
        <ele>0.0</ele>
        <time>2026-09-26T00:00:58.700000Z</time>
      </trkpt>
      <trkpt lat="37.850838757543265" lon="112.55725608874089">
        <ele>0.0</ele>
        <time>2026-09-26T00:01:04.700000Z</time>
      </trkpt>
      <trkpt lat="37.85111982777818" lon="112.55727208439">
        <ele>0.0</ele>
        <time>2026-09-26T00:01:16.700000Z</time>
      </trkpt>
      <trkpt lat="37.85119482512409" lon="112.5572620580509">
        <ele>0.0</ele>
        <time>2026-09-26T00:01:19.700000Z</time>
      </trkpt>
      <trkpt lat="37.8512597742784" lon="112.55722097812252">
        <ele>0.0</ele>
        <time>2026-09-26T00:01:22.700000Z</time>
      </trkpt>
      <trkpt lat="37.8514174552465" lon="112.55699155381551">
        <ele>0.0</ele>
        <time>2026-09-26T00:01:31.700000Z</time>
      </trkpt>
      <trkpt lat="37.85153630075612" lon="112.5568763350802">
        <ele>0.0</ele>
        <time>2026-09-26T00:01:37.700000Z</time>
      </trkpt>
      <trkpt lat="37.85166826335515" lon="112.55683725011282">
        <ele>0.0</ele>
        <time>2026-09-26T00:01:43.700000Z</time>
      </trkpt>
      <trkpt lat="37.85181328272528" lon="112.55683422793628">
        <ele>0.0</ele>
        <time>2026-09-26T00:01:49.800000Z</time>
      </trkpt>
      <trkpt lat="37.852148438151346" lon="112.55690030693877">
        <ele>0.0</ele>
        <time>2026-09-26T00:02:04.800000Z</time>
      </trkpt>
      <trkpt lat="37.85228555164204" lon="112.55696039798715">
        <ele>0.0</ele>
        <time>2026-09-26T00:02:10.800000Z</time>
      </trkpt>
      <trkpt lat="37.8525298561157" lon="112.55713568049038">
        <ele>0.0</ele>
        <time>2026-09-26T00:02:22.800000Z</time>
      </trkpt>
      <trkpt lat="37.852729943398586" lon="112.55717172103112">
        <ele>0.0</ele>
        <time>2026-09-26T00:02:32Z</time>
      </trkpt>
      <trkpt lat="37.85302896285137" lon="112.55715165095987">
        <ele>0.0</ele>
        <time>2026-09-26T00:02:44.100000Z</time>
      </trkpt>
      <trkpt lat="37.853304155749484" lon="112.55724979232019">
        <ele>0.0</ele>
        <time>2026-09-26T00:02:56.300000Z</time>
      </trkpt>
      <trkpt lat="37.85345808968459" lon="112.5571886666827">
        <ele>0.0</ele>
        <time>2026-09-26T00:03:02.400000Z</time>
      </trkpt>
      <trkpt lat="37.85359594547322" lon="112.55707745404595">
        <ele>0.0</ele>
        <time>2026-09-26T00:03:08.600000Z</time>
      </trkpt>
      <trkpt lat="37.853721709451236" lon="112.55690713700716">
        <ele>0.0</ele>
        <time>2026-09-26T00:03:14.700000Z</time>
      </trkpt>
      <trkpt lat="37.85386665775389" lon="112.55685703094842">
        <ele>0.0</ele>
        <time>2026-09-26T00:03:20.700000Z</time>
      </trkpt>
      <trkpt lat="37.8541457572498" lon="112.55689206107576">
        <ele>0.0</ele>
        <time>2026-09-26T00:03:32.700000Z</time>
      </trkpt>
      <trkpt lat="37.85441499722987" lon="112.55702125961366">
        <ele>0.0</ele>
        <time>2026-09-26T00:03:44.700000Z</time>
      </trkpt>
      <trkpt lat="37.85465232144918" lon="112.55721056711288">
        <ele>0.0</ele>
        <time>2026-09-26T00:03:56.700000Z</time>
      </trkpt>
      <trkpt lat="37.85489868904624" lon="112.55742892259761">
        <ele>0.0</ele>
        <time>2026-09-26T00:04:08.700000Z</time>
      </trkpt>
      <trkpt lat="37.85514401741302" lon="112.55762223203784">
        <ele>0.0</ele>
        <time>2026-09-26T00:04:20.700000Z</time>
      </trkpt>
      <trkpt lat="37.85540134774686" lon="112.55781653982532">
        <ele>0.0</ele>
        <time>2026-09-26T00:04:32.700000Z</time>
      </trkpt>
      <trkpt lat="37.8554654219348" lon="112.55785960695701">
        <ele>0.0</ele>
        <time>2026-09-26T00:04:35.700000Z</time>
      </trkpt>
      <trkpt lat="37.85550852199969" lon="112.55792271102038">
        <ele>0.0</ele>
        <time>2026-09-26T00:04:38.700000Z</time>
      </trkpt>
      <trkpt lat="37.855599861702046" lon="112.55814408132008">
        <ele>0.0</ele>
        <time>2026-09-26T00:04:47.700000Z</time>
      </trkpt>
      <trkpt lat="37.855703064481126" lon="112.55827128704814">
        <ele>0.0</ele>
        <time>2026-09-26T00:04:53.700000Z</time>
      </trkpt>
      <trkpt lat="37.85596357231373" lon="112.55846948278126">
        <ele>0.0</ele>
        <time>2026-09-26T00:05:05.700000Z</time>
      </trkpt>
      <trkpt lat="37.8560454621001" lon="112.55849805195356">
        <ele>0.0</ele>
        <time>2026-09-26T00:05:08.700000Z</time>
      </trkpt>
      <trkpt lat="37.85627875376978" lon="112.55868091547356">
        <ele>0.0</ele>
        <time>2026-09-26T00:05:20.700000Z</time>
      </trkpt>
      <trkpt lat="37.8563487669556" lon="112.55868190904583">
        <ele>0.0</ele>
        <time>2026-09-26T00:05:23.700000Z</time>
      </trkpt>
      <trkpt lat="37.85642273468135" lon="112.55865084809908">
        <ele>0.0</ele>
        <time>2026-09-26T00:05:26.700000Z</time>
      </trkpt>
      <trkpt lat="37.856556538901536" lon="112.55849957674258">
        <ele>0.0</ele>
        <time>2026-09-26T00:05:32.700000Z</time>
      </trkpt>
      <trkpt lat="37.85669513889854" lon="112.55820806415069">
        <ele>0.0</ele>
        <time>2026-09-26T00:05:41.700000Z</time>
      </trkpt>
      <trkpt lat="37.85697696229234" lon="112.55805476858603">
        <ele>0.0</ele>
        <time>2026-09-26T00:05:53.700000Z</time>
      </trkpt>
      <trkpt lat="37.85724881990091" lon="112.55792651616282">
        <ele>0.0</ele>
        <time>2026-09-26T00:06:05.700000Z</time>
      </trkpt>
      <trkpt lat="37.85751364759974" lon="112.55777923067569">
        <ele>0.0</ele>
        <time>2026-09-26T00:06:17.700000Z</time>
      </trkpt>
      <trkpt lat="37.85769740432095" lon="112.55759388707604">
        <ele>0.0</ele>
        <time>2026-09-26T00:06:26.700000Z</time>
      </trkpt>
      <trkpt lat="37.85788897687989" lon="112.55728532421585">
        <ele>0.0</ele>
        <time>2026-09-26T00:06:38.700000Z</time>
      </trkpt>
      <trkpt lat="37.85800184279988" lon="112.5571831309625">
        <ele>0.0</ele>
        <time>2026-09-26T00:06:44.700000Z</time>
      </trkpt>
      <trkpt lat="37.858128805570104" lon="112.55714404720518">
        <ele>0.0</ele>
        <time>2026-09-26T00:06:50.700000Z</time>
      </trkpt>
      <trkpt lat="37.85840886792761" lon="112.55715403243522">
        <ele>0.0</ele>
        <time>2026-09-26T00:07:02.700000Z</time>
      </trkpt>
      <trkpt lat="37.85861883568088" lon="112.55710892835334">
        <ele>0.0</ele>
        <time>2026-09-26T00:07:11.700000Z</time>
      </trkpt>
      <trkpt lat="37.85868878119027" lon="112.55706484217693">
        <ele>0.0</ele>
        <time>2026-09-26T00:07:14.700000Z</time>
      </trkpt>
      <trkpt lat="37.85872564395709" lon="112.55696966900034">
        <ele>0.0</ele>
        <time>2026-09-26T00:07:17.700000Z</time>
      </trkpt>
      <trkpt lat="37.85874348493515" lon="112.55686247611787">
        <ele>0.0</ele>
        <time>2026-09-26T00:07:20.700000Z</time>
      </trkpt>
      <trkpt lat="37.85877834808958" lon="112.55676830394006">
        <ele>0.0</ele>
        <time>2026-09-26T00:07:23.700000Z</time>
      </trkpt>
      <trkpt lat="37.85880105923182" lon="112.55657595641932">
        <ele>0.0</ele>
        <time>2026-09-26T00:07:29.700000Z</time>
      </trkpt>
      <trkpt lat="37.85874586157777" lon="112.55645274084732">
        <ele>0.0</ele>
        <time>2026-09-26T00:07:35.700000Z</time>
      </trkpt>
      <trkpt lat="37.85873425994407" lon="112.55606303488608">
        <ele>0.0</ele>
        <time>2026-09-26T00:07:47.700000Z</time>
      </trkpt>
      <trkpt lat="37.858746638912216" lon="112.55566229777794">
        <ele>0.0</ele>
        <time>2026-09-26T00:07:59.800000Z</time>
      </trkpt>
      <trkpt lat="37.85865423521684" lon="112.55541484999677">
        <ele>0.0</ele>
        <time>2026-09-26T00:08:08.800000Z</time>
      </trkpt>
      <trkpt lat="37.85865209915401" lon="112.55532868984935">
        <ele>0.0</ele>
        <time>2026-09-26T00:08:11.800000Z</time>
      </trkpt>
      <trkpt lat="37.858671827006745" lon="112.5551543618484">
        <ele>0.0</ele>
        <time>2026-09-26T00:08:17.800000Z</time>
      </trkpt>
      <trkpt lat="37.85865268715289" lon="112.55506820249644">
        <ele>0.0</ele>
        <time>2026-09-26T00:08:20.800000Z</time>
      </trkpt>
      <trkpt lat="37.85855143740739" lon="112.55492193905596">
        <ele>0.0</ele>
        <time>2026-09-26T00:08:26.800000Z</time>
      </trkpt>
      <trkpt lat="37.858534295478535" lon="112.55483477653095">
        <ele>0.0</ele>
        <time>2026-09-26T00:08:29.900000Z</time>
      </trkpt>
      <trkpt lat="37.858619779776596" lon="112.55450413898592">
        <ele>0.0</ele>
        <time>2026-09-26T00:08:42Z</time>
      </trkpt>
      <trkpt lat="37.85864031532411" lon="112.55421458227345">
        <ele>0.0</ele>
        <time>2026-09-26T00:08:51.200000Z</time>
      </trkpt>
      <trkpt lat="37.858621172187604" lon="112.55412841869655">
        <ele>0.0</ele>
        <time>2026-09-26T00:08:54.200000Z</time>
      </trkpt>
      <trkpt lat="37.85849778225393" lon="112.55390199547536">
        <ele>0.0</ele>
        <time>2026-09-26T00:09:03.400000Z</time>
      </trkpt>
      <trkpt lat="37.85844167115843" lon="112.5538398814891">
        <ele>0.0</ele>
        <time>2026-09-26T00:09:06.500000Z</time>
      </trkpt>
      <trkpt lat="37.85837558942702" lon="112.55379680546937">
        <ele>0.0</ele>
        <time>2026-09-26T00:09:09.600000Z</time>
      </trkpt>
      <trkpt lat="37.858299540446055" lon="112.55377477144039">
        <ele>0.0</ele>
        <time>2026-09-26T00:09:12.700000Z</time>
      </trkpt>
      <trkpt lat="37.85796949950046" lon="112.5537838272759">
        <ele>0.0</ele>
        <time>2026-09-26T00:09:24.700000Z</time>
      </trkpt>
      <trkpt lat="37.85767945222083" lon="112.55378486288328">
        <ele>0.0</ele>
        <time>2026-09-26T00:09:36.700000Z</time>
      </trkpt>
      <trkpt lat="37.85739140040034" lon="112.55378289241466">
        <ele>0.0</ele>
        <time>2026-09-26T00:09:48.700000Z</time>
      </trkpt>
      <trkpt lat="37.85717441312607" lon="112.55381297601338">
        <ele>0.0</ele>
        <time>2026-09-26T00:09:57.700000Z</time>
      </trkpt>
      <trkpt lat="37.85697231344802" lon="112.55377292156436">
        <ele>0.0</ele>
        <time>2026-09-26T00:10:06.700000Z</time>
      </trkpt>
      <trkpt lat="37.85673490784054" lon="112.55355051525139">
        <ele>0.0</ele>
        <time>2026-09-26T00:10:18.700000Z</time>
      </trkpt>
      <trkpt lat="37.8564845794385" lon="112.55337720442962">
        <ele>0.0</ele>
        <time>2026-09-26T00:10:30.800000Z</time>
      </trkpt>
      <trkpt lat="37.85617845505442" lon="112.55333315326715">
        <ele>0.0</ele>
        <time>2026-09-26T00:10:42.800000Z</time>
      </trkpt>
      <trkpt lat="37.85590234066247" lon="112.55329210444253">
        <ele>0.0</ele>
        <time>2026-09-26T00:10:54.800000Z</time>
      </trkpt>
      <trkpt lat="37.85561427580805" lon="112.5532821181355">
        <ele>0.0</ele>
        <time>2026-09-26T00:11:06.800000Z</time>
      </trkpt>
      <trkpt lat="37.855330246587975" lon="112.5532931728071">
        <ele>0.0</ele>
        <time>2026-09-26T00:11:18.800000Z</time>
      </trkpt>
      <trkpt lat="37.8551901749593" lon="112.55326413181238">
        <ele>0.0</ele>
        <time>2026-09-26T00:11:24.800000Z</time>
      </trkpt>
      <trkpt lat="37.85496020138785" lon="112.55330323548087">
        <ele>0.0</ele>
        <time>2026-09-26T00:11:33.800000Z</time>
      </trkpt>
      <trkpt lat="37.855259277927374" lon="112.55331923233321">
        <ele>0.0</ele>
        <time>2026-09-26T00:11:45.900000Z</time>
      </trkpt>
      <trkpt lat="37.85541835765584" lon="112.55335127695109">
        <ele>0.0</ele>
        <time>2026-09-26T00:11:51.900000Z</time>
      </trkpt>
      <trkpt lat="37.85573737118678" lon="112.55332719262609">
        <ele>0.0</ele>
        <time>2026-09-26T00:12:04.100000Z</time>
      </trkpt>
      <trkpt lat="37.85602447406088" lon="112.55336022434372">
        <ele>0.0</ele>
        <time>2026-09-26T00:12:16.200000Z</time>
      </trkpt>
      <trkpt lat="37.85631860298663" lon="112.5534082847072">
        <ele>0.0</ele>
        <time>2026-09-26T00:12:28.500000Z</time>
      </trkpt>
      <trkpt lat="37.85654474197355" lon="112.55346937838205">
        <ele>0.0</ele>
        <time>2026-09-26T00:12:37.600000Z</time>
      </trkpt>
      <trkpt lat="37.856698921613116" lon="112.55356254294496">
        <ele>0.0</ele>
        <time>2026-09-26T00:12:43.700000Z</time>
      </trkpt>
      <trkpt lat="37.856934356332296" lon="112.55380298440284">
        <ele>0.0</ele>
        <time>2026-09-26T00:12:55.700000Z</time>
      </trkpt>
      <trkpt lat="37.85707549488306" lon="112.55387310418838">
        <ele>0.0</ele>
        <time>2026-09-26T00:13:01.700000Z</time>
      </trkpt>
      <trkpt lat="37.85722252290025" lon="112.55387509101357">
        <ele>0.0</ele>
        <time>2026-09-26T00:13:07.700000Z</time>
      </trkpt>
      <trkpt lat="37.85743646709174" lon="112.55381895728152">
        <ele>0.0</ele>
        <time>2026-09-26T00:13:16.800000Z</time>
      </trkpt>
      <trkpt lat="37.85773351879364" lon="112.55381992475607">
        <ele>0.0</ele>
        <time>2026-09-26T00:13:28.700000Z</time>
      </trkpt>
      <trkpt lat="37.858023593979354" lon="112.55383592222547">
        <ele>0.0</ele>
        <time>2026-09-26T00:13:40.700000Z</time>
      </trkpt>
      <trkpt lat="37.85831565478198" lon="112.55384290194834">
        <ele>0.0</ele>
        <time>2026-09-26T00:13:52.700000Z</time>
      </trkpt>
      <trkpt lat="37.8583827038213" lon="112.55386593888791">
        <ele>0.0</ele>
        <time>2026-09-26T00:13:55.700000Z</time>
      </trkpt>
      <trkpt lat="37.858538065244225" lon="112.55407131823853">
        <ele>0.0</ele>
        <time>2026-09-26T00:14:04.800000Z</time>
      </trkpt>
      <trkpt lat="37.85861033624786" lon="112.55423061655587">
        <ele>0.0</ele>
        <time>2026-09-26T00:14:10.800000Z</time>
      </trkpt>
      <trkpt lat="37.85861460605081" lon="112.55439693485899">
        <ele>0.0</ele>
        <time>2026-09-26T00:14:16.800000Z</time>
      </trkpt>
      <trkpt lat="37.85851611938678" lon="112.55472657386328">
        <ele>0.0</ele>
        <time>2026-09-26T00:14:28.900000Z</time>
      </trkpt>
      <trkpt lat="37.85849640575063" lon="112.55490791899425">
        <ele>0.0</ele>
        <time>2026-09-26T00:14:35Z</time>
      </trkpt>
      <trkpt lat="37.85851754331557" lon="112.55499207506737">
        <ele>0.0</ele>
        <time>2026-09-26T00:14:38Z</time>
      </trkpt>
      <trkpt lat="37.85862379189978" lon="112.55513733551345">
        <ele>0.0</ele>
        <time>2026-09-26T00:14:44.100000Z</time>
      </trkpt>
      <trkpt lat="37.85864594310704" lon="112.55523050731256">
        <ele>0.0</ele>
        <time>2026-09-26T00:14:47.200000Z</time>
      </trkpt>
      <trkpt lat="37.85864908600552" lon="112.55532067525861">
        <ele>0.0</ele>
        <time>2026-09-26T00:14:50.300000Z</time>
      </trkpt>
      <trkpt lat="37.858621218597946" lon="112.55540784078624">
        <ele>0.0</ele>
        <time>2026-09-26T00:14:53.400000Z</time>
      </trkpt>
      <trkpt lat="37.858617359659846" lon="112.55549800870494">
        <ele>0.0</ele>
        <time>2026-09-26T00:14:56.500000Z</time>
      </trkpt>
      <trkpt lat="37.85871963434289" lon="112.55566230091065">
        <ele>0.0</ele>
        <time>2026-09-26T00:15:02.500000Z</time>
      </trkpt>
      <trkpt lat="37.858744771560886" lon="112.55574745503318">
        <ele>0.0</ele>
        <time>2026-09-26T00:15:05.500000Z</time>
      </trkpt>
      <trkpt lat="37.85872832088975" lon="112.55610310867618">
        <ele>0.0</ele>
        <time>2026-09-26T00:15:17.700000Z</time>
      </trkpt>
      <trkpt lat="37.85872847704802" lon="112.55620429286095">
        <ele>0.0</ele>
        <time>2026-09-26T00:15:20.700000Z</time>
      </trkpt>
      <trkpt lat="37.85872847704802" lon="112.55620429286095">
        <ele>0.0</ele>
        <time>2026-09-26T00:15:25.900000Z</time>
      </trkpt>
    </trkseg>
  </trk>
</gpx>