<?xml version="1.0" encoding="UTF-8"?>
<gpx xmlns="http://www.topografix.com/GPX/1/1" xmlns:gpxtpx="http://www.garmin.com/xmlschemas/TrackPointExtension/v1" xmlns:xsi="http://www.w3.org/2001/XMLSchema-instance" xsi:schemaLocation="http://www.topografix.com/GPX/1/1 http://www.topografix.com/GPX/1/1/gpx.xsd" version="1.1" creator="gpx.py -- https://github.com/tkrajina/gpxpy">
  <trk>
    <name>gpx from keep</name>
    <type>Run</type>
    <trkseg>
      <trkpt lat="39.89041770413824" lon="116.34085626894465">
        <time>2026-08-12T10:49:57.213000Z</time>
      </trkpt>
      <trkpt lat="39.8903659896369" lon="116.34069761613297">
        <time>2026-08-12T10:50:03.313000Z</time>
      </trkpt>
      <trkpt lat="39.89031517202228" lon="116.34059683917421">
        <time>2026-08-12T10:50:06.313000Z</time>
      </trkpt>
      <trkpt lat="39.890349361300025" lon="116.3404900645346">
        <time>2026-08-12T10:50:12.413000Z</time>
      </trkpt>
      <trkpt lat="39.89057638284594" lon="116.34047207450294">
        <time>2026-08-12T10:50:24.613000Z</time>
      </trkpt>
      <trkpt lat="39.89064924205951" lon="116.34054889996627">
        <time>2026-08-12T10:50:27.613000Z</time>
      </trkpt>
      <trkpt lat="39.890693733986666" lon="116.34083228544974">
        <time>2026-08-12T10:50:36.613000Z</time>
      </trkpt>
      <trkpt lat="39.89070599261178" lon="116.34124839243736">
        <time>2026-08-12T10:50:51.913000Z</time>
      </trkpt>
      <trkpt lat="39.89070824548999" lon="116.34166949319297">
        <time>2026-08-12T10:51:04.013000Z</time>
      </trkpt>
      <trkpt lat="39.89071894130426" lon="116.34184112637836">
        <time>2026-08-12T10:51:10.113000Z</time>
      </trkpt>
      <trkpt lat="39.890697674301165" lon="116.34199280655832">
        <time>2026-08-12T10:51:16.313000Z</time>
      </trkpt>
      <trkpt lat="39.89075354840412" lon="116.3420626511164">
        <time>2026-08-12T10:51:19.413000Z</time>
      </trkpt>
      <trkpt lat="39.891056477978125" lon="116.34209454501877">
        <time>2026-08-12T10:51:31.713000Z</time>
      </trkpt>
      <trkpt lat="39.89139155926082" lon="116.3420396191982">
        <time>2026-08-12T10:51:43.713000Z</time>
      </trkpt>
      <trkpt lat="39.891668585166165" lon="116.34201763080775">
        <time>2026-08-12T10:51:55.813000Z</time>
      </trkpt>
      <trkpt lat="39.8918005772906" lon="116.34201861200027">
        <time>2026-08-12T10:52:01.913000Z</time>
      </trkpt>
      <trkpt lat="39.892000112397604" lon="116.34196524370472">
        <time>2026-08-12T10:52:11.013000Z</time>
      </trkpt>
      <trkpt lat="39.89229244331901" lon="116.3419349604891">
        <time>2026-08-12T10:52:23.313000Z</time>
      </trkpt>
      <trkpt lat="39.89257129203687" lon="116.34192499862769">
        <time>2026-08-12T10:52:35.613000Z</time>
      </trkpt>
      <trkpt lat="39.89271155970093" lon="116.3419284371513">
        <time>2026-08-12T10:52:41.713000Z</time>
      </trkpt>
      <trkpt lat="39.89278258509531" lon="116.34190860412934">
        <time>2026-08-12T10:52:44.813000Z</time>
      </trkpt>
      <trkpt lat="39.8930877258352" lon="116.34190069954552">
        <time>2026-08-12T10:52:56.713000Z</time>
      </trkpt>
      <trkpt lat="39.893359745065744" lon="116.34188270335507">
        <time>2026-08-12T10:53:08.713000Z</time>
      </trkpt>
      <trkpt lat="39.893481713007624" lon="116.34189765609895">
        <time>2026-08-12T10:53:14.713000Z</time>
      </trkpt>
      <trkpt lat="39.893175670657165" lon="116.34192962689205">
        <time>2026-08-12T10:53:35.813000Z</time>
      </trkpt>
      <trkpt lat="39.893130646287" lon="116.34194460076272">
        <time>2026-08-12T10:53:38.813000Z</time>
      </trkpt>
      <trkpt lat="39.893058522169625" lon="116.34225076046633">
        <time>2026-08-12T10:53:57.113000Z</time>
      </trkpt>
      <trkpt lat="39.89322628230916" lon="116.34271695244786">
        <time>2026-08-12T10:54:12.313000Z</time>
      </trkpt>
      <trkpt lat="39.89329905276694" lon="116.34280958450405">
        <time>2026-08-12T10:54:15.413000Z</time>
      </trkpt>
      <trkpt lat="39.89335020135985" lon="116.34275984621357">
        <time>2026-08-12T10:54:18.513000Z</time>
      </trkpt>
      <trkpt lat="39.89340617429319" lon="116.34277380965709">
        <time>2026-08-12T10:54:21.513000Z</time>
      </trkpt>
      <trkpt lat="39.89327128724083" lon="116.34271295518292">
        <time>2026-08-12T10:54:30.713000Z</time>
      </trkpt>
      <trkpt lat="39.89318031768361" lon="116.34269799828833">
        <time>2026-08-12T10:54:33.713000Z</time>
      </trkpt>
      <trkpt lat="39.89296027879977" lon="116.3427259671282">
        <time>2026-08-12T10:54:42.713000Z</time>
      </trkpt>
      <trkpt lat="39.89288808445365" lon="116.34283873836387">
        <time>2026-08-12T10:54:48.713000Z</time>
      </trkpt>
      <trkpt lat="39.89282145568033" lon="116.34319998637957">
        <time>2026-08-12T10:55:00.713000Z</time>
      </trkpt>
      <trkpt lat="39.89282880136004" lon="116.34357519840006">
        <time>2026-08-12T10:55:12.813000Z</time>
      </trkpt>
      <trkpt lat="39.89284451266517" lon="116.34374084984896">
        <time>2026-08-12T10:55:18.813000Z</time>
      </trkpt>
      <trkpt lat="39.89289342203239" lon="116.34379173730099">
        <time>2026-08-12T10:55:21.813000Z</time>
      </trkpt>
      <trkpt lat="39.89308439764632" lon="116.34380069437994">
        <time>2026-08-12T10:55:31.013000Z</time>
      </trkpt>
      <trkpt lat="39.893196018722264" lon="116.34401623041998">
        <time>2026-08-12T10:55:40.213000Z</time>
      </trkpt>
      <trkpt lat="39.89349310708433" lon="116.34395731561608">
        <time>2026-08-12T10:55:55.613000Z</time>
      </trkpt>
      <trkpt lat="39.893694684900275" lon="116.34393526757036">
        <time>2026-08-12T10:56:04.713000Z</time>
      </trkpt>
      <trkpt lat="39.89375812814919" lon="116.34391359586274">
        <time>2026-08-12T10:56:07.713000Z</time>
      </trkpt>
      <trkpt lat="39.89404420983989" lon="116.34388339999666">
        <time>2026-08-12T10:56:19.713000Z</time>
      </trkpt>
      <trkpt lat="39.89432220749479" lon="116.34387737732882">
        <time>2026-08-12T10:56:31.713000Z</time>
      </trkpt>
      <trkpt lat="39.894385187303435" lon="116.34388734853005">
        <time>2026-08-12T10:56:34.713000Z</time>
      </trkpt>
      <trkpt lat="39.89443712608806" lon="116.3439212711472">
        <time>2026-08-12T10:56:37.713000Z</time>
      </trkpt>
      <trkpt lat="39.894756995577175" lon="116.34398809120918">
        <time>2026-08-12T10:56:52.713000Z</time>
      </trkpt>
      <trkpt lat="39.894813010311196" lon="116.34397810493385">
        <time>2026-08-12T10:56:55.713000Z</time>
      </trkpt>
      <trkpt lat="39.894932129427445" lon="116.34390623976469">
        <time>2026-08-12T10:57:01.813000Z</time>
      </trkpt>
      <trkpt lat="39.89526611419653" lon="116.34390619751322">
        <time>2026-08-12T10:57:16.913000Z</time>
      </trkpt>
      <trkpt lat="39.895547091017974" lon="116.34391214947124">
        <time>2026-08-12T10:57:28.913000Z</time>
      </trkpt>
      <trkpt lat="39.89573111898902" lon="116.34389116992884">
        <time>2026-08-12T10:57:35.113000Z</time>
      </trkpt>
      <trkpt lat="39.895853229439076" lon="116.34382429408993">
        <time>2026-08-12T10:57:41.313000Z</time>
      </trkpt>
      <trkpt lat="39.89589830534489" lon="116.34377938220679">
        <time>2026-08-12T10:57:44.313000Z</time>
      </trkpt>
      <trkpt lat="39.89595226824262" lon="116.34379933367741">
        <time>2026-08-12T10:57:47.513000Z</time>
      </trkpt>
      <trkpt lat="39.8960978273481" lon="116.34404979259412">
        <time>2026-08-12T10:57:56.613000Z</time>
      </trkpt>
      <trkpt lat="39.896142221568184" lon="116.3443990603441">
        <time>2026-08-12T10:58:08.613000Z</time>
      </trkpt>
      <trkpt lat="39.896167512445366" lon="116.3448102051094">
        <time>2026-08-12T10:58:23.713000Z</time>
      </trkpt>
      <trkpt lat="39.89618923561582" lon="116.34497087039347">
        <time>2026-08-12T10:58:29.713000Z</time>
      </trkpt>
      <trkpt lat="39.89623317029502" lon="116.34500778862225">
        <time>2026-08-12T10:58:32.713000Z</time>
      </trkpt>
      <trkpt lat="39.89627742901917" lon="116.34543989336208">
        <time>2026-08-12T10:58:47.713000Z</time>
      </trkpt>
      <trkpt lat="39.89631783212083" lon="116.34578917215045">
        <time>2026-08-12T10:58:59.713000Z</time>
      </trkpt>
      <trkpt lat="39.89636915249332" lon="116.3461883506258">
        <time>2026-08-12T10:59:11.813000Z</time>
      </trkpt>
      <trkpt lat="39.89633475079761" lon="116.34642686974044">
        <time>2026-08-12T10:59:20.813000Z</time>
      </trkpt>
      <trkpt lat="39.8962535221323" lon="116.34656460044216">
        <time>2026-08-12T10:59:29.913000Z</time>
      </trkpt>
      <trkpt lat="39.896349378212655" lon="116.3466474203655">
        <time>2026-08-12T10:59:35.913000Z</time>
      </trkpt>
      <trkpt lat="39.896415145141354" lon="116.3467841351852">
        <time>2026-08-12T10:59:42.013000Z</time>
      </trkpt>
      <trkpt lat="39.896423702388475" lon="116.3470476018422">
        <time>2026-08-12T10:59:51.313000Z</time>
      </trkpt>
      <trkpt lat="39.896494966561214" lon="116.34748571139265">
        <time>2026-08-12T11:00:06.613000Z</time>
      </trkpt>
      <trkpt lat="39.89650738133" lon="116.34783700641896">
        <time>2026-08-12T11:00:18.713000Z</time>
      </trkpt>
      <trkpt lat="39.896580705074136" lon="116.34824318759482">
        <time>2026-08-12T11:00:33.713000Z</time>
      </trkpt>
      <trkpt lat="39.89660358369354" lon="116.34831603992966">
        <time>2026-08-12T11:00:36.713000Z</time>
      </trkpt>
      <trkpt lat="39.896677960552594" lon="116.34869228498884">
        <time>2026-08-12T11:00:48.813000Z</time>
      </trkpt>
      <trkpt lat="39.896768506210016" lon="116.34896673196039">
        <time>2026-08-12T11:00:57.913000Z</time>
      </trkpt>
      <trkpt lat="39.8968119692842" lon="116.34929408304022">
        <time>2026-08-12T11:01:07.013000Z</time>
      </trkpt>
      <trkpt lat="39.8969603877466" lon="116.34964737293008">
        <time>2026-08-12T11:01:22.513000Z</time>
      </trkpt>
      <trkpt lat="39.89708890011307" lon="116.34994477723122">
        <time>2026-08-12T11:01:34.713000Z</time>
      </trkpt>
      <trkpt lat="39.89714574273177" lon="116.35004058386843">
        <time>2026-08-12T11:01:37.713000Z</time>
      </trkpt>
      <trkpt lat="39.89720142154424" lon="116.35023819362772">
        <time>2026-08-12T11:01:43.713000Z</time>
      </trkpt>
      <trkpt lat="39.89728877482166" lon="116.350638409716">
        <time>2026-08-12T11:01:55.713000Z</time>
      </trkpt>
      <trkpt lat="39.89736122136746" lon="116.3509827390923">
        <time>2026-08-12T11:02:08.013000Z</time>
      </trkpt>
      <trkpt lat="39.89739963410794" lon="116.35135103036698">
        <time>2026-08-12T11:02:19.813000Z</time>
      </trkpt>
      <trkpt lat="39.89745102728928" lon="116.35173329727405">
        <time>2026-08-12T11:02:32.013000Z</time>
      </trkpt>
      <trkpt lat="39.89753738154701" lon="116.35214151496095">
        <time>2026-08-12T11:02:47.313000Z</time>
      </trkpt>
      <trkpt lat="39.89757477608999" lon="116.35252778471396">
        <time>2026-08-12T11:02:59.613000Z</time>
      </trkpt>
      <trkpt lat="39.897607296598316" lon="116.35283520625676">
        <time>2026-08-12T11:03:08.713000Z</time>
      </trkpt>
      <trkpt lat="39.89766190005787" lon="116.35308972590983">
        <time>2026-08-12T11:03:17.813000Z</time>
      </trkpt>
      <trkpt lat="39.89767625064369" lon="116.35351094480252">
        <time>2026-08-12T11:03:32.813000Z</time>
      </trkpt>
      <trkpt lat="39.89769262063691" lon="116.35392218699127">
        <time>2026-08-12T11:03:48.013000Z</time>
      </trkpt>
      <trkpt lat="39.89770304494114" lon="116.35430049495724">
        <time>2026-08-12T11:04:00.213000Z</time>
      </trkpt>
      <trkpt lat="39.89770347021544" lon="116.3546808049345">
        <time>2026-08-12T11:04:12.613000Z</time>
      </trkpt>
      <trkpt lat="39.89769318992043" lon="116.35486746921686">
        <time>2026-08-12T11:04:18.713000Z</time>
      </trkpt>
      <trkpt lat="39.89772763543053" lon="116.35523680119326">
        <time>2026-08-12T11:04:30.713000Z</time>
      </trkpt>
      <trkpt lat="39.89776699095237" lon="116.35566902496102">
        <time>2026-08-12T11:04:45.713000Z</time>
      </trkpt>
      <trkpt lat="39.89775945029032" lon="116.35603537685715">
        <time>2026-08-12T11:04:57.713000Z</time>
      </trkpt>
      <trkpt lat="39.89776786858802" lon="116.35643167850007">
        <time>2026-08-12T11:05:12.913000Z</time>
      </trkpt>
      <trkpt lat="39.897770620784996" lon="116.35660138111102">
        <time>2026-08-12T11:05:18.913000Z</time>
      </trkpt>
      <trkpt lat="39.897750371872476" lon="116.35677308409672">
        <time>2026-08-12T11:05:25.013000Z</time>
      </trkpt>
      <trkpt lat="39.89769227304015" lon="116.35684296982055">
        <time>2026-08-12T11:05:28.013000Z</time>
      </trkpt>
      <trkpt lat="39.89753816131091" lon="116.35692484707734">
        <time>2026-08-12T11:05:37.113000Z</time>
      </trkpt>
      <trkpt lat="39.897575100371505" lon="116.356965771322">
        <time>2026-08-12T11:05:49.413000Z</time>
      </trkpt>
      <trkpt lat="39.89768607224849" lon="116.35698172952051">
        <time>2026-08-12T11:05:55.613000Z</time>
      </trkpt>
      <trkpt lat="39.89770687939536" lon="116.35711449679015">
        <time>2026-08-12T11:06:01.613000Z</time>
      </trkpt>
      <trkpt lat="39.897811500860335" lon="116.35737403538803">
        <time>2026-08-12T11:06:10.713000Z</time>
      </trkpt>
      <trkpt lat="39.89782338566475" lon="116.35745389644293">
        <time>2026-08-12T11:06:13.813000Z</time>
      </trkpt>
      <trkpt lat="39.897826762203174" lon="116.35789014901086">
        <time>2026-08-12T11:06:28.913000Z</time>
      </trkpt>
      <trkpt lat="39.89787413768118" lon="116.35832939731368">
        <time>2026-08-12T11:06:44.113000Z</time>
      </trkpt>
      <trkpt lat="39.89788660524318" lon="116.3587077586678">
        <time>2026-08-12T11:06:56.413000Z</time>
      </trkpt>
      <trkpt lat="39.89791601357152" lon="116.35913104803899">
        <time>2026-08-12T11:07:11.713000Z</time>
      </trkpt>
      <trkpt lat="39.897941473822115" lon="116.35952040006487">
        <time>2026-08-12T11:07:23.813000Z</time>
      </trkpt>
      <trkpt lat="39.89796596977014" lon="116.35988679506742">
        <time>2026-08-12T11:07:36.013000Z</time>
      </trkpt>
      <trkpt lat="39.89797137831743" lon="116.36032108709642">
        <time>2026-08-12T11:07:48.213000Z</time>
      </trkpt>
      <trkpt lat="39.89795698647629" lon="116.36061161951575">
        <time>2026-08-12T11:07:57.513000Z</time>
      </trkpt>
      <trkpt lat="39.89798049255654" lon="116.36097902724407">
        <time>2026-08-12T11:08:09.613000Z</time>
      </trkpt>
      <trkpt lat="39.89801799663211" lon="116.3613504317419">
        <time>2026-08-12T11:08:21.713000Z</time>
      </trkpt>
      <trkpt lat="39.89801441611562" lon="116.36179073839348">
        <time>2026-08-12T11:08:33.713000Z</time>
      </trkpt>
      <trkpt lat="39.89802597051321" lon="116.36213120532929">
        <time>2026-08-12T11:08:45.713000Z</time>
      </trkpt>
      <trkpt lat="39.89798660681498" lon="116.36241277395189">
        <time>2026-08-12T11:08:54.713000Z</time>
      </trkpt>
      <trkpt lat="39.897984081085" lon="116.36282114662274">
        <time>2026-08-12T11:09:09.713000Z</time>
      </trkpt>
      <trkpt lat="39.89800052912735" lon="116.36325348688257">
        <time>2026-08-12T11:09:24.713000Z</time>
      </trkpt>
      <trkpt lat="39.8980060824522" lon="116.36360695377635">
        <time>2026-08-12T11:09:36.713000Z</time>
      </trkpt>
      <trkpt lat="39.898044548574894" lon="116.36403231453205">
        <time>2026-08-12T11:09:51.713000Z</time>
      </trkpt>
      <trkpt lat="39.898040035748366" lon="116.3644467038313">
        <time>2026-08-12T11:10:06.713000Z</time>
      </trkpt>
      <trkpt lat="39.89808552115197" lon="116.36486508765113">
        <time>2026-08-12T11:10:21.713000Z</time>
      </trkpt>
      <trkpt lat="39.898090089779025" lon="116.36522057383398">
        <time>2026-08-12T11:10:33.713000Z</time>
      </trkpt>
      <trkpt lat="39.89811557555091" lon="116.3656479601572">
        <time>2026-08-12T11:10:48.713000Z</time>
      </trkpt>
      <trkpt lat="39.8981321135234" lon="116.36603640953938">
        <time>2026-08-12T11:11:03.813000Z</time>
      </trkpt>
      <trkpt lat="39.89812562353847" lon="116.36645382769363">
        <time>2026-08-12T11:11:19.013000Z</time>
      </trkpt>
      <trkpt lat="39.898093273119414" lon="116.36675641383302">
        <time>2026-08-12T11:11:28.213000Z</time>
      </trkpt>
      <trkpt lat="39.89811683382562" lon="116.36713689054264">
        <time>2026-08-12T11:11:40.413000Z</time>
      </trkpt>
      <trkpt lat="39.89813340184359" lon="116.36751537674095">
        <time>2026-08-12T11:11:49.813000Z</time>
      </trkpt>
      <trkpt lat="39.898124238516324" lon="116.3676601836953">
        <time>2026-08-12T11:11:52.813000Z</time>
      </trkpt>
      <trkpt lat="39.89809411162462" lon="116.36777403544347">
        <time>2026-08-12T11:11:55.813000Z</time>
      </trkpt>
      <trkpt lat="39.89806166648846" lon="116.3681735101899">
        <time>2026-08-12T11:12:07.913000Z</time>
      </trkpt>
      <trkpt lat="39.89808145863333" lon="116.36836026246313">
        <time>2026-08-12T11:12:14.013000Z</time>
      </trkpt>
      <trkpt lat="39.89812327839709" lon="116.36852204589377">
        <time>2026-08-12T11:12:20.113000Z</time>
      </trkpt>
      <trkpt lat="39.89810284160865" lon="116.36892253030084">
        <time>2026-08-12T11:12:35.413000Z</time>
      </trkpt>
      <trkpt lat="39.898080677022634" lon="116.3690753371848">
        <time>2026-08-12T11:12:41.513000Z</time>
      </trkpt>
      <trkpt lat="39.89810928710587" lon="116.36943687389419">
        <time>2026-08-12T11:12:53.713000Z</time>
      </trkpt>
      <trkpt lat="39.89810483460546" lon="116.36986333941934">
        <time>2026-08-12T11:13:08.713000Z</time>
      </trkpt>
      <trkpt lat="39.898141439475694" lon="116.37023887006984">
        <time>2026-08-12T11:13:20.813000Z</time>
      </trkpt>
      <trkpt lat="39.898164057017425" lon="116.37060741705476">
        <time>2026-08-12T11:13:32.913000Z</time>
      </trkpt>
      <trkpt lat="39.898222724344265" lon="116.37093002039569">
        <time>2026-08-12T11:13:45.213000Z</time>
      </trkpt>
      <trkpt lat="39.89820537058404" lon="116.37128060480758">
        <time>2026-08-12T11:13:57.513000Z</time>
      </trkpt>
      <trkpt lat="39.898193965370545" lon="116.37168712854368">
        <time>2026-08-12T11:14:09.613000Z</time>
      </trkpt>
      <trkpt lat="39.89822659424135" lon="116.37206268953022">
        <time>2026-08-12T11:14:21.613000Z</time>
      </trkpt>
      <trkpt lat="39.89826020783395" lon="116.37245923288474">
        <time>2026-08-12T11:14:36.713000Z</time>
      </trkpt>
      <trkpt lat="39.89825781346702" lon="116.37287177002534">
        <time>2026-08-12T11:14:48.713000Z</time>
      </trkpt>
      <trkpt lat="39.89829160241779" lon="116.37309351990986">
        <time>2026-08-12T11:14:57.713000Z</time>
      </trkpt>
      <trkpt lat="39.89831525698678" lon="116.37346211320954">
        <time>2026-08-12T11:15:09.713000Z</time>
      </trkpt>
      <trkpt lat="39.89835699981816" lon="116.37373880888941">
        <time>2026-08-12T11:15:18.713000Z</time>
      </trkpt>
      <trkpt lat="39.898343657416376" lon="116.37411540921964">
        <time>2026-08-12T11:15:30.813000Z</time>
      </trkpt>
      <trkpt lat="39.89838644429356" lon="116.37435015685514">
        <time>2026-08-12T11:15:39.813000Z</time>
      </trkpt>
      <trkpt lat="39.89838604813776" lon="116.37479669420227">
        <time>2026-08-12T11:15:54.913000Z</time>
      </trkpt>
      <trkpt lat="39.89840668508436" lon="116.37521226920711">
        <time>2026-08-12T11:16:10.213000Z</time>
      </trkpt>
      <trkpt lat="39.89840137878567" lon="116.37556991280157">
        <time>2026-08-12T11:16:22.513000Z</time>
      </trkpt>
      <trkpt lat="39.89841301300951" lon="116.37600348641504">
        <time>2026-08-12T11:16:37.713000Z</time>
      </trkpt>
      <trkpt lat="39.89840767626513" lon="116.37641109566184">
        <time>2026-08-12T11:16:49.713000Z</time>
      </trkpt>
      <trkpt lat="39.89839532920253" lon="116.37683969407969">
        <time>2026-08-12T11:17:04.713000Z</time>
      </trkpt>
      <trkpt lat="39.8984001764405" lon="116.37703051676041">
        <time>2026-08-12T11:17:10.713000Z</time>
      </trkpt>
      <trkpt lat="39.898400895754364" lon="116.37738619192606">
        <time>2026-08-12T11:17:22.713000Z</time>
      </trkpt>
      <trkpt lat="39.89840355385499" lon="116.37782779677545">
        <time>2026-08-12T11:17:34.713000Z</time>
      </trkpt>
      <trkpt lat="39.89841139296199" lon="116.37803861059031">
        <time>2026-08-12T11:17:40.713000Z</time>
      </trkpt>
      <trkpt lat="39.89837334329551" lon="116.37810655620832">
        <time>2026-08-12T11:17:43.713000Z</time>
      </trkpt>
      <trkpt lat="39.89814331372053" lon="116.37815953949146">
        <time>2026-08-12T11:17:55.713000Z</time>
      </trkpt>
      <trkpt lat="39.898070317006024" lon="116.37815954878678">
        <time>2026-08-12T11:17:58.713000Z</time>
      </trkpt>
      <trkpt lat="39.897960343788306" lon="116.37813058794833">
        <time>2026-08-12T11:18:04.713000Z</time>
      </trkpt>
      <trkpt lat="39.897754377194865" lon="116.37809864198248">
        <time>2026-08-12T11:18:13.713000Z</time>
      </trkpt>
      <trkpt lat="39.897522359766924" lon="116.37813563937925">
        <time>2026-08-12T11:18:22.713000Z</time>
      </trkpt>
      <trkpt lat="39.897469314788786" lon="116.37819859154756">
        <time>2026-08-12T11:18:25.713000Z</time>
      </trkpt>
      <trkpt lat="39.89744811147922" lon="116.37847235905733">
        <time>2026-08-12T11:18:34.813000Z</time>
      </trkpt>
      <trkpt lat="39.89747689347263" lon="116.37876710621518">
        <time>2026-08-12T11:18:46.913000Z</time>
      </trkpt>
      <trkpt lat="39.89755558502326" lon="116.37918974623501">
        <time>2026-08-12T11:19:02.113000Z</time>
      </trkpt>
      <trkpt lat="39.897555467967656" lon="116.37935461209226">
        <time>2026-08-12T11:19:08.313000Z</time>
      </trkpt>
      <trkpt lat="39.89749529393194" lon="116.3796064174151">
        <time>2026-08-12T11:19:17.513000Z</time>
      </trkpt>
      <trkpt lat="39.89749001799192" lon="116.38000710249437">
        <time>2026-08-12T11:19:29.713000Z</time>
      </trkpt>
      <trkpt lat="39.89747079894992" lon="116.3803328541759">
        <time>2026-08-12T11:19:41.713000Z</time>
      </trkpt>
      <trkpt lat="39.89750453653943" lon="116.38072755303472">
        <time>2026-08-12T11:19:53.713000Z</time>
      </trkpt>
      <trkpt lat="39.89752842118841" lon="116.38090342020519">
        <time>2026-08-12T11:19:59.713000Z</time>
      </trkpt>
      <trkpt lat="39.89752214740837" lon="116.38133311035678">
        <time>2026-08-12T11:20:14.813000Z</time>
      </trkpt>
      <trkpt lat="39.8975268902274" lon="116.38174681933917">
        <time>2026-08-12T11:20:29.813000Z</time>
      </trkpt>
      <trkpt lat="39.89753363915593" lon="116.38216153594274">
        <time>2026-08-12T11:20:45.013000Z</time>
      </trkpt>
      <trkpt lat="39.897557382593284" lon="116.38259624602372">
        <time>2026-08-12T11:21:00.313000Z</time>
      </trkpt>
      <trkpt lat="39.89757514790866" lon="116.38300598206553">
        <time>2026-08-12T11:21:15.713000Z</time>
      </trkpt>
      <trkpt lat="39.8975959395069" lon="116.3833797481016">
        <time>2026-08-12T11:21:27.713000Z</time>
      </trkpt>
      <trkpt lat="39.89759771740533" lon="116.3837915012631">
        <time>2026-08-12T11:21:42.713000Z</time>
      </trkpt>
      <trkpt lat="39.89761058388549" lon="116.38404435246207">
        <time>2026-08-12T11:21:51.713000Z</time>
      </trkpt>
      <trkpt lat="39.89763436986497" lon="116.38446011455653">
        <time>2026-08-12T11:22:06.713000Z</time>
      </trkpt>
      <trkpt lat="39.89766023769958" lon="116.3847229673377">
        <time>2026-08-12T11:22:23.713000Z</time>
      </trkpt>
      <trkpt lat="39.89766504222295" lon="116.38512575307682">
        <time>2026-08-12T11:22:31.013000Z</time>
      </trkpt>
      <trkpt lat="39.897685822412335" lon="116.38559451232011">
        <time>2026-08-12T11:22:49.513000Z</time>
      </trkpt>
      <trkpt lat="39.897688667928165" lon="116.38593734501393">
        <time>2026-08-12T11:23:01.613000Z</time>
      </trkpt>
      <trkpt lat="39.89770755329906" lon="116.38619722012416">
        <time>2026-08-12T11:23:10.713000Z</time>
      </trkpt>
      <trkpt lat="39.89768837419028" lon="116.38662202992079">
        <time>2026-08-12T11:23:25.713000Z</time>
      </trkpt>
      <trkpt lat="39.89768523814002" lon="116.3869558855288">
        <time>2026-08-12T11:23:37.713000Z</time>
      </trkpt>
      <trkpt lat="39.89769910324598" lon="116.38729674195194">
        <time>2026-08-12T11:23:52.713000Z</time>
      </trkpt>
      <trkpt lat="39.897658075830336" lon="116.3873727164044">
        <time>2026-08-12T11:23:55.713000Z</time>
      </trkpt>
      <trkpt lat="39.89764504929463" lon="116.38744368958707">
        <time>2026-08-12T11:23:58.713000Z</time>
      </trkpt>
      <trkpt lat="39.89767495263378" lon="116.38769758606654">
        <time>2026-08-12T11:24:07.713000Z</time>
      </trkpt>
      <trkpt lat="39.89762382446665" lon="116.38805745707349">
        <time>2026-08-12T11:24:19.813000Z</time>
      </trkpt>
      <trkpt lat="39.89759167954302" lon="116.38848031067955">
        <time>2026-08-12T11:24:34.713000Z</time>
      </trkpt>
      <trkpt lat="39.897528551206946" lon="116.38887918544502">
        <time>2026-08-12T11:24:49.713000Z</time>
      </trkpt>
      <trkpt lat="39.897491529284174" lon="116.38895316637218">
        <time>2026-08-12T11:24:52.713000Z</time>
      </trkpt>
      <trkpt lat="39.89749148901982" lon="116.38908112591149">
        <time>2026-08-12T11:24:58.813000Z</time>
      </trkpt>
      <trkpt lat="39.897465468157094" lon="116.38915210715696">
        <time>2026-08-12T11:25:01.813000Z</time>
      </trkpt>
      <trkpt lat="39.89767737732892" lon="116.38941999925632">
        <time>2026-08-12T11:25:16.913000Z</time>
      </trkpt>
      <trkpt lat="39.89773035834183" lon="116.3894759760836">
        <time>2026-08-12T11:25:20.013000Z</time>
      </trkpt>
      <trkpt lat="39.89774933400502" lon="116.38955595049713">
        <time>2026-08-12T11:25:23.013000Z</time>
      </trkpt>
      <trkpt lat="39.89783229039661" lon="116.38969390076132">
        <time>2026-08-12T11:25:29.113000Z</time>
      </trkpt>
      <trkpt lat="39.897865261933255" lon="116.38978887018922">
        <time>2026-08-12T11:25:32.213000Z</time>
      </trkpt>
      <trkpt lat="39.89785023629329" lon="116.38988284648605">
        <time>2026-08-12T11:25:35.313000Z</time>
      </trkpt>
      <trkpt lat="39.89765016329927" lon="116.39018479287549">
        <time>2026-08-12T11:25:50.613000Z</time>
      </trkpt>
      <trkpt lat="39.89755511566146" lon="116.39038375552822">
        <time>2026-08-12T11:25:59.713000Z</time>
      </trkpt>
      <trkpt lat="39.89744103768746" lon="116.39071669204961">
        <time>2026-08-12T11:26:11.913000Z</time>
      </trkpt>
      <trkpt lat="39.89735896482422" lon="116.39104163210911">
        <time>2026-08-12T11:26:23.913000Z</time>
      </trkpt>
      <trkpt lat="39.89736092625873" lon="116.39121259709914">
        <time>2026-08-12T11:26:30.013000Z</time>
      </trkpt>
      <trkpt lat="39.89730689554706" lon="116.39136457441029">
        <time>2026-08-12T11:26:36.013000Z</time>
      </trkpt>
      <trkpt lat="39.89730381832455" lon="116.391738507339">
        <time>2026-08-12T11:26:48.213000Z</time>
      </trkpt>
      <trkpt lat="39.89731880207347" lon="116.39181749214556">
        <time>2026-08-12T11:26:51.313000Z</time>
      </trkpt>
      <trkpt lat="39.89731578498495" lon="116.39190647796923">
        <time>2026-08-12T11:26:54.313000Z</time>
      </trkpt>
      <trkpt lat="39.897440722893755" lon="116.39221141539797">
        <time>2026-08-12T11:27:06.613000Z</time>
      </trkpt>
      <trkpt lat="39.89749267575382" lon="116.39247037312298">
        <time>2026-08-12T11:27:15.613000Z</time>
      </trkpt>
      <trkpt lat="39.89767660635889" lon="116.3928543035227">
        <time>2026-08-12T11:27:30.713000Z</time>
      </trkpt>
      <trkpt lat="39.89778355795685" lon="116.39315625922514">
        <time>2026-08-12T11:27:42.713000Z</time>
      </trkpt>
      <trkpt lat="39.897923521999545" lon="116.39337922193108">
        <time>2026-08-12T11:27:54.813000Z</time>
      </trkpt>
      <trkpt lat="39.89792650902069" lon="116.39348121355636">
        <time>2026-08-12T11:27:57.713000Z</time>
      </trkpt>
      <trkpt lat="39.89772749781822" lon="116.39364922699461">
        <time>2026-08-12T11:28:09.813000Z</time>
      </trkpt>
      <trkpt lat="39.897675497843366" lon="116.39366923230531">
        <time>2026-08-12T11:28:12.813000Z</time>
      </trkpt>
      <trkpt lat="39.897788495883994" lon="116.39364221968589">
        <time>2026-08-12T11:28:18.913000Z</time>
      </trkpt>
      <trkpt lat="39.89790550093087" lon="116.39355521079004">
        <time>2026-08-12T11:28:24.913000Z</time>
      </trkpt>
      <trkpt lat="39.898088470013896" lon="116.39375017455514">
        <time>2026-08-12T11:28:37.113000Z</time>
      </trkpt>
      <trkpt lat="39.89838845618022" lon="116.39375313613498">
        <time>2026-08-12T11:28:52.513000Z</time>
      </trkpt>
      <trkpt lat="39.89865143980933" lon="116.39379410016942">
        <time>2026-08-12T11:29:07.713000Z</time>
      </trkpt>
      <trkpt lat="39.89868343184156" lon="116.39385409268071">
        <time>2026-08-12T11:29:10.713000Z</time>
      </trkpt>
      <trkpt lat="39.898697391939514" lon="116.39425107329886">
        <time>2026-08-12T11:29:25.713000Z</time>
      </trkpt>
      <trkpt lat="39.89870637000178" lon="116.39450506542364">
        <time>2026-08-12T11:29:34.813000Z</time>
      </trkpt>
      <trkpt lat="39.898775342475666" lon="116.39484505316561">
        <time>2026-08-12T11:29:49.813000Z</time>
      </trkpt>
      <trkpt lat="39.89876833680457" lon="116.39494105423015">
        <time>2026-08-12T11:29:52.813000Z</time>
      </trkpt>
      <trkpt lat="39.898819313905875" lon="116.39534105390634">
        <time>2026-08-12T11:30:08.113000Z</time>
      </trkpt>
      <trkpt lat="39.898853309971834" lon="116.39539905119972">
        <time>2026-08-12T11:30:11.113000Z</time>
      </trkpt>
      <trkpt lat="39.89892929468604" lon="116.39576805620956">
        <time>2026-08-12T11:30:23.413000Z</time>
      </trkpt>
      <trkpt lat="39.89898328655318" lon="116.39611306986833">
        <time>2026-08-12T11:30:35.613000Z</time>
      </trkpt>
      <trkpt lat="39.89903528379383" lon="116.39646809124906">
        <time>2026-08-12T11:30:47.613000Z</time>
      </trkpt>
      <trkpt lat="39.899064289724194" lon="116.39691113229634">
        <time>2026-08-12T11:31:02.713000Z</time>
      </trkpt>
      <trkpt lat="39.89906462412453" lon="116.39700989928473">
        <time>2026-08-12T11:31:05.713000Z</time>
      </trkpt>
      <trkpt lat="39.89906799708707" lon="116.3973867921213">
        <time>2026-08-12T11:31:17.813000Z</time>
      </trkpt>
      <trkpt lat="39.89907889825897" lon="116.39780184278523">
        <time>2026-08-12T11:31:33.013000Z</time>
      </trkpt>
      <trkpt lat="39.89911534832607" lon="116.39808429691844">
        <time>2026-08-12T11:31:42.213000Z</time>
      </trkpt>
      <trkpt lat="39.89910438356946" lon="116.3984853743972">
        <time>2026-08-12T11:31:57.713000Z</time>
      </trkpt>
      <trkpt lat="39.899089423852644" lon="116.39886645690859">
        <time>2026-08-12T11:32:09.913000Z</time>
      </trkpt>
      <trkpt lat="39.899112478158145" lon="116.39931856012203">
        <time>2026-08-12T11:32:24.713000Z</time>
      </trkpt>
      <trkpt lat="39.89913653617582" lon="116.39973566513342">
        <time>2026-08-12T11:32:39.713000Z</time>
      </trkpt>
      <trkpt lat="39.899128599300575" lon="116.4001287769274">
        <time>2026-08-12T11:32:54.713000Z</time>
      </trkpt>
      <trkpt lat="39.89911065373719" lon="116.40043487147635">
        <time>2026-08-12T11:33:03.713000Z</time>
      </trkpt>
      <trkpt lat="39.89917371835639" lon="116.40078997706624">
        <time>2026-08-12T11:33:15.713000Z</time>
      </trkpt>
      <trkpt lat="39.8991758094381" lon="116.40122912711858">
        <time>2026-08-12T11:33:30.713000Z</time>
      </trkpt>
      <trkpt lat="39.899163901007284" lon="116.40163127580503">
        <time>2026-08-12T11:33:45.713000Z</time>
      </trkpt>
      <trkpt lat="39.89914398352837" lon="116.40196740833899">
        <time>2026-08-12T11:33:57.713000Z</time>
      </trkpt>
      <trkpt lat="39.89915101256649" lon="116.40208345380114">
        <time>2026-08-12T11:34:00.713000Z</time>
      </trkpt>
      <trkpt lat="39.89918004513767" lon="116.40221450336632">
        <time>2026-08-12T11:34:06.713000Z</time>
      </trkpt>
      <trkpt lat="39.89923314730894" lon="116.40260165961449">
        <time>2026-08-12T11:34:21.813000Z</time>
      </trkpt>
      <trkpt lat="39.89924625501914" lon="116.40297882488424">
        <time>2026-08-12T11:34:33.813000Z</time>
      </trkpt>
      <trkpt lat="39.89925138451215" lon="116.40340402206205">
        <time>2026-08-12T11:34:49.013000Z</time>
      </trkpt>
      <trkpt lat="39.89923555293243" lon="116.40391827699588">
        <time>2026-08-12T11:35:07.413000Z</time>
      </trkpt>
      <trkpt lat="39.89924669293135" lon="116.40432348539757">
        <time>2026-08-12T11:35:22.613000Z</time>
      </trkpt>
      <trkpt lat="39.89926283895039" lon="116.40472570079993">
        <time>2026-08-12T11:35:34.713000Z</time>
      </trkpt>
      <trkpt lat="39.899270983191975" lon="116.405103912599">
        <time>2026-08-12T11:35:49.813000Z</time>
      </trkpt>
      <trkpt lat="39.89930811140133" lon="116.40543009793554">
        <time>2026-08-12T11:35:58.813000Z</time>
      </trkpt>
      <trkpt lat="39.899274198697064" lon="116.40563922728386">
        <time>2026-08-12T11:36:04.913000Z</time>
      </trkpt>
      <trkpt lat="39.89931637469015" lon="116.40605848002987">
        <time>2026-08-12T11:36:20.113000Z</time>
      </trkpt>
      <trkpt lat="39.89932655323072" lon="116.40646273705464">
        <time>2026-08-12T11:36:35.313000Z</time>
      </trkpt>
      <trkpt lat="39.899346765080054" lon="116.40692303989789">
        <time>2026-08-12T11:36:50.613000Z</time>
      </trkpt>
      <trkpt lat="39.89935987541014" lon="116.40715519682634">
        <time>2026-08-12T11:36:59.613000Z</time>
      </trkpt>
      <trkpt lat="39.89939190159803" lon="116.40721223217966">
        <time>2026-08-12T11:37:02.613000Z</time>
      </trkpt>
      <trkpt lat="39.89938084507247" lon="116.4070941521572">
        <time>2026-08-12T11:37:08.613000Z</time>
      </trkpt>
      <trkpt lat="39.89941869609861" lon="116.40678293650534">
        <time>2026-08-12T11:37:20.613000Z</time>
      </trkpt>
      <trkpt lat="39.89939260211062" lon="116.4065768032081">
        <time>2026-08-12T11:37:29.813000Z</time>
      </trkpt>
      <trkpt lat="39.899339697304285" lon="116.40677794322748">
        <time>2026-08-12T11:37:41.813000Z</time>
      </trkpt>
      <trkpt lat="39.89935289024276" lon="116.4071852184483">
        <time>2026-08-12T11:37:57.113000Z</time>
      </trkpt>
      <trkpt lat="39.899404776688264" lon="116.40695305284187">
        <time>2026-08-12T11:38:12.513000Z</time>
      </trkpt>
      <trkpt lat="39.89950075913061" lon="116.40692502162882">
        <time>2026-08-12T11:38:18.613000Z</time>
      </trkpt>
      <trkpt lat="39.899625749282585" lon="116.40691599960947">
        <time>2026-08-12T11:38:24.713000Z</time>
      </trkpt>
      <trkpt lat="39.89974775991836" lon="116.4069500070999">
        <time>2026-08-12T11:38:30.813000Z</time>
      </trkpt>
      <trkpt lat="39.899795776770915" lon="116.40699002816906">
        <time>2026-08-12T11:38:33.713000Z</time>
      </trkpt>
      <trkpt lat="39.89982798858443" lon="116.40742932842821">
        <time>2026-08-12T11:38:51.813000Z</time>
      </trkpt>
      <trkpt lat="39.89985315041763" lon="116.40775355688143">
        <time>2026-08-12T11:39:04.013000Z</time>
      </trkpt>
      <trkpt lat="39.89984601666829" lon="116.40812963569533">
        <time>2026-08-12T11:39:19.413000Z</time>
      </trkpt>
      <trkpt lat="39.89986157703482" lon="116.40856215952823">
        <time>2026-08-12T11:39:31.713000Z</time>
      </trkpt>
      <trkpt lat="39.89988480448052" lon="116.40897347790319">
        <time>2026-08-12T11:39:46.613000Z</time>
      </trkpt>
      <trkpt lat="39.899922055857566" lon="116.40941382781034">
        <time>2026-08-12T11:40:01.613000Z</time>
      </trkpt>
      <trkpt lat="39.89995426733951" lon="116.4097731212259">
        <time>2026-08-12T11:40:13.613000Z</time>
      </trkpt>
      <trkpt lat="39.899972521133975" lon="116.41019047368522">
        <time>2026-08-12T11:40:28.713000Z</time>
      </trkpt>
      <trkpt lat="39.900001782269555" lon="116.4106078346262">
        <time>2026-08-12T11:40:43.713000Z</time>
      </trkpt>
      <trkpt lat="39.90001893999811" lon="116.41085405220306">
        <time>2026-08-12T11:40:52.913000Z</time>
      </trkpt>
      <trkpt lat="39.90001614572424" lon="116.41116733714608">
        <time>2026-08-12T11:41:05.113000Z</time>
      </trkpt>
      <trkpt lat="39.89998632187244" lon="116.41142858250748">
        <time>2026-08-12T11:41:14.313000Z</time>
      </trkpt>
      <trkpt lat="39.900015622212884" lon="116.41186899476382">
        <time>2026-08-12T11:41:26.613000Z</time>
      </trkpt>
      <trkpt lat="39.90003268002874" lon="116.41195307325646">
        <time>2026-08-12T11:41:32.613000Z</time>
      </trkpt>
    </trkseg>
  </trk>
</gpx>