<?xml version="1.0" encoding="UTF-8"?>
<gpx xmlns="http://www.topografix.com/GPX/1/1" xmlns:gpxtpx="http://www.garmin.com/xmlschemas/TrackPointExtension/v1" xmlns:xsi="http://www.w3.org/2001/XMLSchema-instance" xsi:schemaLocation="http://www.topografix.com/GPX/1/1 http://www.topografix.com/GPX/1/1/gpx.xsd" version="1.1" creator="gpx.py -- https://github.com/tkrajina/gpxpy">
  <trk>
    <name>gpx from keep</name>
    <type>Run</type>
    <trkseg>
      <trkpt lat="39.86779382866066" lon="116.46709592174548">
        <time>2026-08-08T00:17:28.696000Z</time>
      </trkpt>
      <trkpt lat="39.86770089571024" lon="116.46711901320887">
        <time>2026-08-08T00:17:31.696000Z</time>
      </trkpt>
      <trkpt lat="39.86755577906488" lon="116.46707287179389">
        <time>2026-08-08T00:17:37.796000Z</time>
      </trkpt>
      <trkpt lat="39.86752551060992" lon="116.46697252880385">
        <time>2026-08-08T00:17:40.796000Z</time>
      </trkpt>
      <trkpt lat="39.86756246559773" lon="116.46658418459579">
        <time>2026-08-08T00:17:52.996000Z</time>
      </trkpt>
      <trkpt lat="39.86760489872206" lon="116.46637345403957">
        <time>2026-08-08T00:17:59.096000Z</time>
      </trkpt>
      <trkpt lat="39.86758964978125" lon="116.46628013515415">
        <time>2026-08-08T00:18:02.096000Z</time>
      </trkpt>
      <trkpt lat="39.86752158358393" lon="116.46625405404707">
        <time>2026-08-08T00:18:05.196000Z</time>
      </trkpt>
      <trkpt lat="39.86723960115411" lon="116.46625509285995">
        <time>2026-08-08T00:18:17.496000Z</time>
      </trkpt>
      <trkpt lat="39.86690769117904" lon="116.46628222757838">
        <time>2026-08-08T00:18:29.496000Z</time>
      </trkpt>
      <trkpt lat="39.86669967535339" lon="116.46627221918553">
        <time>2026-08-08T00:18:38.596000Z</time>
      </trkpt>
      <trkpt lat="39.86663977785995" lon="116.46630935428912">
        <time>2026-08-08T00:18:41.596000Z</time>
      </trkpt>
      <trkpt lat="39.86664007333234" lon="116.46641973379604">
        <time>2026-08-08T00:18:44.596000Z</time>
      </trkpt>
      <trkpt lat="39.86665981216536" lon="116.46669568159655">
        <time>2026-08-08T00:18:53.596000Z</time>
      </trkpt>
      <trkpt lat="39.866608502425066" lon="116.46695157098797">
        <time>2026-08-08T00:19:02.596000Z</time>
      </trkpt>
      <trkpt lat="39.86658349301872" lon="116.46731884441085">
        <time>2026-08-08T00:19:14.596000Z</time>
      </trkpt>
      <trkpt lat="39.8665974545378" lon="116.46767507809056">
        <time>2026-08-08T00:19:26.596000Z</time>
      </trkpt>
      <trkpt lat="39.866612459479576" lon="116.46804636727465">
        <time>2026-08-08T00:19:38.596000Z</time>
      </trkpt>
      <trkpt lat="39.866586662337205" lon="116.4681206291369">
        <time>2026-08-08T00:19:41.696000Z</time>
      </trkpt>
      <trkpt lat="39.86652585626521" lon="116.46819088153313">
        <time>2026-08-08T00:19:44.696000Z</time>
      </trkpt>
      <trkpt lat="39.866503842513836" lon="116.46855314858219">
        <time>2026-08-08T00:19:56.696000Z</time>
      </trkpt>
      <trkpt lat="39.86649485812499" lon="116.46892545238194">
        <time>2026-08-08T00:20:08.696000Z</time>
      </trkpt>
      <trkpt lat="39.86647690720054" lon="116.46930879943754">
        <time>2026-08-08T00:20:20.696000Z</time>
      </trkpt>
      <trkpt lat="39.86652493362595" lon="116.46968411346373">
        <time>2026-08-08T00:20:32.696000Z</time>
      </trkpt>
      <trkpt lat="39.86648894790662" lon="116.47005241652406">
        <time>2026-08-08T00:20:44.696000Z</time>
      </trkpt>
      <trkpt lat="39.866471949928325" lon="116.47041570259022">
        <time>2026-08-08T00:20:56.696000Z</time>
      </trkpt>
      <trkpt lat="39.866461056830985" lon="116.47081612260594">
        <time>2026-08-08T00:21:08.796000Z</time>
      </trkpt>
      <trkpt lat="39.86647963931829" lon="116.47102686838551">
        <time>2026-08-08T00:21:14.796000Z</time>
      </trkpt>
      <trkpt lat="39.8664531609808" lon="116.47121453870027">
        <time>2026-08-08T00:21:20.896000Z</time>
      </trkpt>
      <trkpt lat="39.86645542540881" lon="116.47130987756469">
        <time>2026-08-08T00:21:23.996000Z</time>
      </trkpt>
      <trkpt lat="39.866493936222184" lon="116.47149453018676">
        <time>2026-08-08T00:21:30.196000Z</time>
      </trkpt>
      <trkpt lat="39.86648113222371" lon="116.47192406391359">
        <time>2026-08-08T00:21:45.496000Z</time>
      </trkpt>
      <trkpt lat="39.86648094681065" lon="116.47221610788912">
        <time>2026-08-08T00:21:54.596000Z</time>
      </trkpt>
      <trkpt lat="39.86647815616389" lon="116.47264865772408">
        <time>2026-08-08T00:22:09.596000Z</time>
      </trkpt>
      <trkpt lat="39.86648615694983" lon="116.47300593948762">
        <time>2026-08-08T00:22:21.596000Z</time>
      </trkpt>
      <trkpt lat="39.86648434666373" lon="116.4734294636387">
        <time>2026-08-08T00:22:36.596000Z</time>
      </trkpt>
      <trkpt lat="39.86647336160882" lon="116.47378976423434">
        <time>2026-08-08T00:22:48.596000Z</time>
      </trkpt>
      <trkpt lat="39.866449577789716" lon="116.47422032307041">
        <time>2026-08-08T00:23:03.596000Z</time>
      </trkpt>
      <trkpt lat="39.86645630951073" lon="116.47447925962702">
        <time>2026-08-08T00:23:12.596000Z</time>
      </trkpt>
      <trkpt lat="39.866443054723916" lon="116.47474221450362">
        <time>2026-08-08T00:23:21.596000Z</time>
      </trkpt>
      <trkpt lat="39.86645581956584" lon="116.4750121929277">
        <time>2026-08-08T00:23:30.596000Z</time>
      </trkpt>
      <trkpt lat="39.866438550045835" lon="116.47526912897892">
        <time>2026-08-08T00:23:39.596000Z</time>
      </trkpt>
      <trkpt lat="39.8664565652969" lon="116.47562642739295">
        <time>2026-08-08T00:23:51.696000Z</time>
      </trkpt>
      <trkpt lat="39.86641106509133" lon="116.47580106961722">
        <time>2026-08-08T00:23:57.696000Z</time>
      </trkpt>
      <trkpt lat="39.86640655457151" lon="116.47597269626384">
        <time>2026-08-08T00:24:03.696000Z</time>
      </trkpt>
      <trkpt lat="39.86643458446386" lon="116.47633401248957">
        <time>2026-08-08T00:24:15.696000Z</time>
      </trkpt>
      <trkpt lat="39.86644260005185" lon="116.47668931137324">
        <time>2026-08-08T00:24:27.796000Z</time>
      </trkpt>
      <trkpt lat="39.86639979278971" lon="116.47710483956938">
        <time>2026-08-08T00:24:42.896000Z</time>
      </trkpt>
      <trkpt lat="39.866392968679804" lon="116.47751434392536">
        <time>2026-08-08T00:24:58.096000Z</time>
      </trkpt>
      <trkpt lat="39.866372722928034" lon="116.47777630963873">
        <time>2026-08-08T00:25:07.396000Z</time>
      </trkpt>
      <trkpt lat="39.86639147311848" lon="116.47803726784734">
        <time>2026-08-08T00:25:16.596000Z</time>
      </trkpt>
      <trkpt lat="39.866418815774104" lon="116.47815670441646">
        <time>2026-08-08T00:25:19.596000Z</time>
      </trkpt>
      <trkpt lat="39.86641053972627" lon="116.4784076304782">
        <time>2026-08-08T00:25:28.596000Z</time>
      </trkpt>
      <trkpt lat="39.866459075960876" lon="116.47859431324812">
        <time>2026-08-08T00:25:34.596000Z</time>
      </trkpt>
      <trkpt lat="39.86643528678604" lon="116.47901286236103">
        <time>2026-08-08T00:25:49.596000Z</time>
      </trkpt>
      <trkpt lat="39.86639054157923" lon="116.47944546860357">
        <time>2026-08-08T00:26:04.596000Z</time>
      </trkpt>
      <trkpt lat="39.86639874916451" lon="116.4798620112466">
        <time>2026-08-08T00:26:19.596000Z</time>
      </trkpt>
      <trkpt lat="39.866384510692534" lon="116.48012398504459">
        <time>2026-08-08T00:26:28.596000Z</time>
      </trkpt>
      <trkpt lat="39.86632872782721" lon="116.4805415431162">
        <time>2026-08-08T00:26:43.596000Z</time>
      </trkpt>
      <trkpt lat="39.866319774725824" lon="116.48090088084625">
        <time>2026-08-08T00:26:55.596000Z</time>
      </trkpt>
      <trkpt lat="39.86632382524334" lon="116.48126122227255">
        <time>2026-08-08T00:27:07.596000Z</time>
      </trkpt>
      <trkpt lat="39.86632483035639" lon="116.48160550570789">
        <time>2026-08-08T00:27:19.596000Z</time>
      </trkpt>
      <trkpt lat="39.86629304906227" lon="116.48167978676827">
        <time>2026-08-08T00:27:22.596000Z</time>
      </trkpt>
      <trkpt lat="39.86624021613688" lon="116.48173600309109">
        <time>2026-08-08T00:27:25.596000Z</time>
      </trkpt>
      <trkpt lat="39.866170296132445" lon="116.48176210919517">
        <time>2026-08-08T00:27:28.596000Z</time>
      </trkpt>
      <trkpt lat="39.865901084586085" lon="116.48168485434033">
        <time>2026-08-08T00:27:40.596000Z</time>
      </trkpt>
      <trkpt lat="39.865629008171545" lon="116.48165377215552">
        <time>2026-08-08T00:27:52.596000Z</time>
      </trkpt>
      <trkpt lat="39.86529784991048" lon="116.48159358876504">
        <time>2026-08-08T00:28:07.596000Z</time>
      </trkpt>
      <trkpt lat="39.86497672636172" lon="116.48154544908714">
        <time>2026-08-08T00:28:22.696000Z</time>
      </trkpt>
      <trkpt lat="39.86465459119803" lon="116.481493294592">
        <time>2026-08-08T00:28:37.796000Z</time>
      </trkpt>
      <trkpt lat="39.8645175370035" lon="116.48147223307653">
        <time>2026-08-08T00:28:43.796000Z</time>
      </trkpt>
      <trkpt lat="39.86433837958374" lon="116.4814150420996">
        <time>2026-08-08T00:28:52.896000Z</time>
      </trkpt>
      <trkpt lat="39.864007195236" lon="116.48134582521551">
        <time>2026-08-08T00:29:07.996000Z</time>
      </trkpt>
      <trkpt lat="39.863686083654095" lon="116.48130170064229">
        <time>2026-08-08T00:29:23.396000Z</time>
      </trkpt>
      <trkpt lat="39.8633969879664" lon="116.48126359454274">
        <time>2026-08-08T00:29:35.596000Z</time>
      </trkpt>
      <trkpt lat="39.86308984058864" lon="116.48120742340124">
        <time>2026-08-08T00:29:50.596000Z</time>
      </trkpt>
      <trkpt lat="39.86275764193779" lon="116.4811331881275">
        <time>2026-08-08T00:30:05.596000Z</time>
      </trkpt>
      <trkpt lat="39.86242751936222" lon="116.48108504984206">
        <time>2026-08-08T00:30:20.596000Z</time>
      </trkpt>
      <trkpt lat="39.862293444704335" lon="116.4810569618983">
        <time>2026-08-08T00:30:26.596000Z</time>
      </trkpt>
      <trkpt lat="39.86199139384144" lon="116.48103391358552">
        <time>2026-08-08T00:30:41.596000Z</time>
      </trkpt>
      <trkpt lat="39.861673261964675" lon="116.48098276265601">
        <time>2026-08-08T00:30:56.596000Z</time>
      </trkpt>
      <trkpt lat="39.86134213378422" lon="116.48093261711514">
        <time>2026-08-08T00:31:11.596000Z</time>
      </trkpt>
      <trkpt lat="39.861014932335856" lon="116.48085737773887">
        <time>2026-08-08T00:31:26.596000Z</time>
      </trkpt>
      <trkpt lat="39.860687710518576" lon="116.48077511229886">
        <time>2026-08-08T00:31:41.596000Z</time>
      </trkpt>
      <trkpt lat="39.86039864162688" lon="116.48074604004984">
        <time>2026-08-08T00:31:53.596000Z</time>
      </trkpt>
      <trkpt lat="39.86026770729902" lon="116.48076613104271">
        <time>2026-08-08T00:31:59.596000Z</time>
      </trkpt>
      <trkpt lat="39.86014683967415" lon="116.48080930667156">
        <time>2026-08-08T00:32:05.596000Z</time>
      </trkpt>
      <trkpt lat="39.85987668499836" lon="116.48075112377322">
        <time>2026-08-08T00:32:17.596000Z</time>
      </trkpt>
      <trkpt lat="39.8596706232957" lon="116.48072605612045">
        <time>2026-08-08T00:32:26.596000Z</time>
      </trkpt>
      <trkpt lat="39.85961946244974" lon="116.4806698534541">
        <time>2026-08-08T00:32:29.596000Z</time>
      </trkpt>
      <trkpt lat="39.85959696704066" lon="116.4804992219056">
        <time>2026-08-08T00:32:35.596000Z</time>
      </trkpt>
      <trkpt lat="39.85960246456816" lon="116.48032657977933">
        <time>2026-08-08T00:32:41.596000Z</time>
      </trkpt>
      <trkpt lat="39.85954726611003" lon="116.47991305174929">
        <time>2026-08-08T00:32:56.596000Z</time>
      </trkpt>
      <trkpt lat="39.85945610942501" lon="116.47951257879454">
        <time>2026-08-08T00:33:11.596000Z</time>
      </trkpt>
      <trkpt lat="39.85938621200245" lon="116.47920143578894">
        <time>2026-08-08T00:33:23.596000Z</time>
      </trkpt>
      <trkpt lat="39.85932701634545" lon="116.47878691088947">
        <time>2026-08-08T00:33:38.596000Z</time>
      </trkpt>
      <trkpt lat="39.85928530842476" lon="116.47854100827635">
        <time>2026-08-08T00:33:47.596000Z</time>
      </trkpt>
      <trkpt lat="39.859256149228464" lon="116.47813852798039">
        <time>2026-08-08T00:34:02.696000Z</time>
      </trkpt>
      <trkpt lat="39.85923321988561" lon="116.47781534101782">
        <time>2026-08-08T00:34:14.696000Z</time>
      </trkpt>
      <trkpt lat="39.85926200075316" lon="116.47739178053239">
        <time>2026-08-08T00:34:29.696000Z</time>
      </trkpt>
      <trkpt lat="39.85925276496004" lon="116.47730947948784">
        <time>2026-08-08T00:34:32.696000Z</time>
      </trkpt>
      <trkpt lat="39.85930267120849" lon="116.47692907792648">
        <time>2026-08-08T00:34:47.796000Z</time>
      </trkpt>
      <trkpt lat="39.859386465642935" lon="116.47650953128674">
        <time>2026-08-08T00:35:02.896000Z</time>
      </trkpt>
      <trkpt lat="39.859466351583336" lon="116.47612110168215">
        <time>2026-08-08T00:35:18.196000Z</time>
      </trkpt>
      <trkpt lat="39.85954319985711" lon="116.47571862382355">
        <time>2026-08-08T00:35:33.496000Z</time>
      </trkpt>
      <trkpt lat="39.85958673170244" lon="116.47555502236945">
        <time>2026-08-08T00:35:39.696000Z</time>
      </trkpt>
      <trkpt lat="39.859660748849116" lon="116.47521076047967">
        <time>2026-08-08T00:35:51.796000Z</time>
      </trkpt>
      <trkpt lat="39.859757570227096" lon="116.4747972465784">
        <time>2026-08-08T00:36:06.896000Z</time>
      </trkpt>
      <trkpt lat="39.8598014028602" lon="116.47438574971835">
        <time>2026-08-08T00:36:22.096000Z</time>
      </trkpt>
      <trkpt lat="39.859886235912406" lon="116.47397425092736">
        <time>2026-08-08T00:36:37.396000Z</time>
      </trkpt>
      <trkpt lat="39.859985991791696" lon="116.47353465224364">
        <time>2026-08-08T00:36:52.596000Z</time>
      </trkpt>
      <trkpt lat="39.860079883597635" lon="116.47314222771614">
        <time>2026-08-08T00:37:07.596000Z</time>
      </trkpt>
      <trkpt lat="39.86016973323885" lon="116.47273374916853">
        <time>2026-08-08T00:37:22.596000Z</time>
      </trkpt>
      <trkpt lat="39.86026121649008" lon="116.47240330538193">
        <time>2026-08-08T00:37:34.596000Z</time>
      </trkpt>
      <trkpt lat="39.86032613930489" lon="116.47216669835991">
        <time>2026-08-08T00:37:43.596000Z</time>
      </trkpt>
      <trkpt lat="39.86034666227191" lon="116.47199608593839">
        <time>2026-08-08T00:37:49.596000Z</time>
      </trkpt>
      <trkpt lat="39.86047758756985" lon="116.47161270144278">
        <time>2026-08-08T00:38:04.596000Z</time>
      </trkpt>
      <trkpt lat="39.86051514195374" lon="116.47145312822526">
        <time>2026-08-08T00:38:10.596000Z</time>
      </trkpt>
      <trkpt lat="39.86066479092467" lon="116.47132967008253">
        <time>2026-08-08T00:38:19.596000Z</time>
      </trkpt>
      <trkpt lat="39.860752813954" lon="116.471339694781">
        <time>2026-08-08T00:38:25.596000Z</time>
      </trkpt>
      <trkpt lat="39.86085873571064" lon="116.47131358867864">
        <time>2026-08-08T00:38:31.596000Z</time>
      </trkpt>
      <trkpt lat="39.86117884633314" lon="116.47135971290417">
        <time>2026-08-08T00:38:46.596000Z</time>
      </trkpt>
      <trkpt lat="39.861224841029575" lon="116.47135870357704">
        <time>2026-08-08T00:38:49.596000Z</time>
      </trkpt>
      <trkpt lat="39.86128693517044" lon="116.4713938208345">
        <time>2026-08-08T00:38:52.596000Z</time>
      </trkpt>
      <trkpt lat="39.86135583386466" lon="116.47135868718586">
        <time>2026-08-08T00:38:55.596000Z</time>
      </trkpt>
      <trkpt lat="39.86139455319155" lon="116.47125832526824">
        <time>2026-08-08T00:38:58.596000Z</time>
      </trkpt>
      <trkpt lat="39.86131743490134" lon="116.47121417787675">
        <time>2026-08-08T00:39:01.596000Z</time>
      </trkpt>
      <trkpt lat="39.861079230853804" lon="116.47113592939921">
        <time>2026-08-08T00:39:10.596000Z</time>
      </trkpt>
      <trkpt lat="39.86079495160404" lon="116.47102958700926">
        <time>2026-08-08T00:39:22.596000Z</time>
      </trkpt>
      <trkpt lat="39.86047289144238" lon="116.4710015275156">
        <time>2026-08-08T00:39:37.596000Z</time>
      </trkpt>
      <trkpt lat="39.86045668666918" lon="116.47092726587796">
        <time>2026-08-08T00:39:40.596000Z</time>
      </trkpt>
      <trkpt lat="39.86053259474132" lon="116.47053386172216">
        <time>2026-08-08T00:39:55.596000Z</time>
      </trkpt>
      <trkpt lat="39.86060064436134" lon="116.47019063930159">
        <time>2026-08-08T00:40:07.596000Z</time>
      </trkpt>
      <trkpt lat="39.8606945100567" lon="116.46978017939716">
        <time>2026-08-08T00:40:22.596000Z</time>
      </trkpt>
      <trkpt lat="39.8607733798331" lon="116.46936972531023">
        <time>2026-08-08T00:40:37.596000Z</time>
      </trkpt>
      <trkpt lat="39.86081828766985" lon="116.4689713216815">
        <time>2026-08-08T00:40:52.596000Z</time>
      </trkpt>
      <trkpt lat="39.860868359660024" lon="116.46863212819143">
        <time>2026-08-08T00:41:04.596000Z</time>
      </trkpt>
      <trkpt lat="39.86095021685042" lon="116.46821365712107">
        <time>2026-08-08T00:41:19.596000Z</time>
      </trkpt>
      <trkpt lat="39.8609831074817" lon="116.46780523142084">
        <time>2026-08-08T00:41:34.696000Z</time>
      </trkpt>
      <trkpt lat="39.86105900734991" lon="116.46739981498119">
        <time>2026-08-08T00:41:49.696000Z</time>
      </trkpt>
      <trkpt lat="39.861126886825105" lon="116.46698537256533">
        <time>2026-08-08T00:42:04.696000Z</time>
      </trkpt>
      <trkpt lat="39.86125084494714" lon="116.46660002781911">
        <time>2026-08-08T00:42:19.696000Z</time>
      </trkpt>
      <trkpt lat="39.86130278071637" lon="116.46620365811877">
        <time>2026-08-08T00:42:34.796000Z</time>
      </trkpt>
      <trkpt lat="39.86134408170029" lon="116.46594275794551">
        <time>2026-08-08T00:42:43.896000Z</time>
      </trkpt>
      <trkpt lat="39.861392926480555" lon="116.46588555585544">
        <time>2026-08-08T00:42:46.996000Z</time>
      </trkpt>
      <trkpt lat="39.8614569069309" lon="116.46587952720938">
        <time>2026-08-08T00:42:50.096000Z</time>
      </trkpt>
      <trkpt lat="39.861744049153025" lon="116.46593869403459">
        <time>2026-08-08T00:43:05.396000Z</time>
      </trkpt>
      <trkpt lat="39.86188606550336" lon="116.46594770717464">
        <time>2026-08-08T00:43:11.596000Z</time>
      </trkpt>
      <trkpt lat="39.862093992612955" lon="116.4659246020119">
        <time>2026-08-08T00:43:20.596000Z</time>
      </trkpt>
      <trkpt lat="39.86236902316014" lon="116.46594162597701">
        <time>2026-08-08T00:43:32.596000Z</time>
      </trkpt>
      <trkpt lat="39.862688091510904" lon="116.46597369601939">
        <time>2026-08-08T00:43:47.596000Z</time>
      </trkpt>
      <trkpt lat="39.86296013835843" lon="116.46599674102296">
        <time>2026-08-08T00:43:59.596000Z</time>
      </trkpt>
      <trkpt lat="39.863265199528556" lon="116.46602580254711">
        <time>2026-08-08T00:44:14.596000Z</time>
      </trkpt>
      <trkpt lat="39.86354155706458" lon="116.46601551414936">
        <time>2026-08-08T00:44:26.596000Z</time>
      </trkpt>
      <trkpt lat="39.863609116015006" lon="116.46600654360967">
        <time>2026-08-08T00:44:29.596000Z</time>
      </trkpt>
      <trkpt lat="39.86373200446692" lon="116.46605157902546">
        <time>2026-08-08T00:44:35.596000Z</time>
      </trkpt>
      <trkpt lat="39.86382962478213" lon="116.46619631714888">
        <time>2026-08-08T00:44:41.596000Z</time>
      </trkpt>
      <trkpt lat="39.86377957579419" lon="116.46655054144576">
        <time>2026-08-08T00:44:53.596000Z</time>
      </trkpt>
      <trkpt lat="39.86376772987895" lon="116.46698002419113">
        <time>2026-08-08T00:45:08.596000Z</time>
      </trkpt>
      <trkpt lat="39.86373470219698" lon="116.46734027450297">
        <time>2026-08-08T00:45:20.596000Z</time>
      </trkpt>
      <trkpt lat="39.8636926207371" lon="116.46767945610667">
        <time>2026-08-08T00:45:32.596000Z</time>
      </trkpt>
      <trkpt lat="39.86367773621336" lon="116.46809088880156">
        <time>2026-08-08T00:45:47.596000Z</time>
      </trkpt>
      <trkpt lat="39.86367323238165" lon="116.46827352587634">
        <time>2026-08-08T00:45:53.596000Z</time>
      </trkpt>
      <trkpt lat="39.863648476478396" lon="116.46836284054089">
        <time>2026-08-08T00:45:56.596000Z</time>
      </trkpt>
      <trkpt lat="39.86362742018704" lon="116.46870905278311">
        <time>2026-08-08T00:46:08.596000Z</time>
      </trkpt>
      <trkpt lat="39.86363609602942" lon="116.46895691950436">
        <time>2026-08-08T00:46:17.596000Z</time>
      </trkpt>
      <trkpt lat="39.863609063412326" lon="116.46931016217042">
        <time>2026-08-08T00:46:29.696000Z</time>
      </trkpt>
      <trkpt lat="39.86357406398128" lon="116.46967444767874">
        <time>2026-08-08T00:46:41.696000Z</time>
      </trkpt>
      <trkpt lat="39.86354020517748" lon="116.47008891329796">
        <time>2026-08-08T00:46:56.696000Z</time>
      </trkpt>
      <trkpt lat="39.863522382037104" lon="116.47051542351352">
        <time>2026-08-08T00:47:11.696000Z</time>
      </trkpt>
      <trkpt lat="39.86350757048602" lon="116.47094494816822">
        <time>2026-08-08T00:47:26.696000Z</time>
      </trkpt>
      <trkpt lat="39.86347604764796" lon="116.47111656167546">
        <time>2026-08-08T00:47:32.796000Z</time>
      </trkpt>
      <trkpt lat="39.86342820883844" lon="116.47117377099474">
        <time>2026-08-08T00:47:35.796000Z</time>
      </trkpt>
      <trkpt lat="39.863367290063714" lon="116.47120187852757">
        <time>2026-08-08T00:47:38.796000Z</time>
      </trkpt>
      <trkpt lat="39.86309332158197" lon="116.4712079342256">
        <time>2026-08-08T00:47:50.996000Z</time>
      </trkpt>
      <trkpt lat="39.862763306057275" lon="116.47119593270462">
        <time>2026-08-08T00:48:06.296000Z</time>
      </trkpt>
      <trkpt lat="39.86249132081802" lon="116.47119596674244">
        <time>2026-08-08T00:48:18.596000Z</time>
      </trkpt>
      <trkpt lat="39.86220932501294" lon="116.47119198775964">
        <time>2026-08-08T00:48:30.596000Z</time>
      </trkpt>
      <trkpt lat="39.86189133954498" lon="116.47119102398509">
        <time>2026-08-08T00:48:45.696000Z</time>
      </trkpt>
      <trkpt lat="39.86162026805423" lon="116.47115994730541">
        <time>2026-08-08T00:48:57.696000Z</time>
      </trkpt>
      <trkpt lat="39.86129116917409" lon="116.47111783867626">
        <time>2026-08-08T00:49:12.796000Z</time>
      </trkpt>
      <trkpt lat="39.860973047509866" lon="116.47106770018975">
        <time>2026-08-08T00:49:27.796000Z</time>
      </trkpt>
      <trkpt lat="39.860637990804236" lon="116.47104064586293">
        <time>2026-08-08T00:49:42.996000Z</time>
      </trkpt>
      <trkpt lat="39.860562944876946" lon="116.4710225910924">
        <time>2026-08-08T00:49:46.096000Z</time>
      </trkpt>
      <trkpt lat="39.86050098720719" lon="116.47103664874908">
        <time>2026-08-08T00:49:49.096000Z</time>
      </trkpt>
      <trkpt lat="39.86045687564341" lon="116.47099550813702">
        <time>2026-08-08T00:49:52.196000Z</time>
      </trkpt>
      <trkpt lat="39.86043865987547" lon="116.47091723251292">
        <time>2026-08-08T00:49:55.296000Z</time>
      </trkpt>
      <trkpt lat="39.860505006602025" lon="116.47068239131974">
        <time>2026-08-08T00:50:04.496000Z</time>
      </trkpt>
      <trkpt lat="39.86052055106616" lon="116.47051780637905">
        <time>2026-08-08T00:50:10.596000Z</time>
      </trkpt>
      <trkpt lat="39.86060160836894" lon="116.47017759309163">
        <time>2026-08-08T00:50:22.596000Z</time>
      </trkpt>
      <trkpt lat="39.860702369053776" lon="116.46972899811168">
        <time>2026-08-08T00:50:37.596000Z</time>
      </trkpt>
      <trkpt lat="39.86076523736999" lon="116.46931754299968">
        <time>2026-08-08T00:50:52.596000Z</time>
      </trkpt>
      <trkpt lat="39.86081510972981" lon="116.46890609355114">
        <time>2026-08-08T00:51:07.596000Z</time>
      </trkpt>
      <trkpt lat="39.860835648640574" lon="116.46873750079911">
        <time>2026-08-08T00:51:13.596000Z</time>
      </trkpt>
      <trkpt lat="39.86090897486617" lon="116.46849163217995">
        <time>2026-08-08T00:51:22.596000Z</time>
      </trkpt>
      <trkpt lat="39.86095482161612" lon="116.46806814960495">
        <time>2026-08-08T00:51:37.596000Z</time>
      </trkpt>
      <trkpt lat="39.861047718331996" lon="116.46766272833297">
        <time>2026-08-08T00:51:52.596000Z</time>
      </trkpt>
      <trkpt lat="39.86108455392134" lon="116.46723223143184">
        <time>2026-08-08T00:52:07.596000Z</time>
      </trkpt>
      <trkpt lat="39.86116246937769" lon="116.46683083456985">
        <time>2026-08-08T00:52:22.596000Z</time>
      </trkpt>
      <trkpt lat="39.861239786346744" lon="116.46657795317132">
        <time>2026-08-08T00:52:31.596000Z</time>
      </trkpt>
      <trkpt lat="39.86127991076297" lon="116.46625182641603">
        <time>2026-08-08T00:52:43.696000Z</time>
      </trkpt>
      <trkpt lat="39.86137100260654" lon="116.46591365485713">
        <time>2026-08-08T00:52:55.696000Z</time>
      </trkpt>
      <trkpt lat="39.86142486587566" lon="116.46586347623823">
        <time>2026-08-08T00:52:58.696000Z</time>
      </trkpt>
      <trkpt lat="39.861665040079124" lon="116.46593368674947">
        <time>2026-08-08T00:53:10.696000Z</time>
      </trkpt>
      <trkpt lat="39.86199303022992" lon="116.4659366559345">
        <time>2026-08-08T00:53:25.796000Z</time>
      </trkpt>
      <trkpt lat="39.86230602658404" lon="116.46594163387708">
        <time>2026-08-08T00:53:41.096000Z</time>
      </trkpt>
      <trkpt lat="39.8626400700181" lon="116.46596467108566">
        <time>2026-08-08T00:53:56.396000Z</time>
      </trkpt>
      <trkpt lat="39.862985131648806" lon="116.46599473100811">
        <time>2026-08-08T00:54:11.596000Z</time>
      </trkpt>
      <trkpt lat="39.86329417385418" lon="116.46601676794467">
        <time>2026-08-08T00:54:26.596000Z</time>
      </trkpt>
      <trkpt lat="39.863568593681975" lon="116.46600272593767">
        <time>2026-08-08T00:54:38.596000Z</time>
      </trkpt>
      <trkpt lat="39.86379131581853" lon="116.46607992242917">
        <time>2026-08-08T00:54:47.596000Z</time>
      </trkpt>
      <trkpt lat="39.86382654179953" lon="116.46616521073054">
        <time>2026-08-08T00:54:50.596000Z</time>
      </trkpt>
      <trkpt lat="39.863762574020285" lon="116.46654954012229">
        <time>2026-08-08T00:55:02.596000Z</time>
      </trkpt>
      <trkpt lat="39.863774246645285" lon="116.46680040328559">
        <time>2026-08-08T00:55:11.596000Z</time>
      </trkpt>
      <trkpt lat="39.86375139821501" lon="116.4672278832718">
        <time>2026-08-08T00:55:26.596000Z</time>
      </trkpt>
      <trkpt lat="39.86371134567753" lon="116.46757810194518">
        <time>2026-08-08T00:55:38.596000Z</time>
      </trkpt>
      <trkpt lat="39.86369626172941" lon="116.46791627872861">
        <time>2026-08-08T00:55:50.596000Z</time>
      </trkpt>
      <trkpt lat="39.86366593023413" lon="116.46816213849091">
        <time>2026-08-08T00:55:59.596000Z</time>
      </trkpt>
      <trkpt lat="39.86367217790781" lon="116.46825345602161">
        <time>2026-08-08T00:56:02.596000Z</time>
      </trkpt>
      <trkpt lat="39.86362914936832" lon="116.46860970516127">
        <time>2026-08-08T00:56:14.596000Z</time>
      </trkpt>
      <trkpt lat="39.86362628296503" lon="116.46902515990597">
        <time>2026-08-08T00:56:29.596000Z</time>
      </trkpt>
      <trkpt lat="39.86360024527325" lon="116.46937639597256">
        <time>2026-08-08T00:56:41.596000Z</time>
      </trkpt>
      <trkpt lat="39.86356835915895" lon="116.46978182662242">
        <time>2026-08-08T00:56:56.596000Z</time>
      </trkpt>
      <trkpt lat="39.86353454821196" lon="116.47021335355183">
        <time>2026-08-08T00:57:11.696000Z</time>
      </trkpt>
      <trkpt lat="39.86351670389023" lon="116.47063183653562">
        <time>2026-08-08T00:57:26.796000Z</time>
      </trkpt>
      <trkpt lat="39.863508406519244" lon="116.47088573789884">
        <time>2026-08-08T00:57:35.796000Z</time>
      </trkpt>
      <trkpt lat="39.86342784999153" lon="116.47104431097056">
        <time>2026-08-08T00:57:41.896000Z</time>
      </trkpt>
      <trkpt lat="39.863427089242705" lon="116.47113061773732">
        <time>2026-08-08T00:57:44.996000Z</time>
      </trkpt>
      <trkpt lat="39.86339926606767" lon="116.47119384597862">
        <time>2026-08-08T00:57:48.096000Z</time>
      </trkpt>
      <trkpt lat="39.863113284314714" lon="116.47119488533737">
        <time>2026-08-08T00:58:03.396000Z</time>
      </trkpt>
      <trkpt lat="39.862771263875246" lon="116.47118087818644">
        <time>2026-08-08T00:58:18.596000Z</time>
      </trkpt>
      <trkpt lat="39.86250129522549" lon="116.47118693338035">
        <time>2026-08-08T00:58:30.596000Z</time>
      </trkpt>
      <trkpt lat="39.8622292877439" lon="116.47117893887668">
        <time>2026-08-08T00:58:42.596000Z</time>
      </trkpt>
      <trkpt lat="39.86188625911059" lon="116.47116192115351">
        <time>2026-08-08T00:58:57.596000Z</time>
      </trkpt>
      <trkpt lat="39.86160525495985" lon="116.47115493134717">
        <time>2026-08-08T00:59:09.596000Z</time>
      </trkpt>
      <trkpt lat="39.86132920882684" lon="116.47113288741606">
        <time>2026-08-08T00:59:21.696000Z</time>
      </trkpt>
      <trkpt lat="39.8609940992015" lon="116.4710867653015">
        <time>2026-08-08T00:59:36.696000Z</time>
      </trkpt>
      <trkpt lat="39.860720019670545" lon="116.47105267837634">
        <time>2026-08-08T00:59:48.696000Z</time>
      </trkpt>
      <trkpt lat="39.86064803196476" lon="116.47105569808025">
        <time>2026-08-08T00:59:51.696000Z</time>
      </trkpt>
      <trkpt lat="39.860517913988375" lon="116.47101055395713">
        <time>2026-08-08T00:59:57.696000Z</time>
      </trkpt>
      <trkpt lat="39.86046878882323" lon="116.47096439618088">
        <time>2026-08-08T01:00:00.796000Z</time>
      </trkpt>
      <trkpt lat="39.86046854989036" lon="116.47087808987156">
        <time>2026-08-08T01:00:03.796000Z</time>
      </trkpt>
      <trkpt lat="39.860524609036325" lon="116.4705388804887">
        <time>2026-08-08T01:00:15.796000Z</time>
      </trkpt>
      <trkpt lat="39.86060663850281" lon="116.47018863146029">
        <time>2026-08-08T01:00:28.096000Z</time>
      </trkpt>
      <trkpt lat="39.860684703618745" lon="116.46985042819739">
        <time>2026-08-08T01:00:40.396000Z</time>
      </trkpt>
      <trkpt lat="39.86074775250421" lon="116.46950520477505">
        <time>2026-08-08T01:00:52.596000Z</time>
      </trkpt>
      <trkpt lat="39.86080673258779" lon="116.469133893139">
        <time>2026-08-08T01:01:04.596000Z</time>
      </trkpt>
      <trkpt lat="39.86085260940603" lon="116.46872344952423">
        <time>2026-08-08T01:01:19.596000Z</time>
      </trkpt>
      <trkpt lat="39.86092645807729" lon="116.46830196801461">
        <time>2026-08-08T01:01:34.596000Z</time>
      </trkpt>
      <trkpt lat="39.860979319683146" lon="116.46788350401083">
        <time>2026-08-08T01:01:49.696000Z</time>
      </trkpt>
      <trkpt lat="39.86106219411516" lon="116.46746905457695">
        <time>2026-08-08T01:02:04.796000Z</time>
      </trkpt>
      <trkpt lat="39.861106068893704" lon="116.46705260749172">
        <time>2026-08-08T01:02:19.796000Z</time>
      </trkpt>
      <trkpt lat="39.86120015198662" lon="116.46671342491608">
        <time>2026-08-08T01:02:31.896000Z</time>
      </trkpt>
      <trkpt lat="39.86124370003469" lon="116.46654584210854">
        <time>2026-08-08T01:02:38.096000Z</time>
      </trkpt>
      <trkpt lat="39.86129583207199" lon="116.4662227244652">
        <time>2026-08-08T01:02:50.196000Z</time>
      </trkpt>
      <trkpt lat="39.86135416682276" lon="116.46597486673501">
        <time>2026-08-08T01:02:59.396000Z</time>
      </trkpt>
      <trkpt lat="39.86139397191317" lon="116.46590261416075">
        <time>2026-08-08T01:03:02.496000Z</time>
      </trkpt>
      <trkpt lat="39.86145092063594" lon="116.46588454514563">
        <time>2026-08-08T01:03:05.596000Z</time>
      </trkpt>
      <trkpt lat="39.8615099896602" lon="116.4659116305521">
        <time>2026-08-08T01:03:08.596000Z</time>
      </trkpt>
      <trkpt lat="39.861853083363634" lon="116.46595373194465">
        <time>2026-08-08T01:03:23.596000Z</time>
      </trkpt>
      <trkpt lat="39.86218003343562" lon="116.46594164967715">
        <time>2026-08-08T01:03:38.596000Z</time>
      </trkpt>
      <trkpt lat="39.86251307958793" lon="116.46596569045029">
        <time>2026-08-08T01:03:53.596000Z</time>
      </trkpt>
      <trkpt lat="39.862827059878555" lon="116.46596464763606">
        <time>2026-08-08T01:04:08.596000Z</time>
      </trkpt>
      <trkpt lat="39.86315216278323" lon="116.46600976166835">
        <time>2026-08-08T01:04:23.596000Z</time>
      </trkpt>
      <trkpt lat="39.863488152661645" lon="116.46601272985512">
        <time>2026-08-08T01:04:38.596000Z</time>
      </trkpt>
      <trkpt lat="39.86361666199706" lon="116.46600506255929">
        <time>2026-08-08T01:04:44.596000Z</time>
      </trkpt>
      <trkpt lat="39.86374625270582" lon="116.46603891196622">
        <time>2026-08-08T01:04:50.596000Z</time>
      </trkpt>
      <trkpt lat="39.863815660409706" lon="116.4662093636969">
        <time>2026-08-08T01:04:56.596000Z</time>
      </trkpt>
      <trkpt lat="39.86376166555186" lon="116.46658365772782">
        <time>2026-08-08T01:05:08.596000Z</time>
      </trkpt>
      <trkpt lat="39.8637548007727" lon="116.46700611595078">
        <time>2026-08-08T01:05:23.596000Z</time>
      </trkpt>
      <trkpt lat="39.86372278948312" lon="116.4673723872383">
        <time>2026-08-08T01:05:35.696000Z</time>
      </trkpt>
      <trkpt lat="39.86369296290313" lon="116.46780589532727">
        <time>2026-08-08T01:05:50.696000Z</time>
      </trkpt>
      <trkpt lat="39.863693210229734" lon="116.46789721279377">
        <time>2026-08-08T01:05:53.696000Z</time>
      </trkpt>
      <trkpt lat="39.86363763764003" lon="116.46805376452771">
        <time>2026-08-08T01:05:59.696000Z</time>
      </trkpt>
      <trkpt lat="39.86366286229474" lon="116.46813705146297">
        <time>2026-08-08T01:06:02.696000Z</time>
      </trkpt>
      <trkpt lat="39.86366186888252" lon="116.46850734338264">
        <time>2026-08-08T01:06:14.696000Z</time>
      </trkpt>
      <trkpt lat="39.86364099437724" lon="116.46891978880019">
        <time>2026-08-08T01:06:29.796000Z</time>
      </trkpt>
      <trkpt lat="39.86360770920935" lon="116.46918070782425">
        <time>2026-08-08T01:06:38.896000Z</time>
      </trkpt>
      <trkpt lat="39.86357868376308" lon="116.4695359596909">
        <time>2026-08-08T01:06:51.196000Z</time>
      </trkpt>
      <trkpt lat="39.863562662835776" lon="116.46989221645084">
        <time>2026-08-08T01:07:03.396000Z</time>
      </trkpt>
      <trkpt lat="39.86352868404298" lon="116.47026252807565">
        <time>2026-08-08T01:07:15.596000Z</time>
      </trkpt>
      <trkpt lat="39.86351398421061" lon="116.47073319612052">
        <time>2026-08-08T01:07:30.596000Z</time>
      </trkpt>
      <trkpt lat="39.86345819052078" lon="116.47116774583571">
        <time>2026-08-08T01:07:45.596000Z</time>
      </trkpt>
      <trkpt lat="39.863430392445075" lon="116.47124000624872">
        <time>2026-08-08T01:07:48.596000Z</time>
      </trkpt>
      <trkpt lat="39.86330852991304" lon="116.47128718928202">
        <time>2026-08-08T01:07:54.596000Z</time>
      </trkpt>
      <trkpt lat="39.86302334764035" lon="116.47121597153215">
        <time>2026-08-08T01:08:06.696000Z</time>
      </trkpt>
      <trkpt lat="39.86275325650214" lon="116.47117786973618">
        <time>2026-08-08T01:08:18.696000Z</time>
      </trkpt>
      <trkpt lat="39.86261622497376" lon="116.4711638369367">
        <time>2026-08-08T01:08:42.796000Z</time>
      </trkpt>
      <trkpt lat="39.86273607378465" lon="116.47111163645249">
        <time>2026-08-08T01:08:48.796000Z</time>
      </trkpt>
      <trkpt lat="39.86308212180765" lon="116.47113567874561">
        <time>2026-08-08T01:09:00.996000Z</time>
      </trkpt>
      <trkpt lat="39.863269267526846" lon="116.47119185511136">
        <time>2026-08-08T01:09:07.196000Z</time>
      </trkpt>
      <trkpt lat="39.86343314734797" lon="116.47115169188908">
        <time>2026-08-08T01:09:13.296000Z</time>
      </trkpt>
      <trkpt lat="39.8635300196961" lon="116.47110752282211">
        <time>2026-08-08T01:09:16.296000Z</time>
      </trkpt>
      <trkpt lat="39.86359483263383" lon="116.4710412793764">
        <time>2026-08-08T01:09:19.396000Z</time>
      </trkpt>
      <trkpt lat="39.86360758731908" lon="116.47095296415273">
        <time>2026-08-08T01:09:22.496000Z</time>
      </trkpt>
      <trkpt lat="39.86358412197112" lon="116.47078436882975">
        <time>2026-08-08T01:09:28.496000Z</time>
      </trkpt>
      <trkpt lat="39.86362603577058" lon="116.47039197368079">
        <time>2026-08-08T01:09:40.596000Z</time>
      </trkpt>
      <trkpt lat="39.86363084957134" lon="116.46996145213927">
        <time>2026-08-08T01:09:55.596000Z</time>
      </trkpt>
      <trkpt lat="39.863648842382396" lon="116.46959515923461">
        <time>2026-08-08T01:10:07.596000Z</time>
      </trkpt>
      <trkpt lat="39.86369587193825" lon="116.46924191165802">
        <time>2026-08-08T01:10:19.596000Z</time>
      </trkpt>
      <trkpt lat="39.86372290229503" lon="116.46888766605596">
        <time>2026-08-08T01:10:31.596000Z</time>
      </trkpt>
      <trkpt lat="39.86374574419252" lon="116.46846317866053">
        <time>2026-08-08T01:10:46.596000Z</time>
      </trkpt>
      <trkpt lat="39.86377476638227" lon="116.46810392208047">
        <time>2026-08-08T01:10:58.596000Z</time>
      </trkpt>
      <trkpt lat="39.86381306241039" lon="116.46784501632106">
        <time>2026-08-08T01:11:07.596000Z</time>
      </trkpt>
      <trkpt lat="39.86381289567038" lon="116.46741351851207">
        <time>2026-08-08T01:11:22.596000Z</time>
      </trkpt>
      <trkpt lat="39.863816416350524" lon="116.46723590290661">
        <time>2026-08-08T01:11:28.596000Z</time>
      </trkpt>
      <trkpt lat="39.86386026357671" lon="116.46680842019701">
        <time>2026-08-08T01:11:43.596000Z</time>
      </trkpt>
      <trkpt lat="39.86390316046056" lon="116.46639800106605">
        <time>2026-08-08T01:11:58.596000Z</time>
      </trkpt>
      <trkpt lat="39.86394246851538" lon="116.46614011007884">
        <time>2026-08-08T01:12:07.596000Z</time>
      </trkpt>
      <trkpt lat="39.86403419555647" lon="116.46603975428772">
        <time>2026-08-08T01:12:13.596000Z</time>
      </trkpt>
      <trkpt lat="39.86430827460027" lon="116.46607484038597">
        <time>2026-08-08T01:12:25.596000Z</time>
      </trkpt>
      <trkpt lat="39.86458524633098" lon="116.46606978843884">
        <time>2026-08-08T01:12:37.596000Z</time>
      </trkpt>
      <trkpt lat="39.86486395516402" lon="116.46606743913043">
        <time>2026-08-08T01:12:49.596000Z</time>
      </trkpt>
      <trkpt lat="39.865144521813015" lon="116.46608408179195">
        <time>2026-08-08T01:13:01.696000Z</time>
      </trkpt>
      <trkpt lat="39.86541735994369" lon="116.4661288872302">
        <time>2026-08-08T01:13:13.796000Z</time>
      </trkpt>
      <trkpt lat="39.865741915924126" lon="116.46615940474463">
        <time>2026-08-08T01:13:28.996000Z</time>
      </trkpt>
      <trkpt lat="39.86606449172742" lon="116.46619101965301">
        <time>2026-08-08T01:13:44.396000Z</time>
      </trkpt>
      <trkpt lat="39.866244447267114" lon="116.46621889506302">
        <time>2026-08-08T01:13:50.496000Z</time>
      </trkpt>
      <trkpt lat="39.8663705183859" lon="116.46620703640818">
        <time>2026-08-08T01:13:56.496000Z</time>
      </trkpt>
      <trkpt lat="39.8663705183859" lon="116.46620703640818">
        <time>2026-08-08T01:13:59.196000Z</time>
      </trkpt>
    </trkseg>
  </trk>
</gpx>