<?xml version="1.0" encoding="UTF-8"?>
<gpx xmlns="http://www.topografix.com/GPX/1/1" xmlns:gpxtpx="http://www.garmin.com/xmlschemas/TrackPointExtension/v1" xmlns:xsi="http://www.w3.org/2001/XMLSchema-instance" xsi:schemaLocation="http://www.topografix.com/GPX/1/1 http://www.topografix.com/GPX/1/1/gpx.xsd" version="1.1" creator="gpx.py -- https://github.com/tkrajina/gpxpy">
  <trk>
    <name>gpx from keep</name>
    <type>Run</type>
    <trkseg>
      <trkpt lat="39.86783959395089" lon="116.46700961770344">
        <time>2026-07-12T09:34:27.430000Z</time>
      </trkpt>
      <trkpt lat="39.86780274713814" lon="116.4670658165458">
        <time>2026-07-12T09:34:27.430000Z</time>
      </trkpt>
      <trkpt lat="39.86765776558291" lon="116.46706984859962">
        <time>2026-07-12T09:34:27.430000Z</time>
      </trkpt>
      <trkpt lat="39.86758472621199" lon="116.46705380225518">
        <time>2026-07-12T09:34:27.430000Z</time>
      </trkpt>
      <trkpt lat="39.86754460139632" lon="116.46700664428771">
        <time>2026-07-12T09:34:27.430000Z</time>
      </trkpt>
      <trkpt lat="39.86753129711627" lon="116.46689325430384">
        <time>2026-07-12T09:34:27.430000Z</time>
      </trkpt>
      <trkpt lat="39.8675366635787" lon="116.46680826128161">
        <time>2026-07-12T09:34:27.430000Z</time>
      </trkpt>
      <trkpt lat="39.86756261114228" lon="116.46672462078718">
        <time>2026-07-12T09:34:27.430000Z</time>
      </trkpt>
      <trkpt lat="39.86758362212902" lon="116.46661780145993">
        <time>2026-07-12T09:34:27.430000Z</time>
      </trkpt>
      <trkpt lat="39.867598086928474" lon="116.46650956149784">
        <time>2026-07-12T09:34:27.430000Z</time>
      </trkpt>
      <trkpt lat="39.8676017565367" lon="116.46632027158485">
        <time>2026-07-12T09:34:27.430000Z</time>
      </trkpt>
      <trkpt lat="39.86758056437066" lon="116.46624802596538">
        <time>2026-07-12T09:34:27.430000Z</time>
      </trkpt>
      <trkpt lat="39.867496442698126" lon="116.46620087452143">
        <time>2026-07-12T09:34:27.430000Z</time>
      </trkpt>
      <trkpt lat="39.86718053181949" lon="116.46622800719565">
        <time>2026-07-12T09:34:27.430000Z</time>
      </trkpt>
      <trkpt lat="39.867046622091216" lon="116.46625913085273">
        <time>2026-07-12T09:34:27.430000Z</time>
      </trkpt>
      <trkpt lat="39.86674966465187" lon="116.46626920257256">
        <time>2026-07-12T09:34:27.430000Z</time>
      </trkpt>
      <trkpt lat="39.8666806951495" lon="116.46627924570203">
        <time>2026-07-12T09:34:27.430000Z</time>
      </trkpt>
      <trkpt lat="39.866633907078736" lon="116.4663575206046">
        <time>2026-07-12T09:34:27.430000Z</time>
      </trkpt>
      <trkpt lat="39.86666063978402" lon="116.46663146015779">
        <time>2026-07-12T09:34:27.430000Z</time>
      </trkpt>
      <trkpt lat="39.86660838909257" lon="116.46690942545585">
        <time>2026-07-12T09:34:27.430000Z</time>
      </trkpt>
      <trkpt lat="39.86659836503264" lon="116.46727167922667">
        <time>2026-07-12T09:34:27.430000Z</time>
      </trkpt>
      <trkpt lat="39.86657204354952" lon="116.46752255190553">
        <time>2026-07-12T09:34:27.430000Z</time>
      </trkpt>
      <trkpt lat="39.86660198942871" lon="116.46787276449365">
        <time>2026-07-12T09:34:27.430000Z</time>
      </trkpt>
      <trkpt lat="39.86655814079593" lon="116.46829624488201">
        <time>2026-07-12T09:34:27.430000Z</time>
      </trkpt>
      <trkpt lat="39.866550318537925" lon="116.46872875680647">
        <time>2026-07-12T09:34:27.430000Z</time>
      </trkpt>
      <trkpt lat="39.866580432162124" lon="116.4691371840375">
        <time>2026-07-12T09:34:27.430000Z</time>
      </trkpt>
      <trkpt lat="39.866590857196265" lon="116.46929272876613">
        <time>2026-07-12T09:34:27.430000Z</time>
      </trkpt>
      <trkpt lat="39.8665711495626" lon="116.46939910498475">
        <time>2026-07-12T09:34:27.430000Z</time>
      </trkpt>
      <trkpt lat="39.86657793632408" lon="116.46968611389352">
        <time>2026-07-12T09:34:27.430000Z</time>
      </trkpt>
      <trkpt lat="39.86650837554397" lon="116.46984468127538">
        <time>2026-07-12T09:34:27.430000Z</time>
      </trkpt>
      <trkpt lat="39.86648353418108" lon="116.47026516875371">
        <time>2026-07-12T09:34:27.430000Z</time>
      </trkpt>
      <trkpt lat="39.8665010425405" lon="116.47044981969378">
        <time>2026-07-12T09:34:27.430000Z</time>
      </trkpt>
      <trkpt lat="39.866468017592496" lon="116.4708020718961">
        <time>2026-07-12T09:34:27.430000Z</time>
      </trkpt>
      <trkpt lat="39.86646165139477" lon="116.4710308848964">
        <time>2026-07-12T09:34:27.430000Z</time>
      </trkpt>
      <trkpt lat="39.86639702200906" lon="116.47116336374074">
        <time>2026-07-12T09:34:27.430000Z</time>
      </trkpt>
      <trkpt lat="39.866147929508124" lon="116.47112525935948">
        <time>2026-07-12T09:34:27.430000Z</time>
      </trkpt>
      <trkpt lat="39.86615438012435" lon="116.47128783668663">
        <time>2026-07-12T09:34:27.430000Z</time>
      </trkpt>
      <trkpt lat="39.86620262830003" lon="116.47137815208484">
        <time>2026-07-12T09:34:27.430000Z</time>
      </trkpt>
      <trkpt lat="39.86626670850735" lon="116.4714082512502">
        <time>2026-07-12T09:34:27.430000Z</time>
      </trkpt>
      <trkpt lat="39.866471664175094" lon="116.4713961827222">
        <time>2026-07-12T09:34:27.430000Z</time>
      </trkpt>
      <trkpt lat="39.866522817569916" lon="116.47145237643831">
        <time>2026-07-12T09:34:27.430000Z</time>
      </trkpt>
      <trkpt lat="39.86652382243484" lon="116.47181366442257">
        <time>2026-07-12T09:34:27.430000Z</time>
      </trkpt>
      <trkpt lat="39.86653397201562" lon="116.47222613716154">
        <time>2026-07-12T09:34:27.430000Z</time>
      </trkpt>
      <trkpt lat="39.866505741915596" lon="116.47250112535697">
        <time>2026-07-12T09:34:27.430000Z</time>
      </trkpt>
      <trkpt lat="39.86650975045198" lon="116.47286141735164">
        <time>2026-07-12T09:34:27.430000Z</time>
      </trkpt>
      <trkpt lat="39.86651725385003" lon="116.47304106185301">
        <time>2026-07-12T09:34:27.430000Z</time>
      </trkpt>
      <trkpt lat="39.866487374729275" lon="116.47343949941543">
        <time>2026-07-12T09:34:27.430000Z</time>
      </trkpt>
      <trkpt lat="39.86647141262761" lon="116.47380782968699">
        <time>2026-07-12T09:34:27.430000Z</time>
      </trkpt>
      <trkpt lat="39.866496320183266" lon="116.4741299905269">
        <time>2026-07-12T09:34:27.430000Z</time>
      </trkpt>
      <trkpt lat="39.866527772159955" lon="116.47429056750275">
        <time>2026-07-12T09:34:27.430000Z</time>
      </trkpt>
      <trkpt lat="39.86647082864603" lon="116.4746629234753">
        <time>2026-07-12T09:34:27.430000Z</time>
      </trkpt>
      <trkpt lat="39.86647101245122" lon="116.4750804389777">
        <time>2026-07-12T09:34:27.430000Z</time>
      </trkpt>
      <trkpt lat="39.86646818480547" lon="116.47549293975271">
        <time>2026-07-12T09:34:27.430000Z</time>
      </trkpt>
      <trkpt lat="39.866435960826436" lon="116.47576493476528">
        <time>2026-07-12T09:34:27.430000Z</time>
      </trkpt>
      <trkpt lat="39.866403231400206" lon="116.4758592828942">
        <time>2026-07-12T09:34:27.430000Z</time>
      </trkpt>
      <trkpt lat="39.866396495000345" lon="116.4759516206056">
        <time>2026-07-12T09:34:27.430000Z</time>
      </trkpt>
      <trkpt lat="39.866415754481125" lon="116.476042951553">
        <time>2026-07-12T09:34:27.430000Z</time>
      </trkpt>
      <trkpt lat="39.86645597286645" lon="116.47612022870949">
        <time>2026-07-12T09:34:27.430000Z</time>
      </trkpt>
      <trkpt lat="39.8664760154295" lon="116.47648556152721">
        <time>2026-07-12T09:34:27.430000Z</time>
      </trkpt>
      <trkpt lat="39.86646203294549" lon="116.47684086405539">
        <time>2026-07-12T09:34:27.430000Z</time>
      </trkpt>
      <trkpt lat="39.86644727979476" lon="116.47727545977585">
        <time>2026-07-12T09:34:27.430000Z</time>
      </trkpt>
      <trkpt lat="39.86645880370254" lon="116.47745812918541">
        <time>2026-07-12T09:34:27.430000Z</time>
      </trkpt>
      <trkpt lat="39.86644302822821" lon="116.4778836960396">
        <time>2026-07-12T09:34:27.430000Z</time>
      </trkpt>
      <trkpt lat="39.866428531861736" lon="116.47805834085007">
        <time>2026-07-12T09:34:27.430000Z</time>
      </trkpt>
      <trkpt lat="39.866443797093076" lon="116.47815067910948">
        <time>2026-07-12T09:34:27.430000Z</time>
      </trkpt>
      <trkpt lat="39.866414052270194" lon="116.47858528552433">
        <time>2026-07-12T09:34:27.430000Z</time>
      </trkpt>
      <trkpt lat="39.86640930848856" lon="116.47901989157802">
        <time>2026-07-12T09:34:27.430000Z</time>
      </trkpt>
      <trkpt lat="39.86639933173575" lon="116.47937319993046">
        <time>2026-07-12T09:34:27.430000Z</time>
      </trkpt>
      <trkpt lat="39.866398776764434" lon="116.47952676868564">
        <time>2026-07-12T09:34:27.430000Z</time>
      </trkpt>
      <trkpt lat="39.866421357682356" lon="116.47972750973399">
        <time>2026-07-12T09:34:27.430000Z</time>
      </trkpt>
      <trkpt lat="39.86641338085144" lon="116.48007981751535">
        <time>2026-07-12T09:34:27.430000Z</time>
      </trkpt>
      <trkpt lat="39.86633038313792" lon="116.48042310270372">
        <time>2026-07-12T09:34:27.430000Z</time>
      </trkpt>
      <trkpt lat="39.86631963727403" lon="116.48085370529517">
        <time>2026-07-12T09:34:27.430000Z</time>
      </trkpt>
      <trkpt lat="39.8663379006459" lon="116.48128731776566">
        <time>2026-07-12T09:34:27.430000Z</time>
      </trkpt>
      <trkpt lat="39.86633170391246" lon="116.48156234386292">
        <time>2026-07-12T09:34:27.430000Z</time>
      </trkpt>
      <trkpt lat="39.86630996604211" lon="116.48165167980409">
        <time>2026-07-12T09:34:27.430000Z</time>
      </trkpt>
      <trkpt lat="39.86626915299498" lon="116.48171492082875">
        <time>2026-07-12T09:34:27.430000Z</time>
      </trkpt>
      <trkpt lat="39.86620627661573" lon="116.4817560822359">
        <time>2026-07-12T09:34:27.430000Z</time>
      </trkpt>
      <trkpt lat="39.86592905963147" lon="116.48167682089402">
        <time>2026-07-12T09:34:27.430000Z</time>
      </trkpt>
      <trkpt lat="39.86565093661795" lon="116.48162967955376">
        <time>2026-07-12T09:34:27.430000Z</time>
      </trkpt>
      <trkpt lat="39.865371834227545" lon="116.48158956456922">
        <time>2026-07-12T09:34:27.430000Z</time>
      </trkpt>
      <trkpt lat="39.8650947376335" lon="116.48155145684093">
        <time>2026-07-12T09:34:27.430000Z</time>
      </trkpt>
      <trkpt lat="39.86475959142786" lon="116.48149528899211">
        <time>2026-07-12T09:34:27.430000Z</time>
      </trkpt>
      <trkpt lat="39.86455451743248" lon="116.481466206013">
        <time>2026-07-12T09:34:27.430000Z</time>
      </trkpt>
      <trkpt lat="39.86440834652051" lon="116.48140499596207">
        <time>2026-07-12T09:34:27.430000Z</time>
      </trkpt>
      <trkpt lat="39.86406622721322" lon="116.48135786275151">
        <time>2026-07-12T09:34:27.430000Z</time>
      </trkpt>
      <trkpt lat="39.86373709261877" lon="116.48130570924712">
        <time>2026-07-12T09:34:27.430000Z</time>
      </trkpt>
      <trkpt lat="39.863410931568225" lon="116.48124452174707">
        <time>2026-07-12T09:34:27.430000Z</time>
      </trkpt>
      <trkpt lat="39.863090817110724" lon="116.4811993933654">
        <time>2026-07-12T09:34:27.430000Z</time>
      </trkpt>
      <trkpt lat="39.86276357428875" lon="116.48111010140792">
        <time>2026-07-12T09:34:27.430000Z</time>
      </trkpt>
      <trkpt lat="39.862555500700765" lon="116.48108101894023">
        <time>2026-07-12T09:34:27.430000Z</time>
      </trkpt>
      <trkpt lat="39.862244438590885" lon="116.48105395679376">
        <time>2026-07-12T09:34:27.430000Z</time>
      </trkpt>
      <trkpt lat="39.86192233615469" lon="116.4810128437146">
        <time>2026-07-12T09:34:27.430000Z</time>
      </trkpt>
      <trkpt lat="39.8616011898333" lon="116.48095667449309">
        <time>2026-07-12T09:34:27.430000Z</time>
      </trkpt>
      <trkpt lat="39.861271026522644" lon="116.48089448402237">
        <time>2026-07-12T09:34:27.430000Z</time>
      </trkpt>
      <trkpt lat="39.86099383406713" lon="116.48082325338706">
        <time>2026-07-12T09:34:27.430000Z</time>
      </trkpt>
      <trkpt lat="39.86067167047059" lon="116.48076106202436">
        <time>2026-07-12T09:34:27.430000Z</time>
      </trkpt>
      <trkpt lat="39.86040356243247" lon="116.48071893863525">
        <time>2026-07-12T09:34:27.430000Z</time>
      </trkpt>
      <trkpt lat="39.86017781457683" lon="116.48080127293684">
        <time>2026-07-12T09:34:27.430000Z</time>
      </trkpt>
      <trkpt lat="39.85990062521363" lon="116.4807310461202">
        <time>2026-07-12T09:34:27.430000Z</time>
      </trkpt>
      <trkpt lat="39.859698504843024" lon="116.4806859033249">
        <time>2026-07-12T09:34:27.430000Z</time>
      </trkpt>
      <trkpt lat="39.85964137357137" lon="116.48063973875202">
        <time>2026-07-12T09:34:27.430000Z</time>
      </trkpt>
      <trkpt lat="39.85960215369154" lon="116.4805634600312">
        <time>2026-07-12T09:34:27.430000Z</time>
      </trkpt>
      <trkpt lat="39.85957294978003" lon="116.48014892377">
        <time>2026-07-12T09:34:27.430000Z</time>
      </trkpt>
      <trkpt lat="39.85949670091176" lon="116.47971733236429">
        <time>2026-07-12T09:34:27.430000Z</time>
      </trkpt>
      <trkpt lat="39.85941552424703" lon="116.47930983322642">
        <time>2026-07-12T09:34:27.430000Z</time>
      </trkpt>
      <trkpt lat="39.85936051354972" lon="116.47895954455662">
        <time>2026-07-12T09:34:27.530000Z</time>
      </trkpt>
      <trkpt lat="39.859310820041465" lon="116.47871866085653">
        <time>2026-07-12T09:34:27.530000Z</time>
      </trkpt>
      <trkpt lat="39.859301316230656" lon="116.47854401739018">
        <time>2026-07-12T09:34:27.530000Z</time>
      </trkpt>
      <trkpt lat="39.859226121969876" lon="116.478128494752">
        <time>2026-07-12T09:34:27.530000Z</time>
      </trkpt>
      <trkpt lat="39.859213972634194" lon="116.47772902591147">
        <time>2026-07-12T09:34:27.530000Z</time>
      </trkpt>
      <trkpt lat="39.859226861481616" lon="116.47734260432394">
        <time>2026-07-12T09:34:27.530000Z</time>
      </trkpt>
      <trkpt lat="39.85929363144663" lon="116.47691502755717">
        <time>2026-07-12T09:34:27.530000Z</time>
      </trkpt>
      <trkpt lat="39.859359602038474" lon="116.47655670722352">
        <time>2026-07-12T09:34:27.530000Z</time>
      </trkpt>
      <trkpt lat="39.859435456422915" lon="116.47615723749074">
        <time>2026-07-12T09:34:27.530000Z</time>
      </trkpt>
      <trkpt lat="39.8595334205519" lon="116.47579590676229">
        <time>2026-07-12T09:34:27.530000Z</time>
      </trkpt>
      <trkpt lat="39.85962048997513" lon="116.47547071118743">
        <time>2026-07-12T09:34:27.530000Z</time>
      </trkpt>
      <trkpt lat="39.859652720784" lon="116.47520072499422">
        <time>2026-07-12T09:34:27.530000Z</time>
      </trkpt>
      <trkpt lat="39.85974554244624" lon="116.4747872116686">
        <time>2026-07-12T09:34:27.530000Z</time>
      </trkpt>
      <trkpt lat="39.85978180995089" lon="116.47452927197276">
        <time>2026-07-12T09:34:27.530000Z</time>
      </trkpt>
      <trkpt lat="39.85980659560052" lon="116.47445399620166">
        <time>2026-07-12T09:34:27.530000Z</time>
      </trkpt>
      <trkpt lat="39.85986260544626" lon="116.47410472539553">
        <time>2026-07-12T09:34:27.530000Z</time>
      </trkpt>
      <trkpt lat="39.859911843910126" lon="116.47383574755462">
        <time>2026-07-12T09:34:27.530000Z</time>
      </trkpt>
      <trkpt lat="39.86003470111614" lon="116.47343227730549">
        <time>2026-07-12T09:34:27.530000Z</time>
      </trkpt>
      <trkpt lat="39.86009200692656" lon="116.47318638503083">
        <time>2026-07-12T09:34:27.530000Z</time>
      </trkpt>
      <trkpt lat="39.86011358315623" lon="116.47303584102654">
        <time>2026-07-12T09:34:27.530000Z</time>
      </trkpt>
      <trkpt lat="39.860193251084766" lon="116.47261773150352">
        <time>2026-07-12T09:34:27.530000Z</time>
      </trkpt>
      <trkpt lat="39.8602376626485" lon="116.47235237378793">
        <time>2026-07-12T09:34:27.530000Z</time>
      </trkpt>
      <trkpt lat="39.86034905682445" lon="116.47213759141574">
        <time>2026-07-12T09:34:27.530000Z</time>
      </trkpt>
      <trkpt lat="39.860454113901305" lon="116.4718013773002">
        <time>2026-07-12T09:34:27.530000Z</time>
      </trkpt>
      <trkpt lat="39.86052416934057" lon="116.47146316283536">
        <time>2026-07-12T09:34:27.530000Z</time>
      </trkpt>
      <trkpt lat="39.860622887958215" lon="116.47136379675764">
        <time>2026-07-12T09:34:27.530000Z</time>
      </trkpt>
      <trkpt lat="39.86065771331381" lon="116.4713015709845">
        <time>2026-07-12T09:34:27.530000Z</time>
      </trkpt>
      <trkpt lat="39.86080568291082" lon="116.4712935239054">
        <time>2026-07-12T09:34:27.530000Z</time>
      </trkpt>
      <trkpt lat="39.86082744503378" lon="116.47120821778103">
        <time>2026-07-12T09:34:27.530000Z</time>
      </trkpt>
      <trkpt lat="39.86078812162033" lon="116.47109080534128">
        <time>2026-07-12T09:34:27.530000Z</time>
      </trkpt>
      <trkpt lat="39.860651892729564" lon="116.47100551937032">
        <time>2026-07-12T09:34:27.530000Z</time>
      </trkpt>
      <trkpt lat="39.860507772784906" lon="116.47095937348722">
        <time>2026-07-12T09:34:27.530000Z</time>
      </trkpt>
      <trkpt lat="39.86046358071866" lon="116.4708891296671">
        <time>2026-07-12T09:34:27.530000Z</time>
      </trkpt>
      <trkpt lat="39.86053501050152" lon="116.4706843946779">
        <time>2026-07-12T09:34:27.530000Z</time>
      </trkpt>
      <trkpt lat="39.86060406186114" lon="116.47034217450492">
        <time>2026-07-12T09:34:27.530000Z</time>
      </trkpt>
      <trkpt lat="39.86067887222284" lon="116.46991164476304">
        <time>2026-07-12T09:34:27.530000Z</time>
      </trkpt>
      <trkpt lat="39.86070987566512" lon="116.46954936483597">
        <time>2026-07-12T09:34:27.530000Z</time>
      </trkpt>
      <trkpt lat="39.86075973790981" lon="116.46913490254514">
        <time>2026-07-12T09:34:27.530000Z</time>
      </trkpt>
      <trkpt lat="39.86080367775673" lon="116.46874753991409">
        <time>2026-07-12T09:34:27.530000Z</time>
      </trkpt>
      <trkpt lat="39.8608352111357" lon="116.46857693942317">
        <time>2026-07-12T09:34:27.530000Z</time>
      </trkpt>
      <trkpt lat="39.86090274585919" lon="116.46840733863932">
        <time>2026-07-12T09:34:27.530000Z</time>
      </trkpt>
      <trkpt lat="39.860951797280066" lon="116.46805911853612">
        <time>2026-07-12T09:34:27.530000Z</time>
      </trkpt>
      <trkpt lat="39.86103665380622" lon="116.46763864610989">
        <time>2026-07-12T09:34:27.530000Z</time>
      </trkpt>
      <trkpt lat="39.86106569023019" lon="116.46728240747694">
        <time>2026-07-12T09:34:27.530000Z</time>
      </trkpt>
      <trkpt lat="39.861147569974285" lon="116.46686796456757">
        <time>2026-07-12T09:34:27.530000Z</time>
      </trkpt>
      <trkpt lat="39.861240651781166" lon="116.46652778030587">
        <time>2026-07-12T09:34:27.530000Z</time>
      </trkpt>
      <trkpt lat="39.8613075149767" lon="116.46610431652286">
        <time>2026-07-12T09:34:27.530000Z</time>
      </trkpt>
      <trkpt lat="39.86134706815256" lon="116.46593774037757">
        <time>2026-07-12T09:34:27.530000Z</time>
      </trkpt>
      <trkpt lat="39.86139391839941" lon="116.46588254541955">
        <time>2026-07-12T09:34:27.530000Z</time>
      </trkpt>
      <trkpt lat="39.8616620241836" lon="116.46592766649698">
        <time>2026-07-12T09:34:27.530000Z</time>
      </trkpt>
      <trkpt lat="39.86199203028438" lon="116.4659366560599">
        <time>2026-07-12T09:34:27.530000Z</time>
      </trkpt>
      <trkpt lat="39.86231308777536" lon="116.46596471209064">
        <time>2026-07-12T09:34:27.530000Z</time>
      </trkpt>
      <trkpt lat="39.862586113110034" lon="116.46597972944642">
        <time>2026-07-12T09:34:27.530000Z</time>
      </trkpt>
      <trkpt lat="39.86292209757118" lon="116.46598069075212">
        <time>2026-07-12T09:34:27.530000Z</time>
      </trkpt>
      <trkpt lat="39.863246251453965" lon="116.46604487030923">
        <time>2026-07-12T09:34:27.530000Z</time>
      </trkpt>
      <trkpt lat="39.86353626526069" lon="116.46605587179958">
        <time>2026-07-12T09:34:27.530000Z</time>
      </trkpt>
      <trkpt lat="39.863751317974376" lon="116.46607992744514">
        <time>2026-07-12T09:34:27.530000Z</time>
      </trkpt>
      <trkpt lat="39.86380845964645" lon="116.46613410621914">
        <time>2026-07-12T09:34:27.530000Z</time>
      </trkpt>
      <trkpt lat="39.863822729790236" lon="116.46623545241789">
        <time>2026-07-12T09:34:27.530000Z</time>
      </trkpt>
      <trkpt lat="39.86378043588099" lon="116.46649836170305">
        <time>2026-07-12T09:34:27.530000Z</time>
      </trkpt>
      <trkpt lat="39.863780400005524" lon="116.46685759988088">
        <time>2026-07-12T09:34:27.530000Z</time>
      </trkpt>
      <trkpt lat="39.863759365328335" lon="116.46721584059905">
        <time>2026-07-12T09:34:27.530000Z</time>
      </trkpt>
      <trkpt lat="39.8637025143569" lon="116.46764031898648">
        <time>2026-07-12T09:34:27.530000Z</time>
      </trkpt>
      <trkpt lat="39.863689539575724" lon="116.46801863574629">
        <time>2026-07-12T09:34:27.530000Z</time>
      </trkpt>
      <trkpt lat="39.86366552194763" lon="116.4683798979397">
        <time>2026-07-12T09:34:27.530000Z</time>
      </trkpt>
      <trkpt lat="39.86364124440411" lon="116.46864482643842">
        <time>2026-07-12T09:34:27.530000Z</time>
      </trkpt>
      <trkpt lat="39.863652706172964" lon="116.46881441833912">
        <time>2026-07-12T09:34:27.530000Z</time>
      </trkpt>
      <trkpt lat="39.863636931585354" lon="116.46889670845883">
        <time>2026-07-12T09:34:27.530000Z</time>
      </trkpt>
      <trkpt lat="39.863628128331946" lon="116.4693342443879">
        <time>2026-07-12T09:34:27.530000Z</time>
      </trkpt>
      <trkpt lat="39.86358712664072" lon="116.46969752732176">
        <time>2026-07-12T09:34:27.530000Z</time>
      </trkpt>
      <trkpt lat="39.86354729044963" lon="116.47012002226377">
        <time>2026-07-12T09:34:27.530000Z</time>
      </trkpt>
      <trkpt lat="39.86353320138721" lon="116.47045019125692">
        <time>2026-07-12T09:34:27.530000Z</time>
      </trkpt>
      <trkpt lat="39.86354544452685" lon="116.47053850235345">
        <time>2026-07-12T09:34:27.530000Z</time>
      </trkpt>
      <trkpt lat="39.863518897931094" lon="116.47070208521767">
        <time>2026-07-12T09:34:27.530000Z</time>
      </trkpt>
      <trkpt lat="39.86351737548051" lon="116.47087469760163">
        <time>2026-07-12T09:34:27.530000Z</time>
      </trkpt>
      <trkpt lat="39.86345505156393" lon="116.47111756786983">
        <time>2026-07-12T09:34:27.530000Z</time>
      </trkpt>
      <trkpt lat="39.863401196382455" lon="116.47116875653636">
        <time>2026-07-12T09:34:27.530000Z</time>
      </trkpt>
      <trkpt lat="39.86333228082139" lon="116.47119786863522">
        <time>2026-07-12T09:34:27.530000Z</time>
      </trkpt>
      <trkpt lat="39.863019222608074" lon="116.47117081147603">
        <time>2026-07-12T09:34:27.530000Z</time>
      </trkpt>
      <trkpt lat="39.86269026270214" lon="116.4711788811876">
        <time>2026-07-12T09:34:27.530000Z</time>
      </trkpt>
      <trkpt lat="39.86235932798978" lon="116.47119598326064">
        <time>2026-07-12T09:34:27.530000Z</time>
      </trkpt>
      <trkpt lat="39.862035315000846" lon="116.47118498455903">
        <time>2026-07-12T09:34:27.530000Z</time>
      </trkpt>
      <trkpt lat="39.86174825550425" lon="116.47115792415384">
        <time>2026-07-12T09:34:27.530000Z</time>
      </trkpt>
      <trkpt lat="39.861449090994356" lon="116.47109272975752">
        <time>2026-07-12T09:34:27.530000Z</time>
      </trkpt>
      <trkpt lat="39.86117301152901" lon="116.47105864307788">
        <time>2026-07-12T09:34:27.530000Z</time>
      </trkpt>
      <trkpt lat="39.860842843333714" lon="116.47099144558015">
        <time>2026-07-12T09:34:27.530000Z</time>
      </trkpt>
      <trkpt lat="39.860629757747084" lon="116.47095634753248">
        <time>2026-07-12T09:34:27.530000Z</time>
      </trkpt>
      <trkpt lat="39.860482815845664" lon="116.47097443005707">
        <time>2026-07-12T09:34:27.530000Z</time>
      </trkpt>
      <trkpt lat="39.86045268133227" lon="116.47092525925483">
        <time>2026-07-12T09:34:27.530000Z</time>
      </trkpt>
      <trkpt lat="39.86055754626285" lon="116.47051679819545">
        <time>2026-07-12T09:34:27.530000Z</time>
      </trkpt>
      <trkpt lat="39.860644415317054" lon="116.47010834317057">
        <time>2026-07-12T09:34:27.530000Z</time>
      </trkpt>
      <trkpt lat="39.86068223239294" lon="116.46967882392649">
        <time>2026-07-12T09:34:27.530000Z</time>
      </trkpt>
      <trkpt lat="39.860742271604444" lon="116.46932958817688">
        <time>2026-07-12T09:34:27.530000Z</time>
      </trkpt>
      <trkpt lat="39.86079411088155" lon="116.46890609618126">
        <time>2026-07-12T09:34:27.530000Z</time>
      </trkpt>
      <trkpt lat="39.86086696624446" lon="116.46848762342317">
        <time>2026-07-12T09:34:27.530000Z</time>
      </trkpt>
      <trkpt lat="39.86095003702147" lon="116.46814742633329">
        <time>2026-07-12T09:34:27.630000Z</time>
      </trkpt>
      <trkpt lat="39.861014893873765" lon="116.4677269554773">
        <time>2026-07-12T09:34:27.630000Z</time>
      </trkpt>
      <trkpt lat="39.86102865967125" lon="116.46764065407858">
        <time>2026-07-12T09:34:27.630000Z</time>
      </trkpt>
      <trkpt lat="39.86109629099567" lon="116.46713489320545">
        <time>2026-07-12T09:34:27.630000Z</time>
      </trkpt>
      <trkpt lat="39.861191168641646" lon="116.46671944679906">
        <time>2026-07-12T09:34:27.630000Z</time>
      </trkpt>
      <trkpt lat="39.86126724441368" lon="116.46637625565126">
        <time>2026-07-12T09:34:27.630000Z</time>
      </trkpt>
      <trkpt lat="39.86132131324505" lon="116.46602905663427">
        <time>2026-07-12T09:34:27.630000Z</time>
      </trkpt>
      <trkpt lat="39.861343108524096" lon="116.46595279245649">
        <time>2026-07-12T09:34:27.630000Z</time>
      </trkpt>
      <trkpt lat="39.861392955912756" lon="116.46589659366265">
        <time>2026-07-12T09:34:27.630000Z</time>
      </trkpt>
      <trkpt lat="39.86146394400626" lon="116.4658935744482">
        <time>2026-07-12T09:34:27.630000Z</time>
      </trkpt>
      <trkpt lat="39.86178805210719" lon="116.46594069539394">
        <time>2026-07-12T09:34:27.630000Z</time>
      </trkpt>
      <trkpt lat="39.86206501025022" lon="116.46593062627669">
        <time>2026-07-12T09:34:27.630000Z</time>
      </trkpt>
      <trkpt lat="39.862403023989636" lon="116.46594262515194">
        <time>2026-07-12T09:34:27.630000Z</time>
      </trkpt>
      <trkpt lat="39.86273809950961" lon="116.46597770350702">
        <time>2026-07-12T09:34:27.630000Z</time>
      </trkpt>
      <trkpt lat="39.86307112967166" lon="116.46599572366372">
        <time>2026-07-12T09:34:27.630000Z</time>
      </trkpt>
      <trkpt lat="39.86336021850351" lon="116.46603482160226">
        <time>2026-07-12T09:34:27.630000Z</time>
      </trkpt>
      <trkpt lat="39.86363538358911" lon="116.46606059262184">
        <time>2026-07-12T09:34:27.630000Z</time>
      </trkpt>
      <trkpt lat="39.86371629038418" lon="116.46606889397088">
        <time>2026-07-12T09:34:27.630000Z</time>
      </trkpt>
      <trkpt lat="39.863790388236346" lon="116.46610701550556">
        <time>2026-07-12T09:34:27.630000Z</time>
      </trkpt>
      <trkpt lat="39.86382861678886" lon="116.4661933069382">
        <time>2026-07-12T09:34:27.630000Z</time>
      </trkpt>
      <trkpt lat="39.8637793257029" lon="116.46645722025801">
        <time>2026-07-12T09:34:27.630000Z</time>
      </trkpt>
      <trkpt lat="39.86376148464141" lon="116.46688870962802">
        <time>2026-07-12T09:34:27.630000Z</time>
      </trkpt>
      <trkpt lat="39.8637304588567" lon="116.4672499623087">
        <time>2026-07-12T09:34:27.630000Z</time>
      </trkpt>
      <trkpt lat="39.86370661998219" lon="116.4676794543522">
        <time>2026-07-12T09:34:27.630000Z</time>
      </trkpt>
      <trkpt lat="39.863681599881716" lon="116.46804071359783">
        <time>2026-07-12T09:34:27.630000Z</time>
      </trkpt>
      <trkpt lat="39.86366556833971" lon="116.46839695747558">
        <time>2026-07-12T09:34:27.630000Z</time>
      </trkpt>
      <trkpt lat="39.86362628075906" lon="116.46865787392936">
        <time>2026-07-12T09:34:27.630000Z</time>
      </trkpt>
      <trkpt lat="39.8636214038934" lon="116.46906931533559">
        <time>2026-07-12T09:34:50.330000Z</time>
      </trkpt>
      <trkpt lat="39.86359858362833" lon="116.46949983012293">
        <time>2026-07-12T09:34:50.430000Z</time>
      </trkpt>
      <trkpt lat="39.86356871493307" lon="116.46991128293261">
        <time>2026-07-12T09:34:50.630000Z</time>
      </trkpt>
      <trkpt lat="39.86353290239428" lon="116.47034180785573">
        <time>2026-07-12T09:34:50.730000Z</time>
      </trkpt>
      <trkpt lat="39.8635200310609" lon="116.47075025585325">
        <time>2026-07-12T09:34:50.930000Z</time>
      </trkpt>
      <trkpt lat="39.863517442144165" lon="116.47089878306866">
        <time>2026-07-12T09:34:50.930000Z</time>
      </trkpt>
      <trkpt lat="39.863426192249115" lon="116.47116774984035">
        <time>2026-07-12T09:34:51.030000Z</time>
      </trkpt>
      <trkpt lat="39.86337230649466" lon="116.47120789931104">
        <time>2026-07-12T09:34:51.030000Z</time>
      </trkpt>
      <trkpt lat="39.86315625137253" lon="116.47118384070998">
        <time>2026-07-12T09:34:51.130000Z</time>
      </trkpt>
      <trkpt lat="39.862971292002086" lon="116.47119490310745">
        <time>2026-07-12T09:34:51.230000Z</time>
      </trkpt>
      <trkpt lat="39.862918738185044" lon="116.47117427605627">
        <time>2026-07-12T09:34:51.330000Z</time>
      </trkpt>
      <trkpt lat="39.86260622273373" lon="116.47116283462087">
        <time>2026-07-12T09:34:51.430000Z</time>
      </trkpt>
      <trkpt lat="39.862469124441155" lon="116.47112471622673">
        <time>2026-07-12T09:34:51.530000Z</time>
      </trkpt>
      <trkpt lat="39.86214608080167" lon="116.47110267819271">
        <time>2026-07-12T09:34:51.630000Z</time>
      </trkpt>
      <trkpt lat="39.86187214301527" lon="116.47111977310394">
        <time>2026-07-12T09:34:51.730000Z</time>
      </trkpt>
      <trkpt lat="39.86154004986582" lon="116.4710796720188">
        <time>2026-07-12T09:34:51.930000Z</time>
      </trkpt>
      <trkpt lat="39.86121895061839" lon="116.47103756246479">
        <time>2026-07-12T09:34:52.030000Z</time>
      </trkpt>
      <trkpt lat="39.86093682706223" lon="116.47098741956387">
        <time>2026-07-12T09:34:52.230000Z</time>
      </trkpt>
      <trkpt lat="39.860594812472186" lon="116.47097541960447">
        <time>2026-07-12T09:34:52.330000Z</time>
      </trkpt>
      <trkpt lat="39.860524863567846" lon="116.47099248893758">
        <time>2026-07-12T09:34:52.330000Z</time>
      </trkpt>
      <trkpt lat="39.860484710136745" lon="116.47093629443178">
        <time>2026-07-12T09:34:52.430000Z</time>
      </trkpt>
      <trkpt lat="39.86048547952473" lon="116.47085299873189">
        <time>2026-07-12T09:34:52.430000Z</time>
      </trkpt>
      <trkpt lat="39.860569434789596" lon="116.47047665460732">
        <time>2026-07-12T09:34:52.630000Z</time>
      </trkpt>
      <trkpt lat="39.860629471403904" lon="116.4701284159176">
        <time>2026-07-12T09:34:52.730000Z</time>
      </trkpt>
      <trkpt lat="39.860695372193604" lon="116.46973000252247">
        <time>2026-07-12T09:34:52.830000Z</time>
      </trkpt>
      <trkpt lat="39.86072339631969" lon="116.46937474920084">
        <time>2026-07-12T09:34:53.030000Z</time>
      </trkpt>
      <trkpt lat="39.86077923773876" lon="116.46895225976117">
        <time>2026-07-12T09:34:53.130000Z</time>
      </trkpt>
      <trkpt lat="39.86082229657454" lon="116.4686080497688">
        <time>2026-07-12T09:34:53.230000Z</time>
      </trkpt>
      <trkpt lat="39.860931354185496" lon="116.4682638344133">
        <time>2026-07-12T09:34:53.330000Z</time>
      </trkpt>
      <trkpt lat="39.86098459680837" lon="116.46798585942592">
        <time>2026-07-12T09:34:53.530000Z</time>
      </trkpt>
      <trkpt lat="39.86100301673956" lon="116.46777211384695">
        <time>2026-07-12T09:34:53.530000Z</time>
      </trkpt>
      <trkpt lat="39.861044585539105" lon="116.46761355803828">
        <time>2026-07-12T09:34:53.630000Z</time>
      </trkpt>
      <trkpt lat="39.86108744828467" lon="116.46719309564314">
        <time>2026-07-12T09:34:53.730000Z</time>
      </trkpt>
      <trkpt lat="39.86117133410024" lon="116.46678066036733">
        <time>2026-07-12T09:34:53.930000Z</time>
      </trkpt>
      <trkpt lat="39.8612316657221" lon="116.46653279870515">
        <time>2026-07-12T09:34:54.030000Z</time>
      </trkpt>
      <trkpt lat="39.86126647826494" lon="116.46646355603639">
        <time>2026-07-12T09:34:54.030000Z</time>
      </trkpt>
      <trkpt lat="39.86129202552333" lon="116.46629497314721">
        <time>2026-07-12T09:34:54.130000Z</time>
      </trkpt>
      <trkpt lat="39.86133715168735" lon="116.4659688482314">
        <time>2026-07-12T09:34:54.230000Z</time>
      </trkpt>
      <trkpt lat="39.86138094854133" lon="116.46589358485599">
        <time>2026-07-12T09:34:54.230000Z</time>
      </trkpt>
      <trkpt lat="39.861449931392784" lon="116.46588855901862">
        <time>2026-07-12T09:34:54.330000Z</time>
      </trkpt>
      <trkpt lat="39.8616380335227" lon="116.46593067982067">
        <time>2026-07-12T09:34:54.330000Z</time>
      </trkpt>
      <trkpt lat="39.861908066981556" lon="116.46594870785454">
        <time>2026-07-12T09:34:54.530000Z</time>
      </trkpt>
      <trkpt lat="39.86217999863937" lon="116.4659286049798">
        <time>2026-07-12T09:34:54.630000Z</time>
      </trkpt>
      <trkpt lat="39.862499061607394" lon="116.4659586681328">
        <time>2026-07-12T09:34:54.730000Z</time>
      </trkpt>
      <trkpt lat="39.862843091140604" lon="116.46597668690073">
        <time>2026-07-12T09:34:54.930000Z</time>
      </trkpt>
      <trkpt lat="39.863172161701485" lon="116.46600975916037">
        <time>2026-07-12T09:34:55.030000Z</time>
      </trkpt>
      <trkpt lat="39.863534211786806" lon="116.4660358032238">
        <time>2026-07-12T09:34:55.230000Z</time>
      </trkpt>
      <trkpt lat="39.86374425136248" lon="116.46605484227489">
        <time>2026-07-12T09:34:55.330000Z</time>
      </trkpt>
      <trkpt lat="39.86380041182235" lon="116.46611604523962">
        <time>2026-07-12T09:34:55.330000Z</time>
      </trkpt>
      <trkpt lat="39.86380391869735" lon="116.46630569611813">
        <time>2026-07-12T09:34:55.430000Z</time>
      </trkpt>
      <trkpt lat="39.86378741936993" lon="116.46649234010496">
        <time>2026-07-12T09:34:55.530000Z</time>
      </trkpt>
      <trkpt lat="39.863808147785896" lon="116.46676427442688">
        <time>2026-07-12T09:34:55.630000Z</time>
      </trkpt>
      <trkpt lat="39.86375329534218" lon="116.467189751079">
        <time>2026-07-12T09:34:55.730000Z</time>
      </trkpt>
      <trkpt lat="39.86371745114408" lon="116.46761723699822">
        <time>2026-07-12T09:34:55.930000Z</time>
      </trkpt>
      <trkpt lat="39.86371212221352" lon="116.46786509875228">
        <time>2026-07-12T09:34:55.930000Z</time>
      </trkpt>
      <trkpt lat="39.863680684321416" lon="116.46807182203128">
        <time>2026-07-12T09:34:56.030000Z</time>
      </trkpt>
      <trkpt lat="39.86368516630215" lon="116.46824944039801">
        <time>2026-07-12T09:34:56.130000Z</time>
      </trkpt>
      <trkpt lat="39.86364688881167" lon="116.46851436979782">
        <time>2026-07-12T09:34:56.230000Z</time>
      </trkpt>
      <trkpt lat="39.86363303864648" lon="116.46893584604805">
        <time>2026-07-12T09:34:56.330000Z</time>
      </trkpt>
      <trkpt lat="39.86361922500726" lon="116.46936936891046">
        <time>2026-07-12T09:34:56.530000Z</time>
      </trkpt>
      <trkpt lat="39.86358438310646" lon="116.46979085644188">
        <time>2026-07-12T09:34:56.630000Z</time>
      </trkpt>
      <trkpt lat="39.863525562522945" lon="116.47021837240793">
        <time>2026-07-12T09:34:56.830000Z</time>
      </trkpt>
      <trkpt lat="39.86353174744923" lon="116.47064789154707">
        <time>2026-07-12T09:34:56.930000Z</time>
      </trkpt>
      <trkpt lat="39.863513000913706" lon="116.47073921759214">
        <time>2026-07-12T09:34:56.930000Z</time>
      </trkpt>
      <trkpt lat="39.86352145026193" lon="116.47090179325232">
        <time>2026-07-12T09:34:57.030000Z</time>
      </trkpt>
      <trkpt lat="39.863476616621924" lon="116.47096100904977">
        <time>2026-07-12T09:34:57.030000Z</time>
      </trkpt>
      <trkpt lat="39.86343606649992" lon="116.47112258807925">
        <time>2026-07-12T09:34:57.130000Z</time>
      </trkpt>
      <trkpt lat="39.86338321961836" lon="116.47117678732887">
        <time>2026-07-12T09:34:57.130000Z</time>
      </trkpt>
      <trkpt lat="39.86305426524189" lon="116.47118686417774">
        <time>2026-07-12T09:34:57.330000Z</time>
      </trkpt>
      <trkpt lat="39.862734168485204" lon="116.47114575796304">
        <time>2026-07-12T09:34:57.430000Z</time>
      </trkpt>
      <trkpt lat="39.862469124441155" lon="116.47112471622673">
        <time>2026-07-12T09:34:57.530000Z</time>
      </trkpt>
      <trkpt lat="39.86219516715744" lon="116.4711347861801">
        <time>2026-07-12T09:34:57.730000Z</time>
      </trkpt>
      <trkpt lat="39.86191912376238" lon="116.47111374582539">
        <time>2026-07-12T09:34:57.830000Z</time>
      </trkpt>
      <trkpt lat="39.86157913118098" lon="116.47110977410829">
        <time>2026-07-12T09:34:57.930000Z</time>
      </trkpt>
      <trkpt lat="39.86126305944362" lon="116.47107769955151">
        <time>2026-07-12T09:34:58.130000Z</time>
      </trkpt>
      <trkpt lat="39.860993860074025" lon="116.47100045875492">
        <time>2026-07-12T09:34:58.230000Z</time>
      </trkpt>
      <trkpt lat="39.8608068981236" lon="116.47101051779235">
        <time>2026-07-12T09:34:58.330000Z</time>
      </trkpt>
      <trkpt lat="39.8605138447154" lon="116.47098546537134">
        <time>2026-07-12T09:34:58.430000Z</time>
      </trkpt>
      <trkpt lat="39.86046568617455" lon="116.4709272647517">
        <time>2026-07-12T09:34:58.430000Z</time>
      </trkpt>
      <trkpt lat="39.860463480733756" lon="116.47085300148507">
        <time>2026-07-12T09:34:58.530000Z</time>
      </trkpt>
      <trkpt lat="39.860502270366396" lon="116.47077772965218">
        <time>2026-07-12T09:34:58.530000Z</time>
      </trkpt>
      <trkpt lat="39.86058710984377" lon="116.47035923696272">
        <time>2026-07-12T09:34:58.730000Z</time>
      </trkpt>
      <trkpt lat="39.860587385292526" lon="116.47009630778889">
        <time>2026-07-12T09:34:58.730000Z</time>
      </trkpt>
      <trkpt lat="39.86068328743559" lon="116.46969889446989">
        <time>2026-07-12T09:34:58.930000Z</time>
      </trkpt>
      <trkpt lat="39.86073913714876" lon="116.46928041586132">
        <time>2026-07-12T09:34:59.130000Z</time>
      </trkpt>
      <trkpt lat="39.860788001650064" lon="116.46886595636491">
        <time>2026-07-12T09:34:59.230000Z</time>
      </trkpt>
      <trkpt lat="39.86086785696736" lon="116.46844748314093">
        <time>2026-07-12T09:34:59.430000Z</time>
      </trkpt>
      <trkpt lat="39.86095186806368" lon="116.46808520938185">
        <time>2026-07-12T09:34:59.530000Z</time>
      </trkpt>
      <trkpt lat="39.86101076649827" lon="116.46767979219591">
        <time>2026-07-12T09:34:59.630000Z</time>
      </trkpt>
      <trkpt lat="39.86109042108145" lon="116.46718306055232">
        <time>2026-07-12T09:34:59.830000Z</time>
      </trkpt>
      <trkpt lat="39.86117428542676" lon="116.46676259770068">
        <time>2026-07-12T09:35:00.030000Z</time>
      </trkpt>
      <trkpt lat="39.86123264414985" lon="116.46652477094649">
        <time>2026-07-12T09:35:00.030000Z</time>
      </trkpt>
      <trkpt lat="39.861263456923545" lon="116.46645552879394">
        <time>2026-07-12T09:35:00.130000Z</time>
      </trkpt>
      <trkpt lat="39.86132333456615" lon="116.46603708391042">
        <time>2026-07-12T09:35:00.230000Z</time>
      </trkpt>
      <trkpt lat="39.86134210322475" lon="116.46595078570454">
        <time>2026-07-12T09:35:00.330000Z</time>
      </trkpt>
      <trkpt lat="39.861383934999104" lon="116.46588856729471">
        <time>2026-07-12T09:35:00.330000Z</time>
      </trkpt>
      <trkpt lat="39.86145088585621" lon="116.46587150046895">
        <time>2026-07-12T09:35:00.330000Z</time>
      </trkpt>
      <trkpt lat="39.861581031280714" lon="116.46592868009199">
        <time>2026-07-12T09:35:00.430000Z</time>
      </trkpt>
      <trkpt lat="39.86191503447854" lon="116.46593666571539">
        <time>2026-07-12T09:35:00.530000Z</time>
      </trkpt>
      <trkpt lat="39.86223601165294" lon="116.4659346185865">
        <time>2026-07-12T09:35:00.730000Z</time>
      </trkpt>
      <trkpt lat="39.86252707615057" lon="116.46596468525564">
        <time>2026-07-12T09:35:00.830000Z</time>
      </trkpt>
      <trkpt lat="39.86284610436611" lon="116.46598170372198">
        <time>2026-07-12T09:35:01.030000Z</time>
      </trkpt>
      <trkpt lat="39.86311415412589" lon="116.4660057526724">
        <time>2026-07-12T10:30:40.330000Z</time>
      </trkpt>
      <trkpt lat="39.863313248502145" lon="116.46604313402428">
        <time>2026-07-12T10:30:49.330000Z</time>
      </trkpt>
      <trkpt lat="39.863593157932115" lon="116.46606810060246">
        <time>2026-07-12T10:31:01.330000Z</time>
      </trkpt>
      <trkpt lat="39.863739802329114" lon="116.46607743661843">
        <time>2026-07-12T10:31:07.430000Z</time>
      </trkpt>
      <trkpt lat="39.8638063846937" lon="116.46610601005621">
        <time>2026-07-12T10:31:10.430000Z</time>
      </trkpt>
      <trkpt lat="39.86383759752807" lon="116.46618628169306">
        <time>2026-07-12T10:31:13.430000Z</time>
      </trkpt>
      <trkpt lat="39.86377154663481" lon="116.46653950444677">
        <time>2026-07-12T10:31:25.730000Z</time>
      </trkpt>
      <trkpt lat="39.863768692034824" lon="116.46696597554157">
        <time>2026-07-12T10:31:41.030000Z</time>
      </trkpt>
      <trkpt lat="39.86372788129154" lon="116.46740650482391">
        <time>2026-07-12T10:31:56.230000Z</time>
      </trkpt>
      <trkpt lat="39.86370203306492" lon="116.46783198488266">
        <time>2026-07-12T10:32:11.230000Z</time>
      </trkpt>
      <trkpt lat="39.86365419796241" lon="116.46826048276873">
        <time>2026-07-12T10:32:26.330000Z</time>
      </trkpt>
      <trkpt lat="39.863626113997064" lon="116.46859665994066">
        <time>2026-07-12T10:32:38.330000Z</time>
      </trkpt>
      <trkpt lat="39.86364459164395" lon="116.46877227183367">
        <time>2026-07-12T10:32:44.330000Z</time>
      </trkpt>
      <trkpt lat="39.86360127883027" lon="116.46902315600188">
        <time>2026-07-12T10:32:53.330000Z</time>
      </trkpt>
      <trkpt lat="39.86359743514681" lon="116.469445639711">
        <time>2026-07-12T10:33:08.630000Z</time>
      </trkpt>
      <trkpt lat="39.86356753568064" lon="116.46984605308519">
        <time>2026-07-12T10:33:23.830000Z</time>
      </trkpt>
      <trkpt lat="39.863538791388585" lon="116.47030166517226">
        <time>2026-07-12T10:33:39.230000Z</time>
      </trkpt>
      <trkpt lat="39.863516961850905" lon="116.47072516728436">
        <time>2026-07-12T10:33:54.230000Z</time>
      </trkpt>
      <trkpt lat="39.863516383866866" lon="116.47087770840946">
        <time>2026-07-12T10:34:00.230000Z</time>
      </trkpt>
      <trkpt lat="39.86343709704912" lon="116.47113362718564">
        <time>2026-07-12T10:34:09.230000Z</time>
      </trkpt>
      <trkpt lat="39.863385236208664" lon="116.47118280848447">
        <time>2026-07-12T10:34:12.230000Z</time>
      </trkpt>
      <trkpt lat="39.86321830090175" lon="116.47120290074191">
        <time>2026-07-12T10:34:21.230000Z</time>
      </trkpt>
      <trkpt lat="39.86289120171301" lon="116.47116079182113">
        <time>2026-07-12T10:34:36.230000Z</time>
      </trkpt>
      <trkpt lat="39.862708142071966" lon="116.4711357255493">
        <time>2026-07-12T10:34:45.230000Z</time>
      </trkpt>
      <trkpt lat="39.862420174400555" lon="116.47114178299023">
        <time>2026-07-12T10:34:57.230000Z</time>
      </trkpt>
      <trkpt lat="39.862086273261696" lon="116.47117092823157">
        <time>2026-07-12T10:35:12.330000Z</time>
      </trkpt>
      <trkpt lat="39.861757185452696" lon="116.47113283385772">
        <time>2026-07-12T10:35:27.530000Z</time>
      </trkpt>
      <trkpt lat="39.86156022680934" lon="116.47114389774264">
        <time>2026-07-12T10:35:36.530000Z</time>
      </trkpt>
      <trkpt lat="39.86149729146745" lon="116.47116598410004">
        <time>2026-07-12T10:35:39.630000Z</time>
      </trkpt>
    </trkseg>
  </trk>
</gpx>