<?xml version="1.0" encoding="UTF-8"?>
<gpx xmlns="http://www.topografix.com/GPX/1/1" xmlns:gpxtpx="http://www.garmin.com/xmlschemas/TrackPointExtension/v1" xmlns:xsi="http://www.w3.org/2001/XMLSchema-instance" xsi:schemaLocation="http://www.topografix.com/GPX/1/1 http://www.topografix.com/GPX/1/1/gpx.xsd" version="1.1" creator="gpx.py -- https://github.com/tkrajina/gpxpy">
  <trk>
    <name>gpx from keep</name>
    <type>Run</type>
    <trkseg>
      <trkpt lat="37.859804693651675" lon="112.56779960047844">
        <time>2026-09-26T23:47:31.677000Z</time>
      </trkpt>
      <trkpt lat="37.85978727877048" lon="112.56740913678054">
        <time>2026-09-26T23:47:46.877000Z</time>
      </trkpt>
      <trkpt lat="37.859800872185836" lon="112.56702767191827">
        <time>2026-09-26T23:47:58.977000Z</time>
      </trkpt>
      <trkpt lat="37.859814413033064" lon="112.5666041463715">
        <time>2026-09-26T23:48:10.977000Z</time>
      </trkpt>
      <trkpt lat="37.85979700334457" lon="112.56623668558946">
        <time>2026-09-26T23:48:23.077000Z</time>
      </trkpt>
      <trkpt lat="37.8597955904636" lon="112.5658692153601">
        <time>2026-09-26T23:48:34.977000Z</time>
      </trkpt>
      <trkpt lat="37.85978611628801" lon="112.56545467672204">
        <time>2026-09-26T23:48:47.077000Z</time>
      </trkpt>
      <trkpt lat="37.85980065738938" lon="112.56505614708105">
        <time>2026-09-26T23:48:59.077000Z</time>
      </trkpt>
      <trkpt lat="37.85981640913382" lon="112.56484185770593">
        <time>2026-09-26T23:49:04.977000Z</time>
      </trkpt>
      <trkpt lat="37.85978291592149" lon="112.56443030213163">
        <time>2026-09-26T23:49:17.077000Z</time>
      </trkpt>
      <trkpt lat="37.85976842101266" lon="112.56402073770093">
        <time>2026-09-26T23:49:29.077000Z</time>
      </trkpt>
      <trkpt lat="37.85977501214393" lon="112.56368426488267">
        <time>2026-09-26T23:49:38.077000Z</time>
      </trkpt>
      <trkpt lat="37.859741504525175" lon="112.56327768997329">
        <time>2026-09-26T23:49:50.077000Z</time>
      </trkpt>
      <trkpt lat="37.859702002647055" lon="112.56288212264418">
        <time>2026-09-26T23:50:02.077000Z</time>
      </trkpt>
      <trkpt lat="37.85967351764649" lon="112.56250357054654">
        <time>2026-09-26T23:50:14.077000Z</time>
      </trkpt>
      <trkpt lat="37.85965494133555" lon="112.5620579087199">
        <time>2026-09-26T23:50:26.077000Z</time>
      </trkpt>
      <trkpt lat="37.85966653899822" lon="112.56174743836391">
        <time>2026-09-26T23:50:35.077000Z</time>
      </trkpt>
      <trkpt lat="37.85963427049166" lon="112.56154713670256">
        <time>2026-09-26T23:50:41.077000Z</time>
      </trkpt>
      <trkpt lat="37.85959669815547" lon="112.56112048321448">
        <time>2026-09-26T23:50:53.177000Z</time>
      </trkpt>
      <trkpt lat="37.85957016872534" lon="112.5607298752991">
        <time>2026-09-26T23:51:05.177000Z</time>
      </trkpt>
      <trkpt lat="37.859559612214895" lon="112.56032223001328">
        <time>2026-09-26T23:51:17.277000Z</time>
      </trkpt>
      <trkpt lat="37.85954105008515" lon="112.55991657984589">
        <time>2026-09-26T23:51:29.277000Z</time>
      </trkpt>
      <trkpt lat="37.85951346400574" lon="112.55949990369918">
        <time>2026-09-26T23:51:41.477000Z</time>
      </trkpt>
      <trkpt lat="37.85948688217414" lon="112.55909123136283">
        <time>2026-09-26T23:51:53.777000Z</time>
      </trkpt>
      <trkpt lat="37.859472434944294" lon="112.5587797121349">
        <time>2026-09-26T23:52:02.877000Z</time>
      </trkpt>
      <trkpt lat="37.85944476638071" lon="112.55831993699469">
        <time>2026-09-26T23:52:14.977000Z</time>
      </trkpt>
      <trkpt lat="37.85942516406268" lon="112.5579102361348">
        <time>2026-09-26T23:52:27.077000Z</time>
      </trkpt>
      <trkpt lat="37.859397525072104" lon="112.55748149391424">
        <time>2026-09-26T23:52:39.077000Z</time>
      </trkpt>
      <trkpt lat="37.85937288952214" lon="112.55705975395966">
        <time>2026-09-26T23:52:51.077000Z</time>
      </trkpt>
      <trkpt lat="37.85935127916231" lon="112.55665904193474">
        <time>2026-09-26T23:53:03.077000Z</time>
      </trkpt>
      <trkpt lat="37.85932567691813" lon="112.55626834003203">
        <time>2026-09-26T23:53:15.077000Z</time>
      </trkpt>
      <trkpt lat="37.85929804313484" lon="112.55586160086862">
        <time>2026-09-26T23:53:27.077000Z</time>
      </trkpt>
      <trkpt lat="37.85928689150041" lon="112.55576542535054">
        <time>2026-09-26T23:53:30.077000Z</time>
      </trkpt>
      <trkpt lat="37.859299732593776" lon="112.5556622336147">
        <time>2026-09-26T23:53:33.077000Z</time>
      </trkpt>
      <trkpt lat="37.85927607356505" lon="112.55524546228771">
        <time>2026-09-26T23:53:45.177000Z</time>
      </trkpt>
      <trkpt lat="37.85924242336263" lon="112.55483970383452">
        <time>2026-09-26T23:53:57.177000Z</time>
      </trkpt>
      <trkpt lat="37.8592381376258" lon="112.55441783428464">
        <time>2026-09-26T23:54:09.277000Z</time>
      </trkpt>
      <trkpt lat="37.85920409314144" lon="112.55401914035615">
        <time>2026-09-26T23:54:21.377000Z</time>
      </trkpt>
      <trkpt lat="37.85916739094718" lon="112.55359431914765">
        <time>2026-09-26T23:54:33.577000Z</time>
      </trkpt>
      <trkpt lat="37.85914470221684" lon="112.55318050875707">
        <time>2026-09-26T23:54:45.777000Z</time>
      </trkpt>
      <trkpt lat="37.85912899772134" lon="112.55276067673148">
        <time>2026-09-26T23:54:57.977000Z</time>
      </trkpt>
      <trkpt lat="37.85908724437827" lon="112.55231879418108">
        <time>2026-09-26T23:55:10.077000Z</time>
      </trkpt>
      <trkpt lat="37.85905455525323" lon="112.55191798445195">
        <time>2026-09-26T23:55:22.077000Z</time>
      </trkpt>
      <trkpt lat="37.859031852809316" lon="112.55151215506541">
        <time>2026-09-26T23:55:34.077000Z</time>
      </trkpt>
      <trkpt lat="37.85900016859353" lon="112.55112134964759">
        <time>2026-09-26T23:55:46.077000Z</time>
      </trkpt>
      <trkpt lat="37.85899344910513" lon="112.55071149363047">
        <time>2026-09-26T23:55:58.077000Z</time>
      </trkpt>
      <trkpt lat="37.858985256935945" lon="112.55060326692617">
        <time>2026-09-26T23:56:01.077000Z</time>
      </trkpt>
      <trkpt lat="37.85899454972288" lon="112.55020341968968">
        <time>2026-09-26T23:56:13.177000Z</time>
      </trkpt>
      <trkpt lat="37.85897081991346" lon="112.54979755538824">
        <time>2026-09-26T23:56:25.277000Z</time>
      </trkpt>
      <trkpt lat="37.858937344074484" lon="112.54939824172311">
        <time>2026-09-26T23:56:37.477000Z</time>
      </trkpt>
      <trkpt lat="37.858928303602916" lon="112.54896475561154">
        <time>2026-09-26T23:56:49.577000Z</time>
      </trkpt>
      <trkpt lat="37.85890156133966" lon="112.54856287559033">
        <time>2026-09-26T23:57:01.777000Z</time>
      </trkpt>
      <trkpt lat="37.8588667426082" lon="112.54812390595859">
        <time>2026-09-26T23:57:13.977000Z</time>
      </trkpt>
      <trkpt lat="37.858833033295824" lon="112.54774706651051">
        <time>2026-09-26T23:57:25.977000Z</time>
      </trkpt>
      <trkpt lat="37.858802277477174" lon="112.54734816984568">
        <time>2026-09-26T23:57:37.977000Z</time>
      </trkpt>
      <trkpt lat="37.85877356182026" lon="112.54697332020554">
        <time>2026-09-26T23:57:49.977000Z</time>
      </trkpt>
      <trkpt lat="37.858778744751596" lon="112.54654533746681">
        <time>2026-09-26T23:58:02.077000Z</time>
      </trkpt>
      <trkpt lat="37.858749440622766" lon="112.54613759489465">
        <time>2026-09-26T23:58:13.977000Z</time>
      </trkpt>
      <trkpt lat="37.85872217269825" lon="112.5457374662679">
        <time>2026-09-26T23:58:25.977000Z</time>
      </trkpt>
      <trkpt lat="37.85869240691901" lon="112.5453485547167">
        <time>2026-09-26T23:58:37.977000Z</time>
      </trkpt>
      <trkpt lat="37.85866663231209" lon="112.54495763078263">
        <time>2026-09-26T23:58:49.977000Z</time>
      </trkpt>
      <trkpt lat="37.85866582441491" lon="112.54455065828435">
        <time>2026-09-26T23:59:02.077000Z</time>
      </trkpt>
      <trkpt lat="37.858649007807934" lon="112.54414367990253">
        <time>2026-09-26T23:59:14.077000Z</time>
      </trkpt>
      <trkpt lat="37.85862454139575" lon="112.54374934631493">
        <time>2026-09-26T23:59:26.077000Z</time>
      </trkpt>
      <trkpt lat="37.85859635350513" lon="112.54332970228279">
        <time>2026-09-26T23:59:38.077000Z</time>
      </trkpt>
      <trkpt lat="37.858564537109565" lon="112.54293272746547">
        <time>2026-09-26T23:59:50.077000Z</time>
      </trkpt>
      <trkpt lat="37.85852163667523" lon="112.542498654262">
        <time>2026-09-27T00:00:02.177000Z</time>
      </trkpt>
      <trkpt lat="37.858494761515246" lon="112.54207860589901">
        <time>2026-09-27T00:00:14.177000Z</time>
      </trkpt>
      <trkpt lat="37.858475826916006" lon="112.54163248263465">
        <time>2026-09-27T00:00:26.277000Z</time>
      </trkpt>
      <trkpt lat="37.85845499296583" lon="112.54123748111793">
        <time>2026-09-27T00:00:38.377000Z</time>
      </trkpt>
      <trkpt lat="37.85842311770435" lon="112.54082643272449">
        <time>2026-09-27T00:00:50.477000Z</time>
      </trkpt>
      <trkpt lat="37.85838886654463" lon="112.54042344612306">
        <time>2026-09-27T00:01:02.677000Z</time>
      </trkpt>
      <trkpt lat="37.85839139620908" lon="112.5400233593842">
        <time>2026-09-27T00:01:14.877000Z</time>
      </trkpt>
      <trkpt lat="37.858361482554834" lon="112.53960226247217">
        <time>2026-09-27T00:01:26.977000Z</time>
      </trkpt>
      <trkpt lat="37.85832863014233" lon="112.5392122402376">
        <time>2026-09-27T00:01:39.077000Z</time>
      </trkpt>
      <trkpt lat="37.8583187457682" lon="112.53880817146205">
        <time>2026-09-27T00:01:51.077000Z</time>
      </trkpt>
      <trkpt lat="37.858319835718" lon="112.53839406758054">
        <time>2026-09-27T00:02:03.077000Z</time>
      </trkpt>
      <trkpt lat="37.85828891237614" lon="112.53797895741215">
        <time>2026-09-27T00:02:15.077000Z</time>
      </trkpt>
      <trkpt lat="37.85825601438681" lon="112.53757787820115">
        <time>2026-09-27T00:02:27.077000Z</time>
      </trkpt>
      <trkpt lat="37.858235101936685" lon="112.53717177715728">
        <time>2026-09-27T00:02:39.077000Z</time>
      </trkpt>
      <trkpt lat="37.85820318456558" lon="112.53676667325337">
        <time>2026-09-27T00:02:51.177000Z</time>
      </trkpt>
      <trkpt lat="37.85815027432497" lon="112.5363685843537">
        <time>2026-09-27T00:03:03.277000Z</time>
      </trkpt>
      <trkpt lat="37.85812538437643" lon="112.53597951070229">
        <time>2026-09-27T00:03:15.477000Z</time>
      </trkpt>
      <trkpt lat="37.858101515129434" lon="112.53560146151874">
        <time>2026-09-27T00:03:27.877000Z</time>
      </trkpt>
      <trkpt lat="37.858068533436764" lon="112.53517727812867">
        <time>2026-09-27T00:03:39.977000Z</time>
      </trkpt>
      <trkpt lat="37.858047690110006" lon="112.53481425876869">
        <time>2026-09-27T00:03:52.077000Z</time>
      </trkpt>
      <trkpt lat="37.858031663501556" lon="112.53437401442699">
        <time>2026-09-27T00:04:04.077000Z</time>
      </trkpt>
      <trkpt lat="37.8580047325984" lon="112.53397788968206">
        <time>2026-09-27T00:04:16.177000Z</time>
      </trkpt>
      <trkpt lat="37.85799682140432" lon="112.53359078244203">
        <time>2026-09-27T00:04:28.177000Z</time>
      </trkpt>
      <trkpt lat="37.857982195071756" lon="112.53319484086653">
        <time>2026-09-27T00:04:40.277000Z</time>
      </trkpt>
      <trkpt lat="37.85797143196328" lon="112.53300509767817">
        <time>2026-09-27T00:04:46.477000Z</time>
      </trkpt>
      <trkpt lat="37.857968493571356" lon="112.5326109547992">
        <time>2026-09-27T00:04:58.677000Z</time>
      </trkpt>
      <trkpt lat="37.8579564600841" lon="112.53217969852665">
        <time>2026-09-27T00:05:10.977000Z</time>
      </trkpt>
      <trkpt lat="37.85795551245566" lon="112.53178554299409">
        <time>2026-09-27T00:05:22.977000Z</time>
      </trkpt>
      <trkpt lat="37.85792950509001" lon="112.53137032230231">
        <time>2026-09-27T00:05:34.977000Z</time>
      </trkpt>
      <trkpt lat="37.85791548990575" lon="112.53095308780993">
        <time>2026-09-27T00:05:46.977000Z</time>
      </trkpt>
      <trkpt lat="37.8578995773211" lon="112.53057997882229">
        <time>2026-09-27T00:05:59.077000Z</time>
      </trkpt>
      <trkpt lat="37.85787353350204" lon="112.53015571251477">
        <time>2026-09-27T00:06:11.177000Z</time>
      </trkpt>
      <trkpt lat="37.857858543428414" lon="112.52975450790956">
        <time>2026-09-27T00:06:23.277000Z</time>
      </trkpt>
      <trkpt lat="37.8578516148655" lon="112.52937937552458">
        <time>2026-09-27T00:06:35.477000Z</time>
      </trkpt>
      <trkpt lat="37.857834735640964" lon="112.52902630636488">
        <time>2026-09-27T00:06:44.677000Z</time>
      </trkpt>
      <trkpt lat="37.85782168331782" lon="112.52860502405495">
        <time>2026-09-27T00:06:56.877000Z</time>
      </trkpt>
      <trkpt lat="37.85780081109646" lon="112.52825796417561">
        <time>2026-09-27T00:07:06.077000Z</time>
      </trkpt>
      <trkpt lat="37.857787719747726" lon="112.5278246334599">
        <time>2026-09-27T00:07:18.077000Z</time>
      </trkpt>
      <trkpt lat="37.85777564898372" lon="112.5274013272173">
        <time>2026-09-27T00:07:30.177000Z</time>
      </trkpt>
      <trkpt lat="37.85775059937769" lon="112.52698905070552">
        <time>2026-09-27T00:07:42.277000Z</time>
      </trkpt>
      <trkpt lat="37.85772146276086" lon="112.52654466863555">
        <time>2026-09-27T00:07:54.477000Z</time>
      </trkpt>
      <trkpt lat="37.85771338635384" lon="112.5261243530983">
        <time>2026-09-27T00:08:06.777000Z</time>
      </trkpt>
      <trkpt lat="37.857700278806895" lon="112.52569400068971">
        <time>2026-09-27T00:08:18.977000Z</time>
      </trkpt>
      <trkpt lat="37.85768314520399" lon="112.52525561729101">
        <time>2026-09-27T00:08:31.077000Z</time>
      </trkpt>
      <trkpt lat="37.857666079755695" lon="112.52484531703546">
        <time>2026-09-27T00:08:43.077000Z</time>
      </trkpt>
      <trkpt lat="37.85764400934932" lon="112.524435011997">
        <time>2026-09-27T00:08:55.177000Z</time>
      </trkpt>
      <trkpt lat="37.85762992048495" lon="112.52401868141618">
        <time>2026-09-27T00:09:07.177000Z</time>
      </trkpt>
      <trkpt lat="37.85761080293901" lon="112.52359331695396">
        <time>2026-09-27T00:09:19.277000Z</time>
      </trkpt>
      <trkpt lat="37.85762255729862" lon="112.52349901182588">
        <time>2026-09-27T00:09:22.277000Z</time>
      </trkpt>
      <trkpt lat="37.85774621952397" lon="112.52336255739145">
        <time>2026-09-27T00:09:28.377000Z</time>
      </trkpt>
      <trkpt lat="37.8579030401044" lon="112.52328428644354">
        <time>2026-09-27T00:09:34.477000Z</time>
      </trkpt>
      <trkpt lat="37.85824097833699" lon="112.5232391010625">
        <time>2026-09-27T00:09:46.777000Z</time>
      </trkpt>
      <trkpt lat="37.85859893318936" lon="112.52319892948422">
        <time>2026-09-27T00:09:58.977000Z</time>
      </trkpt>
      <trkpt lat="37.85892592248231" lon="112.52317381012811">
        <time>2026-09-27T00:10:10.977000Z</time>
      </trkpt>
      <trkpt lat="37.859262932028024" lon="112.523155712283">
        <time>2026-09-27T00:10:22.977000Z</time>
      </trkpt>
      <trkpt lat="37.85959999980236" lon="112.52315968578084">
        <time>2026-09-27T00:10:34.977000Z</time>
      </trkpt>
      <trkpt lat="37.85974814124766" lon="112.52320381110846">
        <time>2026-09-27T00:10:40.977000Z</time>
      </trkpt>
      <trkpt lat="37.85986458350278" lon="112.5233643157984">
        <time>2026-09-27T00:10:46.977000Z</time>
      </trkpt>
      <trkpt lat="37.85990384336782" lon="112.52346062181905">
        <time>2026-09-27T00:10:49.977000Z</time>
      </trkpt>
      <trkpt lat="37.859907951840036" lon="112.52388298015835">
        <time>2026-09-27T00:11:01.977000Z</time>
      </trkpt>
      <trkpt lat="37.85990001478016" lon="112.52429028624853">
        <time>2026-09-27T00:11:13.977000Z</time>
      </trkpt>
      <trkpt lat="37.859906068013515" lon="112.52457429323688">
        <time>2026-09-27T00:11:22.977000Z</time>
      </trkpt>
      <trkpt lat="37.85992305873109" lon="112.52497659997206">
        <time>2026-09-27T00:11:34.977000Z</time>
      </trkpt>
      <trkpt lat="37.859927184013195" lon="112.52537190961702">
        <time>2026-09-27T00:11:46.977000Z</time>
      </trkpt>
      <trkpt lat="37.85992080192946" lon="112.52575092112579">
        <time>2026-09-27T00:11:58.977000Z</time>
      </trkpt>
      <trkpt lat="37.8599297925117" lon="112.52613613159217">
        <time>2026-09-27T00:12:10.977000Z</time>
      </trkpt>
      <trkpt lat="37.85992782612664" lon="112.52654039801598">
        <time>2026-09-27T00:12:22.977000Z</time>
      </trkpt>
      <trkpt lat="37.85993294344725" lon="112.52697876427295">
        <time>2026-09-27T00:12:35.077000Z</time>
      </trkpt>
      <trkpt lat="37.85996944369302" lon="112.52717336472695">
        <time>2026-09-27T00:12:41.077000Z</time>
      </trkpt>
      <trkpt lat="37.86001371820295" lon="112.52727868631264">
        <time>2026-09-27T00:12:44.077000Z</time>
      </trkpt>
      <trkpt lat="37.86007892997392" lon="112.52735792428875">
        <time>2026-09-27T00:12:46.977000Z</time>
      </trkpt>
      <trkpt lat="37.86016108610409" lon="112.52741408864968">
        <time>2026-09-27T00:12:49.977000Z</time>
      </trkpt>
      <trkpt lat="37.86025114202746" lon="112.527430127804">
        <time>2026-09-27T00:12:53.077000Z</time>
      </trkpt>
      <trkpt lat="37.86034110912552" lon="112.5274110582804">
        <time>2026-09-27T00:12:56.077000Z</time>
      </trkpt>
      <trkpt lat="37.860418934502974" lon="112.52733681926102">
        <time>2026-09-27T00:12:59.077000Z</time>
      </trkpt>
      <trkpt lat="37.86047868548296" lon="112.52723449505139">
        <time>2026-09-27T00:13:02.077000Z</time>
      </trkpt>
      <trkpt lat="37.86051740715743" lon="112.52712214179108">
        <time>2026-09-27T00:13:05.077000Z</time>
      </trkpt>
      <trkpt lat="37.860523112687126" lon="112.52700577948676">
        <time>2026-09-27T00:13:08.077000Z</time>
      </trkpt>
      <trkpt lat="37.860501843886965" lon="112.52690145735946">
        <time>2026-09-27T00:13:11.077000Z</time>
      </trkpt>
      <trkpt lat="37.86045859149178" lon="112.5268051624488">
        <time>2026-09-27T00:13:14.077000Z</time>
      </trkpt>
      <trkpt lat="37.86027407442184" lon="112.52661458942521">
        <time>2026-09-27T00:13:23.077000Z</time>
      </trkpt>
      <trkpt lat="37.86046714822498" lon="112.52663061695948">
        <time>2026-09-27T00:13:29.077000Z</time>
      </trkpt>
      <trkpt lat="37.86066430968755" lon="112.52668075046351">
        <time>2026-09-27T00:13:35.077000Z</time>
      </trkpt>
      <trkpt lat="37.8610114532434" lon="112.52671381314508">
        <time>2026-09-27T00:13:47.077000Z</time>
      </trkpt>
      <trkpt lat="37.86135561166185" lon="112.52675289490864">
        <time>2026-09-27T00:13:59.077000Z</time>
      </trkpt>
      <trkpt lat="37.86168976073614" lon="112.52678896841167">
        <time>2026-09-27T00:14:11.177000Z</time>
      </trkpt>
      <trkpt lat="37.86202490235225" lon="112.52682203237799">
        <time>2026-09-27T00:14:23.177000Z</time>
      </trkpt>
      <trkpt lat="37.86220392279863" lon="112.52681799893351">
        <time>2026-09-27T00:14:29.177000Z</time>
      </trkpt>
      <trkpt lat="37.86228384966623" lon="112.52678388328235">
        <time>2026-09-27T00:14:32.177000Z</time>
      </trkpt>
      <trkpt lat="37.86261793759606" lon="112.52679588172401">
        <time>2026-09-27T00:14:44.277000Z</time>
      </trkpt>
      <trkpt lat="37.86278396864111" lon="112.52679686542847">
        <time>2026-09-27T00:14:50.277000Z</time>
      </trkpt>
      <trkpt lat="37.86311312730488" lon="112.52683695196367">
        <time>2026-09-27T00:15:02.477000Z</time>
      </trkpt>
      <trkpt lat="37.86343228682118" lon="112.52687804273897">
        <time>2026-09-27T00:15:14.777000Z</time>
      </trkpt>
      <trkpt lat="37.86377442480166" lon="112.52690909954235">
        <time>2026-09-27T00:15:26.977000Z</time>
      </trkpt>
      <trkpt lat="37.86405456743664" lon="112.52694618229638">
        <time>2026-09-27T00:15:35.977000Z</time>
      </trkpt>
      <trkpt lat="37.86437869472867" lon="112.52697423177378">
        <time>2026-09-27T00:15:47.977000Z</time>
      </trkpt>
      <trkpt lat="37.86471788327078" lon="112.52702535120947">
        <time>2026-09-27T00:15:59.977000Z</time>
      </trkpt>
      <trkpt lat="37.86503897444001" lon="112.5270393573111">
        <time>2026-09-27T00:16:11.977000Z</time>
      </trkpt>
      <trkpt lat="37.86534006729502" lon="112.52705537198148">
        <time>2026-09-27T00:16:23.977000Z</time>
      </trkpt>
      <trkpt lat="37.865458128487575" lon="112.5270714080546">
        <time>2026-09-27T00:16:29.977000Z</time>
      </trkpt>
      <trkpt lat="37.86579324002955" lon="112.52709243431235">
        <time>2026-09-27T00:16:41.977000Z</time>
      </trkpt>
      <trkpt lat="37.86610742434762" lon="112.52714355647056">
        <time>2026-09-27T00:16:53.977000Z</time>
      </trkpt>
      <trkpt lat="37.86641348258014" lon="112.52714552689699">
        <time>2026-09-27T00:17:05.977000Z</time>
      </trkpt>
      <trkpt lat="37.866720523222774" lon="112.5271404754024">
        <time>2026-09-27T00:17:17.977000Z</time>
      </trkpt>
      <trkpt lat="37.86688558756039" lon="112.52715449970162">
        <time>2026-09-27T00:17:23.977000Z</time>
      </trkpt>
      <trkpt lat="37.86705704648435" lon="112.52719370433918">
        <time>2026-09-27T00:17:29.977000Z</time>
      </trkpt>
      <trkpt lat="37.86733964326414" lon="112.52721417471082">
        <time>2026-09-27T00:17:38.977000Z</time>
      </trkpt>
      <trkpt lat="37.8676018780492" lon="112.52724903022332">
        <time>2026-09-27T00:17:47.977000Z</time>
      </trkpt>
      <trkpt lat="37.867844268978665" lon="112.52732123953915">
        <time>2026-09-27T00:17:56.977000Z</time>
      </trkpt>
      <trkpt lat="37.86800422743221" lon="112.52732991339485">
        <time>2026-09-27T00:18:02.977000Z</time>
      </trkpt>
      <trkpt lat="37.86827923229136" lon="112.52731282836888">
        <time>2026-09-27T00:18:11.977000Z</time>
      </trkpt>
      <trkpt lat="37.86861544599665" lon="112.52737397864547">
        <time>2026-09-27T00:18:23.977000Z</time>
      </trkpt>
      <trkpt lat="37.8689585771379" lon="112.52740202549522">
        <time>2026-09-27T00:18:35.977000Z</time>
      </trkpt>
      <trkpt lat="37.86922973883632" lon="112.52744713352469">
        <time>2026-09-27T00:18:44.977000Z</time>
      </trkpt>
      <trkpt lat="37.86958088159073" lon="112.52747919178292">
        <time>2026-09-27T00:18:56.977000Z</time>
      </trkpt>
      <trkpt lat="37.86992403565819" lon="112.52751626645362">
        <time>2026-09-27T00:19:08.977000Z</time>
      </trkpt>
      <trkpt lat="37.870272084162416" lon="112.52751121022347">
        <time>2026-09-27T00:19:20.977000Z</time>
      </trkpt>
      <trkpt lat="37.87060024075712" lon="112.527550292811">
        <time>2026-09-27T00:19:33.077000Z</time>
      </trkpt>
      <trkpt lat="37.87076533824232" lon="112.52757735722017">
        <time>2026-09-27T00:19:38.977000Z</time>
      </trkpt>
      <trkpt lat="37.87103942200668" lon="112.52759136855799">
        <time>2026-09-27T00:19:48.077000Z</time>
      </trkpt>
      <trkpt lat="37.87138757458967" lon="112.52762743940374">
        <time>2026-09-27T00:20:00.077000Z</time>
      </trkpt>
      <trkpt lat="37.87173270135743" lon="112.5276534795826">
        <time>2026-09-27T00:20:11.977000Z</time>
      </trkpt>
      <trkpt lat="37.872062916622674" lon="112.52771563295042">
        <time>2026-09-27T00:20:23.977000Z</time>
      </trkpt>
      <trkpt lat="37.872319030228645" lon="112.52774268655938">
        <time>2026-09-27T00:20:32.977000Z</time>
      </trkpt>
      <trkpt lat="37.87255801436849" lon="112.52771958741137">
        <time>2026-09-27T00:20:41.977000Z</time>
      </trkpt>
      <trkpt lat="37.87289111639872" lon="112.52773660106116">
        <time>2026-09-27T00:20:54.077000Z</time>
      </trkpt>
      <trkpt lat="37.87317019119136" lon="112.52774659935983">
        <time>2026-09-27T00:21:06.077000Z</time>
      </trkpt>
      <trkpt lat="37.87331630562144" lon="112.52778169055797">
        <time>2026-09-27T00:21:12.077000Z</time>
      </trkpt>
      <trkpt lat="37.87355282557522" lon="112.52778955444549">
        <time>2026-09-27T00:21:18.077000Z</time>
      </trkpt>
      <trkpt lat="37.87383354915256" lon="112.52784181559059">
        <time>2026-09-27T00:21:27.077000Z</time>
      </trkpt>
      <trkpt lat="37.874169656943415" lon="112.52786083499888">
        <time>2026-09-27T00:21:39.077000Z</time>
      </trkpt>
      <trkpt lat="37.874417744053616" lon="112.52787785851221">
        <time>2026-09-27T00:21:48.077000Z</time>
      </trkpt>
      <trkpt lat="37.87477081707983" lon="112.52788182956488">
        <time>2026-09-27T00:22:00.077000Z</time>
      </trkpt>
      <trkpt lat="37.87510697804346" lon="112.52792191381026">
        <time>2026-09-27T00:22:12.077000Z</time>
      </trkpt>
      <trkpt lat="37.875443113786964" lon="112.52795196712873">
        <time>2026-09-27T00:22:24.077000Z</time>
      </trkpt>
      <trkpt lat="37.875780247222224" lon="112.52798101721275">
        <time>2026-09-27T00:22:36.177000Z</time>
      </trkpt>
      <trkpt lat="37.87612341455779" lon="112.52802310667244">
        <time>2026-09-27T00:22:48.277000Z</time>
      </trkpt>
      <trkpt lat="37.87646151546057" lon="112.52803911647447">
        <time>2026-09-27T00:23:00.377000Z</time>
      </trkpt>
      <trkpt lat="37.87679366827822" lon="112.52807619172223">
        <time>2026-09-27T00:23:12.677000Z</time>
      </trkpt>
      <trkpt lat="37.87712282561755" lon="112.5281152734373">
        <time>2026-09-27T00:23:24.977000Z</time>
      </trkpt>
      <trkpt lat="37.87744695940673" lon="112.52814532795983">
        <time>2026-09-27T00:23:37.077000Z</time>
      </trkpt>
      <trkpt lat="37.877721079194956" lon="112.52817338214277">
        <time>2026-09-27T00:23:46.077000Z</time>
      </trkpt>
      <trkpt lat="37.87804219236053" lon="112.52819541232526">
        <time>2026-09-27T00:23:58.077000Z</time>
      </trkpt>
      <trkpt lat="37.87836530844415" lon="112.52821844533503">
        <time>2026-09-27T00:24:10.077000Z</time>
      </trkpt>
      <trkpt lat="37.878714446871044" lon="112.52824849682474">
        <time>2026-09-27T00:24:22.077000Z</time>
      </trkpt>
      <trkpt lat="37.879040563576574" lon="112.52827152944097">
        <time>2026-09-27T00:24:34.077000Z</time>
      </trkpt>
      <trkpt lat="37.87936368229537" lon="112.52829556546537">
        <time>2026-09-27T00:24:46.077000Z</time>
      </trkpt>
      <trkpt lat="37.879696800347865" lon="112.52831859722467">
        <time>2026-09-27T00:24:58.077000Z</time>
      </trkpt>
      <trkpt lat="37.88002094194645" lon="112.52835166075644">
        <time>2026-09-27T00:25:10.177000Z</time>
      </trkpt>
      <trkpt lat="37.880348111746905" lon="112.52839575769407">
        <time>2026-09-27T00:25:22.277000Z</time>
      </trkpt>
      <trkpt lat="37.88070025595456" lon="112.52842781478974">
        <time>2026-09-27T00:25:34.577000Z</time>
      </trkpt>
      <trkpt lat="37.881050382262316" lon="112.52845285059392">
        <time>2026-09-27T00:25:46.777000Z</time>
      </trkpt>
      <trkpt lat="37.881387498722916" lon="112.52847487868969">
        <time>2026-09-27T00:25:58.977000Z</time>
      </trkpt>
      <trkpt lat="37.88173860522937" lon="112.52849188978678">
        <time>2026-09-27T00:26:10.977000Z</time>
      </trkpt>
      <trkpt lat="37.882007731977765" lon="112.52852295342062">
        <time>2026-09-27T00:26:19.977000Z</time>
      </trkpt>
      <trkpt lat="37.8823428782895" lon="112.5285570184966">
        <time>2026-09-27T00:26:31.977000Z</time>
      </trkpt>
      <trkpt lat="37.882665012227804" lon="112.52858707279205">
        <time>2026-09-27T00:26:43.977000Z</time>
      </trkpt>
      <trkpt lat="37.882936126857395" lon="112.52861312076665">
        <time>2026-09-27T00:26:52.977000Z</time>
      </trkpt>
      <trkpt lat="37.883290246651384" lon="112.52863514674934">
        <time>2026-09-27T00:27:04.977000Z</time>
      </trkpt>
      <trkpt lat="37.88362839612968" lon="112.52867021440333">
        <time>2026-09-27T00:27:16.977000Z</time>
      </trkpt>
      <trkpt lat="37.88396952364775" lon="112.52869625411006">
        <time>2026-09-27T00:27:28.977000Z</time>
      </trkpt>
      <trkpt lat="37.88431861011457" lon="112.5287052408193">
        <time>2026-09-27T00:27:40.977000Z</time>
      </trkpt>
      <trkpt lat="37.884667691633204" lon="112.52871222140321">
        <time>2026-09-27T00:27:52.977000Z</time>
      </trkpt>
      <trkpt lat="37.884952751447074" lon="112.52871519723152">
        <time>2026-09-27T00:28:01.977000Z</time>
      </trkpt>
      <trkpt lat="37.88529881499989" lon="112.52871515673706">
        <time>2026-09-27T00:28:14.077000Z</time>
      </trkpt>
      <trkpt lat="37.88556885712425" lon="112.5287121159537">
        <time>2026-09-27T00:28:22.977000Z</time>
      </trkpt>
      <trkpt lat="37.88584686820905" lon="112.5286960344341">
        <time>2026-09-27T00:28:31.977000Z</time>
      </trkpt>
      <trkpt lat="37.88617981431478" lon="112.5286498545829">
        <time>2026-09-27T00:28:44.077000Z</time>
      </trkpt>
      <trkpt lat="37.88653167367475" lon="112.52856756206879">
        <time>2026-09-27T00:28:56.077000Z</time>
      </trkpt>
      <trkpt lat="37.886852602466476" lon="112.52851536500201">
        <time>2026-09-27T00:29:07.977000Z</time>
      </trkpt>
      <trkpt lat="37.88714451834915" lon="112.52846016202264">
        <time>2026-09-27T00:29:20.077000Z</time>
      </trkpt>
      <trkpt lat="37.88732844688431" lon="112.52841801151048">
        <time>2026-09-27T00:29:29.077000Z</time>
      </trkpt>
      <trkpt lat="37.887397517388" lon="112.52844107406959">
        <time>2026-09-27T00:29:32.077000Z</time>
      </trkpt>
      <trkpt lat="37.887490401469556" lon="112.5283879003846">
        <time>2026-09-27T00:29:35.077000Z</time>
      </trkpt>
      <trkpt lat="37.88776136112419" lon="112.528351758024">
        <time>2026-09-27T00:29:41.077000Z</time>
      </trkpt>
      <trkpt lat="37.88791535945632" lon="112.52833970310694">
        <time>2026-09-27T00:29:47.077000Z</time>
      </trkpt>
      <trkpt lat="37.888179219740906" lon="112.5282644415291">
        <time>2026-09-27T00:29:56.177000Z</time>
      </trkpt>
      <trkpt lat="37.88849625079427" lon="112.52825337056906">
        <time>2026-09-27T00:30:11.277000Z</time>
      </trkpt>
      <trkpt lat="37.88874898049719" lon="112.52812695292505">
        <time>2026-09-27T00:30:20.377000Z</time>
      </trkpt>
      <trkpt lat="37.888904848152364" lon="112.52806273735598">
        <time>2026-09-27T00:30:26.477000Z</time>
      </trkpt>
      <trkpt lat="37.889213807168765" lon="112.52802358087433">
        <time>2026-09-27T00:30:38.777000Z</time>
      </trkpt>
      <trkpt lat="37.8893518075761" lon="112.52801353386101">
        <time>2026-09-27T00:30:44.977000Z</time>
      </trkpt>
      <trkpt lat="37.88963156432375" lon="112.5278961398067">
        <time>2026-09-27T00:30:53.977000Z</time>
      </trkpt>
      <trkpt lat="37.88997537310095" lon="112.52779478727719">
        <time>2026-09-27T00:31:05.977000Z</time>
      </trkpt>
      <trkpt lat="37.89029013323789" lon="112.52767638513545">
        <time>2026-09-27T00:31:18.077000Z</time>
      </trkpt>
      <trkpt lat="37.89060983568922" lon="112.52753491057959">
        <time>2026-09-27T00:31:30.077000Z</time>
      </trkpt>
      <trkpt lat="37.89091555282228" lon="112.52740045872387">
        <time>2026-09-27T00:31:42.077000Z</time>
      </trkpt>
      <trkpt lat="37.8912282784588" lon="112.52726901476262">
        <time>2026-09-27T00:31:54.077000Z</time>
      </trkpt>
      <trkpt lat="37.891535962029074" lon="112.52712152093714">
        <time>2026-09-27T00:32:06.077000Z</time>
      </trkpt>
      <trkpt lat="37.89184352777191" lon="112.52692788274734">
        <time>2026-09-27T00:32:18.177000Z</time>
      </trkpt>
      <trkpt lat="37.89214410917003" lon="112.526741266015">
        <time>2026-09-27T00:32:30.177000Z</time>
      </trkpt>
      <trkpt lat="37.89243462638579" lon="112.52653057401679">
        <time>2026-09-27T00:32:42.277000Z</time>
      </trkpt>
      <trkpt lat="37.8927171307407" lon="112.52631586889558">
        <time>2026-09-27T00:32:54.477000Z</time>
      </trkpt>
      <trkpt lat="37.89299665654433" lon="112.52611019094648">
        <time>2026-09-27T00:33:06.677000Z</time>
      </trkpt>
      <trkpt lat="37.89330215268945" lon="112.52589146750239">
        <time>2026-09-27T00:33:18.977000Z</time>
      </trkpt>
      <trkpt lat="37.89352968468166" lon="112.52569281491519">
        <time>2026-09-27T00:33:27.977000Z</time>
      </trkpt>
      <trkpt lat="37.89381812624716" lon="112.52545503020373">
        <time>2026-09-27T00:33:39.977000Z</time>
      </trkpt>
      <trkpt lat="37.89410368518593" lon="112.52526339023596">
        <time>2026-09-27T00:33:51.977000Z</time>
      </trkpt>
      <trkpt lat="37.894337243863696" lon="112.52507576791174">
        <time>2026-09-27T00:34:00.977000Z</time>
      </trkpt>
      <trkpt lat="37.894616763514264" lon="112.52487008162947">
        <time>2026-09-27T00:34:12.977000Z</time>
      </trkpt>
      <trkpt lat="37.89490121269067" lon="112.52463730706168">
        <time>2026-09-27T00:34:24.977000Z</time>
      </trkpt>
      <trkpt lat="37.89518665554855" lon="112.52440252424039">
        <time>2026-09-27T00:34:37.177000Z</time>
      </trkpt>
      <trkpt lat="37.895463113754055" lon="112.52417476322309">
        <time>2026-09-27T00:34:49.177000Z</time>
      </trkpt>
      <trkpt lat="37.89574651956673" lon="112.52392693534573">
        <time>2026-09-27T00:35:01.277000Z</time>
      </trkpt>
      <trkpt lat="37.89602997920929" lon="112.52370017334334">
        <time>2026-09-27T00:35:13.377000Z</time>
      </trkpt>
      <trkpt lat="37.89632540303096" lon="112.52345936304792">
        <time>2026-09-27T00:35:25.577000Z</time>
      </trkpt>
      <trkpt lat="37.89659486552907" lon="112.52323560913827">
        <time>2026-09-27T00:35:37.777000Z</time>
      </trkpt>
      <trkpt lat="37.89672752059692" lon="112.52309513933179">
        <time>2026-09-27T00:35:43.877000Z</time>
      </trkpt>
      <trkpt lat="37.89696910313745" lon="112.52291954234099">
        <time>2026-09-27T00:35:52.977000Z</time>
      </trkpt>
      <trkpt lat="37.897259566890334" lon="112.52269578228895">
        <time>2026-09-27T00:36:04.977000Z</time>
      </trkpt>
      <trkpt lat="37.89755106961321" lon="112.52248706958748">
        <time>2026-09-27T00:36:16.977000Z</time>
      </trkpt>
      <trkpt lat="37.897817438745136" lon="112.52223020147011">
        <time>2026-09-27T00:36:29.077000Z</time>
      </trkpt>
      <trkpt lat="37.89811589794678" lon="112.52200543258671">
        <time>2026-09-27T00:36:40.977000Z</time>
      </trkpt>
      <trkpt lat="37.89840335396556" lon="112.52178066350416">
        <time>2026-09-27T00:36:53.077000Z</time>
      </trkpt>
      <trkpt lat="37.89863091003882" lon="112.52159803823876">
        <time>2026-09-27T00:37:05.077000Z</time>
      </trkpt>
      <trkpt lat="37.89868574897707" lon="112.52153382108985">
        <time>2026-09-27T00:37:08.077000Z</time>
      </trkpt>
      <trkpt lat="37.89896923702022" lon="112.52134562727147">
        <time>2026-09-27T00:37:17.077000Z</time>
      </trkpt>
      <trkpt lat="37.899251723619884" lon="112.52111036228264">
        <time>2026-09-27T00:37:29.077000Z</time>
      </trkpt>
      <trkpt lat="37.89939956344202" lon="112.52104011346594">
        <time>2026-09-27T00:37:35.077000Z</time>
      </trkpt>
      <trkpt lat="37.89962803326935" lon="112.52082638147708">
        <time>2026-09-27T00:37:44.077000Z</time>
      </trkpt>
      <trkpt lat="37.8999154188399" lon="112.52057752506374">
        <time>2026-09-27T00:37:56.077000Z</time>
      </trkpt>
      <trkpt lat="37.90018982229561" lon="112.52033669505003">
        <time>2026-09-27T00:38:08.077000Z</time>
      </trkpt>
      <trkpt lat="37.900484301580626" lon="112.5201229510699">
        <time>2026-09-27T00:38:20.077000Z</time>
      </trkpt>
      <trkpt lat="37.900773830580555" lon="112.51992826984483">
        <time>2026-09-27T00:38:32.077000Z</time>
      </trkpt>
      <trkpt lat="37.90106841960083" lon="112.51975566054473">
        <time>2026-09-27T00:38:44.077000Z</time>
      </trkpt>
      <trkpt lat="37.90140100169446" lon="112.51957802921993">
        <time>2026-09-27T00:38:56.077000Z</time>
      </trkpt>
      <trkpt lat="37.901719585956776" lon="112.51940240538363">
        <time>2026-09-27T00:39:08.177000Z</time>
      </trkpt>
      <trkpt lat="37.90202219386235" lon="112.51923681616547">
        <time>2026-09-27T00:39:20.277000Z</time>
      </trkpt>
      <trkpt lat="37.90233880666415" lon="112.51907222792286">
        <time>2026-09-27T00:39:32.377000Z</time>
      </trkpt>
      <trkpt lat="37.90263743466074" lon="112.5189146646313">
        <time>2026-09-27T00:39:44.577000Z</time>
      </trkpt>
      <trkpt lat="37.90294397057895" lon="112.51872298512983">
        <time>2026-09-27T00:39:56.977000Z</time>
      </trkpt>
      <trkpt lat="37.90320257889097" lon="112.51856141157334">
        <time>2026-09-27T00:40:06.077000Z</time>
      </trkpt>
      <trkpt lat="37.90327851941099" lon="112.51853431149097">
        <time>2026-09-27T00:40:09.077000Z</time>
      </trkpt>
      <trkpt lat="37.903408267152734" lon="112.51843295507646">
        <time>2026-09-27T00:40:15.077000Z</time>
      </trkpt>
      <trkpt lat="37.90372288810049" lon="112.51827237708595">
        <time>2026-09-27T00:40:27.077000Z</time>
      </trkpt>
      <trkpt lat="37.904033458269126" lon="112.51809373791689">
        <time>2026-09-27T00:40:39.077000Z</time>
      </trkpt>
      <trkpt lat="37.90432991489911" lon="112.51787496385158">
        <time>2026-09-27T00:40:51.077000Z</time>
      </trkpt>
      <trkpt lat="37.90464041198817" lon="112.51767023449271">
        <time>2026-09-27T00:41:03.077000Z</time>
      </trkpt>
      <trkpt lat="37.90494493203626" lon="112.51747453540303">
        <time>2026-09-27T00:41:15.077000Z</time>
      </trkpt>
      <trkpt lat="37.9052384437325" lon="112.51727682981922">
        <time>2026-09-27T00:41:27.177000Z</time>
      </trkpt>
      <trkpt lat="37.905467105700616" lon="112.51713833225476">
        <time>2026-09-27T00:41:36.177000Z</time>
      </trkpt>
      <trkpt lat="37.905740554067165" lon="112.51691955559318">
        <time>2026-09-27T00:41:48.177000Z</time>
      </trkpt>
      <trkpt lat="37.90602410354297" lon="112.51673689977805">
        <time>2026-09-27T00:42:00.177000Z</time>
      </trkpt>
      <trkpt lat="37.906318640650035" lon="112.51654922471313">
        <time>2026-09-27T00:42:12.277000Z</time>
      </trkpt>
      <trkpt lat="37.90659623234674" lon="112.51638262283724">
        <time>2026-09-27T00:42:24.477000Z</time>
      </trkpt>
      <trkpt lat="37.906884744832546" lon="112.5161869193731">
        <time>2026-09-27T00:42:36.777000Z</time>
      </trkpt>
      <trkpt lat="37.90721821231963" lon="112.51597214432114">
        <time>2026-09-27T00:42:48.977000Z</time>
      </trkpt>
      <trkpt lat="37.90734103224519" lon="112.51589887861434">
        <time>2026-09-27T00:42:54.977000Z</time>
      </trkpt>
      <trkpt lat="37.90740083707408" lon="112.51582461675056">
        <time>2026-09-27T00:42:57.977000Z</time>
      </trkpt>
      <trkpt lat="37.90735573609944" lon="112.51579150837738">
        <time>2026-09-27T00:43:00.977000Z</time>
      </trkpt>
      <trkpt lat="37.90706118469962" lon="112.51597316623987">
        <time>2026-09-27T00:43:10.077000Z</time>
      </trkpt>
      <trkpt lat="37.90677545035134" lon="112.51608859540924">
        <time>2026-09-27T00:43:19.077000Z</time>
      </trkpt>
      <trkpt lat="37.90653084918679" lon="112.51624917398459">
        <time>2026-09-27T00:43:28.077000Z</time>
      </trkpt>
      <trkpt lat="37.90622540004478" lon="112.51646896144494">
        <time>2026-09-27T00:43:40.177000Z</time>
      </trkpt>
      <trkpt lat="37.90591191793378" lon="112.51667771101171">
        <time>2026-09-27T00:43:52.277000Z</time>
      </trkpt>
      <trkpt lat="37.90559544002918" lon="112.51688846669644">
        <time>2026-09-27T00:44:04.377000Z</time>
      </trkpt>
      <trkpt lat="37.905348802957185" lon="112.51703700138843">
        <time>2026-09-27T00:44:13.677000Z</time>
      </trkpt>
      <trkpt lat="37.90504026156058" lon="112.51722467582832">
        <time>2026-09-27T00:44:25.977000Z</time>
      </trkpt>
      <trkpt lat="37.9047716885226" lon="112.51739829700375">
        <time>2026-09-27T00:44:35.077000Z</time>
      </trkpt>
      <trkpt lat="37.904479140707224" lon="112.51758295765066">
        <time>2026-09-27T00:44:47.077000Z</time>
      </trkpt>
      <trkpt lat="37.904182677022234" lon="112.51779872316745">
        <time>2026-09-27T00:44:59.077000Z</time>
      </trkpt>
      <trkpt lat="37.9038831485456" lon="112.51799140987202">
        <time>2026-09-27T00:45:11.077000Z</time>
      </trkpt>
      <trkpt lat="37.90356867976358" lon="112.51820717523762">
        <time>2026-09-27T00:45:23.077000Z</time>
      </trkpt>
      <trkpt lat="37.90325603470205" lon="112.51835872283861">
        <time>2026-09-27T00:45:35.077000Z</time>
      </trkpt>
      <trkpt lat="37.903015416770636" lon="112.51851527825673">
        <time>2026-09-27T00:45:44.077000Z</time>
      </trkpt>
      <trkpt lat="37.90268579774837" lon="112.51867786372662">
        <time>2026-09-27T00:45:56.177000Z</time>
      </trkpt>
      <trkpt lat="37.902379242877835" lon="112.51886251988317">
        <time>2026-09-27T00:46:08.277000Z</time>
      </trkpt>
      <trkpt lat="37.902059679403536" lon="112.51904516993352">
        <time>2026-09-27T00:46:20.377000Z</time>
      </trkpt>
      <trkpt lat="37.90174303942767" lon="112.51919972471028">
        <time>2026-09-27T00:46:32.777000Z</time>
      </trkpt>
      <trkpt lat="37.90149137871425" lon="112.51934223095031">
        <time>2026-09-27T00:46:41.877000Z</time>
      </trkpt>
      <trkpt lat="37.90114479479628" lon="112.51951986506111">
        <time>2026-09-27T00:46:53.977000Z</time>
      </trkpt>
      <trkpt lat="37.90088714838883" lon="112.51966839083991">
        <time>2026-09-27T00:47:03.077000Z</time>
      </trkpt>
      <trkpt lat="37.900644539744555" lon="112.51982995769032">
        <time>2026-09-27T00:47:12.077000Z</time>
      </trkpt>
      <trkpt lat="37.90039386662797" lon="112.5199684480083">
        <time>2026-09-27T00:47:21.077000Z</time>
      </trkpt>
      <trkpt lat="37.9000964199972" lon="112.52019423323237">
        <time>2026-09-27T00:47:33.077000Z</time>
      </trkpt>
      <trkpt lat="37.899793971375665" lon="112.52042001762382">
        <time>2026-09-27T00:47:45.077000Z</time>
      </trkpt>
      <trkpt lat="37.899504610575256" lon="112.52067790523435">
        <time>2026-09-27T00:47:57.077000Z</time>
      </trkpt>
      <trkpt lat="37.89923320870611" lon="112.5209197358831">
        <time>2026-09-27T00:48:09.077000Z</time>
      </trkpt>
      <trkpt lat="37.89893775801446" lon="112.52114551481954">
        <time>2026-09-27T00:48:21.077000Z</time>
      </trkpt>
      <trkpt lat="37.89878602478936" lon="112.52125589595653">
        <time>2026-09-27T00:48:27.077000Z</time>
      </trkpt>
      <trkpt lat="37.89856355150293" lon="112.52146862130752">
        <time>2026-09-27T00:48:39.077000Z</time>
      </trkpt>
      <trkpt lat="37.89849970558894" lon="112.52153083304805">
        <time>2026-09-27T00:48:42.177000Z</time>
      </trkpt>
      <trkpt lat="37.89845888807352" lon="112.52160207159609">
        <time>2026-09-27T00:48:45.177000Z</time>
      </trkpt>
      <trkpt lat="37.89836510857152" lon="112.52169137541445">
        <time>2026-09-27T00:48:48.177000Z</time>
      </trkpt>
      <trkpt lat="37.89817236424732" lon="112.52178106117279">
        <time>2026-09-27T00:48:54.177000Z</time>
      </trkpt>
      <trkpt lat="37.898074375823036" lon="112.52184071797032">
        <time>2026-09-27T00:48:57.177000Z</time>
      </trkpt>
      <trkpt lat="37.89777401456934" lon="112.52207369564486">
        <time>2026-09-27T00:49:09.277000Z</time>
      </trkpt>
      <trkpt lat="37.89747552843206" lon="112.52228843136484">
        <time>2026-09-27T00:49:21.377000Z</time>
      </trkpt>
      <trkpt lat="37.89719818349556" lon="112.52255533295317">
        <time>2026-09-27T00:49:33.677000Z</time>
      </trkpt>
      <trkpt lat="37.896901764425316" lon="112.52279615000273">
        <time>2026-09-27T00:49:45.977000Z</time>
      </trkpt>
      <trkpt lat="37.89665222589241" lon="112.5229888038368">
        <time>2026-09-27T00:49:54.977000Z</time>
      </trkpt>
      <trkpt lat="37.896363769009675" lon="112.52321557139037">
        <time>2026-09-27T00:50:07.077000Z</time>
      </trkpt>
      <trkpt lat="37.896133261266094" lon="112.52341925613601">
        <time>2026-09-27T00:50:16.077000Z</time>
      </trkpt>
      <trkpt lat="37.895838748389146" lon="112.52362595680377">
        <time>2026-09-27T00:50:28.077000Z</time>
      </trkpt>
      <trkpt lat="37.895552346399036" lon="112.523874790578">
        <time>2026-09-27T00:50:40.077000Z</time>
      </trkpt>
      <trkpt lat="37.89525989728692" lon="112.52410656847442">
        <time>2026-09-27T00:50:52.077000Z</time>
      </trkpt>
      <trkpt lat="37.89498352055692" lon="112.52436542940909">
        <time>2026-09-27T00:51:04.077000Z</time>
      </trkpt>
      <trkpt lat="37.89468505461416" lon="112.52459218843113">
        <time>2026-09-27T00:51:16.077000Z</time>
      </trkpt>
      <trkpt lat="37.8943916014252" lon="112.52482396119412">
        <time>2026-09-27T00:51:28.077000Z</time>
      </trkpt>
      <trkpt lat="37.89410215810857" lon="112.52505974450877">
        <time>2026-09-27T00:51:40.077000Z</time>
      </trkpt>
      <trkpt lat="37.89384666281707" lon="112.52527345214251">
        <time>2026-09-27T00:51:52.077000Z</time>
      </trkpt>
      <trkpt lat="37.89360512765296" lon="112.52547110591745">
        <time>2026-09-27T00:52:01.077000Z</time>
      </trkpt>
      <trkpt lat="37.89331866315825" lon="112.52569986179333">
        <time>2026-09-27T00:52:13.077000Z</time>
      </trkpt>
      <trkpt lat="37.89302917879491" lon="112.5259215942108">
        <time>2026-09-27T00:52:25.077000Z</time>
      </trkpt>
      <trkpt lat="37.89274771529822" lon="112.52615134926434">
        <time>2026-09-27T00:52:37.077000Z</time>
      </trkpt>
      <trkpt lat="37.89245823104917" lon="112.526374081515">
        <time>2026-09-27T00:52:49.177000Z</time>
      </trkpt>
      <trkpt lat="37.892149708747624" lon="112.52658377359033">
        <time>2026-09-27T00:53:01.177000Z</time>
      </trkpt>
      <trkpt lat="37.89184411950613" lon="112.52676738251142">
        <time>2026-09-27T00:53:13.177000Z</time>
      </trkpt>
      <trkpt lat="37.89159344023893" lon="112.52691186206017">
        <time>2026-09-27T00:53:22.277000Z</time>
      </trkpt>
      <trkpt lat="37.89127181597854" lon="112.52708343341057">
        <time>2026-09-27T00:53:34.377000Z</time>
      </trkpt>
      <trkpt lat="37.89095017066434" lon="112.52724697886399">
        <time>2026-09-27T00:53:46.577000Z</time>
      </trkpt>
      <trkpt lat="37.89061846953153" lon="112.52738945932981">
        <time>2026-09-27T00:53:58.777000Z</time>
      </trkpt>
      <trkpt lat="37.890245755216625" lon="112.52752993769603">
        <time>2026-09-27T00:54:10.977000Z</time>
      </trkpt>
      <trkpt lat="37.889897943826625" lon="112.52763028852247">
        <time>2026-09-27T00:54:22.977000Z</time>
      </trkpt>
      <trkpt lat="37.8895661655576" lon="112.5277426742706">
        <time>2026-09-27T00:54:34.977000Z</time>
      </trkpt>
      <trkpt lat="37.88929624941703" lon="112.52779586987876">
        <time>2026-09-27T00:54:43.977000Z</time>
      </trkpt>
      <trkpt lat="37.88895144813947" lon="112.52790023178696">
        <time>2026-09-27T00:54:55.977000Z</time>
      </trkpt>
      <trkpt lat="37.88862058615696" lon="112.52797951451544">
        <time>2026-09-27T00:55:07.977000Z</time>
      </trkpt>
      <trkpt lat="37.888279737333676" lon="112.52806481669884">
        <time>2026-09-27T00:55:19.977000Z</time>
      </trkpt>
      <trkpt lat="37.88794394721786" lon="112.52817318889402">
        <time>2026-09-27T00:55:31.977000Z</time>
      </trkpt>
      <trkpt lat="37.88760913690739" lon="112.52827353594893">
        <time>2026-09-27T00:55:43.977000Z</time>
      </trkpt>
      <trkpt lat="37.88736218681158" lon="112.52831168174961">
        <time>2026-09-27T00:55:52.977000Z</time>
      </trkpt>
      <trkpt lat="37.887299162600044" lon="112.52830667374785">
        <time>2026-09-27T00:55:55.977000Z</time>
      </trkpt>
      <trkpt lat="37.88700935029657" lon="112.52840300277525">
        <time>2026-09-27T00:56:10.977000Z</time>
      </trkpt>
      <trkpt lat="37.8868781162706" lon="112.52843573004648">
        <time>2026-09-27T00:56:13.977000Z</time>
      </trkpt>
      <trkpt lat="37.88653936403411" lon="112.52844318064533">
        <time>2026-09-27T00:56:22.977000Z</time>
      </trkpt>
      <trkpt lat="37.88620245000989" lon="112.52850240119727">
        <time>2026-09-27T00:56:34.977000Z</time>
      </trkpt>
      <trkpt lat="37.88586649600818" lon="112.5285455724397">
        <time>2026-09-27T00:56:46.977000Z</time>
      </trkpt>
      <trkpt lat="37.8855175195668" lon="112.52858072061179">
        <time>2026-09-27T00:56:58.977000Z</time>
      </trkpt>
      <trkpt lat="37.8852464647414" lon="112.5285787461988">
        <time>2026-09-27T00:57:08.077000Z</time>
      </trkpt>
      <trkpt lat="37.884900381140405" lon="112.5285707621675">
        <time>2026-09-27T00:57:19.977000Z</time>
      </trkpt>
      <trkpt lat="37.884559348657795" lon="112.5285828388684">
        <time>2026-09-27T00:57:31.977000Z</time>
      </trkpt>
      <trkpt lat="37.8842642293883" lon="112.52855679367605">
        <time>2026-09-27T00:57:44.077000Z</time>
      </trkpt>
      <trkpt lat="37.88391809829795" lon="112.52852975136145">
        <time>2026-09-27T00:57:56.077000Z</time>
      </trkpt>
      <trkpt lat="37.883758063995174" lon="112.52852776395231">
        <time>2026-09-27T00:58:02.077000Z</time>
      </trkpt>
      <trkpt lat="37.88340783185279" lon="112.52846059931032">
        <time>2026-09-27T00:58:14.077000Z</time>
      </trkpt>
      <trkpt lat="37.883083707369984" lon="112.52843455740114">
        <time>2026-09-27T00:58:26.077000Z</time>
      </trkpt>
      <trkpt lat="37.88280059793923" lon="112.5284115198848">
        <time>2026-09-27T00:58:35.177000Z</time>
      </trkpt>
      <trkpt lat="37.88248551284297" lon="112.52840052296138">
        <time>2026-09-27T00:58:47.177000Z</time>
      </trkpt>
      <trkpt lat="37.88221133224365" lon="112.52834839523906">
        <time>2026-09-27T00:58:56.277000Z</time>
      </trkpt>
      <trkpt lat="37.881863138136865" lon="112.52829627608325">
        <time>2026-09-27T00:59:08.377000Z</time>
      </trkpt>
      <trkpt lat="37.88153408581638" lon="112.52829932381451">
        <time>2026-09-27T00:59:20.777000Z</time>
      </trkpt>
      <trkpt lat="37.88115095835348" lon="112.52827629789323">
        <time>2026-09-27T00:59:32.977000Z</time>
      </trkpt>
      <trkpt lat="37.880813839300025" lon="112.52825326656986">
        <time>2026-09-27T00:59:44.977000Z</time>
      </trkpt>
      <trkpt lat="37.88047979128398" lon="112.52825832104332">
        <time>2026-09-27T00:59:56.977000Z</time>
      </trkpt>
      <trkpt lat="37.88013460797017" lon="112.52821021368865">
        <time>2026-09-27T01:00:08.977000Z</time>
      </trkpt>
      <trkpt lat="37.879802502544095" lon="112.52819219712333">
        <time>2026-09-27T01:00:20.977000Z</time>
      </trkpt>
      <trkpt lat="37.879445299463825" lon="112.52813706949657">
        <time>2026-09-27T01:00:33.077000Z</time>
      </trkpt>
      <trkpt lat="37.87916618857776" lon="112.52811302819231">
        <time>2026-09-27T01:00:42.077000Z</time>
      </trkpt>
      <trkpt lat="37.87882601881714" lon="112.52806993542882">
        <time>2026-09-27T01:00:53.977000Z</time>
      </trkpt>
      <trkpt lat="37.878647989220205" lon="112.52807095934341">
        <time>2026-09-27T01:00:59.977000Z</time>
      </trkpt>
      <trkpt lat="37.87829677212264" lon="112.52800981227224">
        <time>2026-09-27T01:01:11.977000Z</time>
      </trkpt>
      <trkpt lat="37.87795276564716" lon="112.52803192040145">
        <time>2026-09-27T01:01:23.977000Z</time>
      </trkpt>
      <trkpt lat="37.87763153886798" lon="112.52796475121625">
        <time>2026-09-27T01:01:36.077000Z</time>
      </trkpt>
      <trkpt lat="37.87735949248904" lon="112.52796578613466">
        <time>2026-09-27T01:01:45.077000Z</time>
      </trkpt>
      <trkpt lat="37.877087307316614" lon="112.52791165122031">
        <time>2026-09-27T01:01:54.077000Z</time>
      </trkpt>
      <trkpt lat="37.876738196698206" lon="112.52789263336905">
        <time>2026-09-27T01:02:06.077000Z</time>
      </trkpt>
      <trkpt lat="37.87638196360252" lon="112.5278254679592">
        <time>2026-09-27T01:02:18.177000Z</time>
      </trkpt>
      <trkpt lat="37.87610784374731" lon="112.52779741344159">
        <time>2026-09-27T01:02:27.177000Z</time>
      </trkpt>
      <trkpt lat="37.875832706030195" lon="112.52776233735739">
        <time>2026-09-27T01:02:36.177000Z</time>
      </trkpt>
      <trkpt lat="37.875497608187494" lon="112.52774733014849">
        <time>2026-09-27T01:02:48.277000Z</time>
      </trkpt>
      <trkpt lat="37.87514947518859" lon="112.52771928421576">
        <time>2026-09-27T01:03:00.377000Z</time>
      </trkpt>
      <trkpt lat="37.874798334105726" lon="112.52768822931799">
        <time>2026-09-27T01:03:12.677000Z</time>
      </trkpt>
      <trkpt lat="37.87451928942539" lon="112.52769026816053">
        <time>2026-09-27T01:03:21.877000Z</time>
      </trkpt>
      <trkpt lat="37.87421714197025" lon="112.52765318891245">
        <time>2026-09-27T01:03:30.977000Z</time>
      </trkpt>
      <trkpt lat="37.873946020304125" lon="112.52762413077993">
        <time>2026-09-27T01:03:39.977000Z</time>
      </trkpt>
      <trkpt lat="37.873579864036266" lon="112.52758806203768">
        <time>2026-09-27T01:03:51.977000Z</time>
      </trkpt>
      <trkpt lat="37.87324874696576" lon="112.5275650294665">
        <time>2026-09-27T01:04:03.977000Z</time>
      </trkpt>
      <trkpt lat="37.872943664967025" lon="112.52755403104906">
        <time>2026-09-27T01:04:15.977000Z</time>
      </trkpt>
      <trkpt lat="37.8726371103661" lon="112.52750694757829">
        <time>2026-09-27T01:04:24.977000Z</time>
      </trkpt>
      <trkpt lat="37.872364448286625" lon="112.52750895922456">
        <time>2026-09-27T01:04:33.977000Z</time>
      </trkpt>
      <trkpt lat="37.87201829322279" lon="112.5274718848967">
        <time>2026-09-27T01:04:45.977000Z</time>
      </trkpt>
      <trkpt lat="37.87172317003636" lon="112.5274438324982">
        <time>2026-09-27T01:04:58.077000Z</time>
      </trkpt>
      <trkpt lat="37.87144301906582" lon="112.52740374104704">
        <time>2026-09-27T01:05:07.077000Z</time>
      </trkpt>
      <trkpt lat="37.87110688361203" lon="112.52737368716741">
        <time>2026-09-27T01:05:19.177000Z</time>
      </trkpt>
      <trkpt lat="37.870761794865906" lon="112.52736269335848">
        <time>2026-09-27T01:05:31.177000Z</time>
      </trkpt>
      <trkpt lat="37.87040964144725" lon="112.52732662265765">
        <time>2026-09-27T01:05:43.277000Z</time>
      </trkpt>
      <trkpt lat="37.87005457646785" lon="112.52732566108975">
        <time>2026-09-27T01:05:55.377000Z</time>
      </trkpt>
      <trkpt lat="37.86970541605371" lon="112.52728658066262">
        <time>2026-09-27T01:06:07.677000Z</time>
      </trkpt>
      <trkpt lat="37.869357255842345" lon="112.52724750006692">
        <time>2026-09-27T01:06:19.877000Z</time>
      </trkpt>
      <trkpt lat="37.86907408924242" lon="112.52720139002423">
        <time>2026-09-27T01:06:28.977000Z</time>
      </trkpt>
      <trkpt lat="37.86888999849428" lon="112.52717833994919">
        <time>2026-09-27T01:06:34.977000Z</time>
      </trkpt>
      <trkpt lat="37.86880190928739" lon="112.52714925993534">
        <time>2026-09-27T01:06:37.977000Z</time>
      </trkpt>
      <trkpt lat="37.86847182099412" lon="112.52713726117204">
        <time>2026-09-27T01:06:49.977000Z</time>
      </trkpt>
      <trkpt lat="37.86816869419458" lon="112.5271082062764">
        <time>2026-09-27T01:07:01.977000Z</time>
      </trkpt>
      <trkpt lat="37.86786755758558" lon="112.52707513864996">
        <time>2026-09-27T01:07:10.977000Z</time>
      </trkpt>
      <trkpt lat="37.8675584374382" lon="112.52704909375">
        <time>2026-09-27T01:07:22.977000Z</time>
      </trkpt>
      <trkpt lat="37.86727832237948" lon="112.52702304543378">
        <time>2026-09-27T01:07:31.977000Z</time>
      </trkpt>
      <trkpt lat="37.86711732236458" lon="112.52703409857868">
        <time>2026-09-27T01:07:38.077000Z</time>
      </trkpt>
      <trkpt lat="37.86678218250321" lon="112.52700203796795">
        <time>2026-09-27T01:07:50.077000Z</time>
      </trkpt>
      <trkpt lat="37.866456097781736" lon="112.52699104179614">
        <time>2026-09-27T01:08:02.077000Z</time>
      </trkpt>
      <trkpt lat="37.86610489912458" lon="112.52693691434038">
        <time>2026-09-27T01:08:14.077000Z</time>
      </trkpt>
      <trkpt lat="37.865772716515394" lon="112.52688780018097">
        <time>2026-09-27T01:08:26.077000Z</time>
      </trkpt>
      <trkpt lat="37.86544070746226" lon="112.52690689836707">
        <time>2026-09-27T01:08:38.077000Z</time>
      </trkpt>
      <trkpt lat="37.86511457957878" lon="112.52687884906152">
        <time>2026-09-27T01:08:50.077000Z</time>
      </trkpt>
      <trkpt lat="37.86485649922688" lon="112.52686483551463">
        <time>2026-09-27T01:08:59.077000Z</time>
      </trkpt>
      <trkpt lat="37.86471930191884" lon="112.52679663902393">
        <time>2026-09-27T01:09:05.077000Z</time>
      </trkpt>
      <trkpt lat="37.86438829583629" lon="112.52681674027596">
        <time>2026-09-27T01:09:17.077000Z</time>
      </trkpt>
      <trkpt lat="37.8641091378673" lon="112.5267736384822">
        <time>2026-09-27T01:09:26.177000Z</time>
      </trkpt>
      <trkpt lat="37.863764011973544" lon="112.52674759753114">
        <time>2026-09-27T01:09:38.277000Z</time>
      </trkpt>
      <trkpt lat="37.863416873005185" lon="112.52671654114634">
        <time>2026-09-27T01:09:50.377000Z</time>
      </trkpt>
      <trkpt lat="37.8630687799339" lon="112.52670354118331">
        <time>2026-09-27T01:10:02.677000Z</time>
      </trkpt>
      <trkpt lat="37.86289878140707" lon="112.52671559862593">
        <time>2026-09-27T01:10:08.777000Z</time>
      </trkpt>
      <trkpt lat="37.86254561086903" lon="112.52667250534557">
        <time>2026-09-27T01:10:20.977000Z</time>
      </trkpt>
      <trkpt lat="37.862243469562195" lon="112.52663743109113">
        <time>2026-09-27T01:10:29.977000Z</time>
      </trkpt>
      <trkpt lat="37.86196534518152" lon="112.52660736965176">
        <time>2026-09-27T01:10:39.077000Z</time>
      </trkpt>
      <trkpt lat="37.861611200145" lon="112.52657430767339">
        <time>2026-09-27T01:10:51.077000Z</time>
      </trkpt>
      <trkpt lat="37.861258029714236" lon="112.52653121419108">
        <time>2026-09-27T01:11:03.077000Z</time>
      </trkpt>
      <trkpt lat="37.86091285042417" lon="112.52648410716436">
        <time>2026-09-27T01:11:15.077000Z</time>
      </trkpt>
      <trkpt lat="37.86055870037408" lon="112.52644903877527">
        <time>2026-09-27T01:11:27.077000Z</time>
      </trkpt>
      <trkpt lat="37.8602155727502" lon="112.52642199417033">
        <time>2026-09-27T01:11:39.077000Z</time>
      </trkpt>
      <trkpt lat="37.85987643303323" lon="112.52638993337408">
        <time>2026-09-27T01:11:51.077000Z</time>
      </trkpt>
      <trkpt lat="37.85970542449192" lon="112.5263979784994">
        <time>2026-09-27T01:11:57.077000Z</time>
      </trkpt>
      <trkpt lat="37.859428290247756" lon="112.52636390414212">
        <time>2026-09-27T01:12:06.077000Z</time>
      </trkpt>
      <trkpt lat="37.859148163209326" lon="112.52633283952306">
        <time>2026-09-27T01:12:15.077000Z</time>
      </trkpt>
      <trkpt lat="37.85879602656527" lon="112.52630278643903">
        <time>2026-09-27T01:12:27.077000Z</time>
      </trkpt>
      <trkpt lat="37.85844492608676" lon="112.52628677721745">
        <time>2026-09-27T01:12:39.177000Z</time>
      </trkpt>
      <trkpt lat="37.85808781182201" lon="112.52626575296973">
        <time>2026-09-27T01:12:51.177000Z</time>
      </trkpt>
      <trkpt lat="37.85776773468437" lon="112.52625676211184">
        <time>2026-09-27T01:13:03.277000Z</time>
      </trkpt>
      <trkpt lat="37.85744660092641" lon="112.52622570218">
        <time>2026-09-27T01:13:18.377000Z</time>
      </trkpt>
      <trkpt lat="37.85734168340259" lon="112.52626483710478">
        <time>2026-09-27T01:13:21.477000Z</time>
      </trkpt>
      <trkpt lat="37.85701756720851" lon="112.52624079954603">
        <time>2026-09-27T01:13:30.677000Z</time>
      </trkpt>
      <trkpt lat="37.856840537431474" lon="112.5262408202538">
        <time>2026-09-27T01:13:36.777000Z</time>
      </trkpt>
      <trkpt lat="37.85665943250163" lon="112.52621175021784">
        <time>2026-09-27T01:13:42.877000Z</time>
      </trkpt>
      <trkpt lat="37.856375418192876" lon="112.52622482433483">
        <time>2026-09-27T01:13:51.977000Z</time>
      </trkpt>
      <trkpt lat="37.85604037996263" lon="112.52623188554243">
        <time>2026-09-27T01:14:03.977000Z</time>
      </trkpt>
      <trkpt lat="37.85570033325535" lon="112.52623593789808">
        <time>2026-09-27T01:14:15.977000Z</time>
      </trkpt>
      <trkpt lat="37.855358268302126" lon="112.52623296847261">
        <time>2026-09-27T01:14:27.977000Z</time>
      </trkpt>
      <trkpt lat="37.85512625005761" lon="112.52624102077156">
        <time>2026-09-27T01:14:36.977000Z</time>
      </trkpt>
      <trkpt lat="37.854961284125366" lon="112.52626511553636">
        <time>2026-09-27T01:14:42.977000Z</time>
      </trkpt>
      <trkpt lat="37.85467321549715" lon="112.52625712407503">
        <time>2026-09-27T01:14:52.077000Z</time>
      </trkpt>
      <trkpt lat="37.85433616956902" lon="112.52626117607348">
        <time>2026-09-27T01:15:04.077000Z</time>
      </trkpt>
      <trkpt lat="37.85400420413646" lon="112.52629632492861">
        <time>2026-09-27T01:15:16.077000Z</time>
      </trkpt>
      <trkpt lat="37.853673228640815" lon="112.52632746105766">
        <time>2026-09-27T01:15:28.077000Z</time>
      </trkpt>
      <trkpt lat="37.85334418167338" lon="112.52633050896652">
        <time>2026-09-27T01:15:40.077000Z</time>
      </trkpt>
      <trkpt lat="37.853008192627385" lon="112.52635662993944">
        <time>2026-09-27T01:15:52.077000Z</time>
      </trkpt>
      <trkpt lat="37.85272550802354" lon="112.52634104202446">
        <time>2026-09-27T01:16:01.077000Z</time>
      </trkpt>
      <trkpt lat="37.85238688682803" lon="112.52635153069738">
        <time>2026-09-27T01:16:13.077000Z</time>
      </trkpt>
      <trkpt lat="37.85203154956146" lon="112.52634627140611">
        <time>2026-09-27T01:16:25.177000Z</time>
      </trkpt>
      <trkpt lat="37.851695036961324" lon="112.5263808588816">
        <time>2026-09-27T01:16:37.177000Z</time>
      </trkpt>
      <trkpt lat="37.85154611239293" lon="112.52641999873907">
        <time>2026-09-27T01:16:43.177000Z</time>
      </trkpt>
      <trkpt lat="37.851383026534926" lon="112.52639694560696">
        <time>2026-09-27T01:16:49.277000Z</time>
      </trkpt>
      <trkpt lat="37.851264876258526" lon="112.52634579925787">
        <time>2026-09-27T01:16:52.377000Z</time>
      </trkpt>
      <trkpt lat="37.850979788264304" lon="112.52632978233031">
        <time>2026-09-27T01:17:01.477000Z</time>
      </trkpt>
      <trkpt lat="37.85063572911227" lon="112.52632881942235">
        <time>2026-09-27T01:17:13.777000Z</time>
      </trkpt>
      <trkpt lat="37.8502656427473" lon="112.52631443219809">
        <time>2026-09-27T01:17:26.077000Z</time>
      </trkpt>
      <trkpt lat="37.849912404987236" lon="112.52631559278575">
        <time>2026-09-27T01:17:38.077000Z</time>
      </trkpt>
      <trkpt lat="37.84955408001635" lon="112.52632087099181">
        <time>2026-09-27T01:17:50.077000Z</time>
      </trkpt>
      <trkpt lat="37.84920849516844" lon="112.52632898631528">
        <time>2026-09-27T01:18:02.077000Z</time>
      </trkpt>
      <trkpt lat="37.84888052881729" lon="112.52636313146701">
        <time>2026-09-27T01:18:14.077000Z</time>
      </trkpt>
      <trkpt lat="37.84858945567087" lon="112.52635313409297">
        <time>2026-09-27T01:18:23.077000Z</time>
      </trkpt>
      <trkpt lat="37.84828147472997" lon="112.52638025489864">
        <time>2026-09-27T01:18:35.077000Z</time>
      </trkpt>
      <trkpt lat="37.848010469077074" lon="112.526395333683">
        <time>2026-09-27T01:18:44.077000Z</time>
      </trkpt>
      <trkpt lat="37.84773335476704" lon="112.52636828130312">
        <time>2026-09-27T01:18:53.177000Z</time>
      </trkpt>
      <trkpt lat="37.84745738687241" lon="112.52639840776835">
        <time>2026-09-27T01:19:02.177000Z</time>
      </trkpt>
      <trkpt lat="37.84710540411263" lon="112.52642753995134">
        <time>2026-09-27T01:19:14.177000Z</time>
      </trkpt>
      <trkpt lat="37.84682243002243" lon="112.52645566089919">
        <time>2026-09-27T01:19:23.177000Z</time>
      </trkpt>
      <trkpt lat="37.84655144765494" lon="112.52647976787118">
        <time>2026-09-27T01:19:32.277000Z</time>
      </trkpt>
      <trkpt lat="37.846205506992135" lon="112.52652494943251">
        <time>2026-09-27T01:19:44.477000Z</time>
      </trkpt>
      <trkpt lat="37.846037572045304" lon="112.52656108190997">
        <time>2026-09-27T01:19:50.477000Z</time>
      </trkpt>
      <trkpt lat="37.845757537095665" lon="112.52656512718295">
        <time>2026-09-27T01:19:59.577000Z</time>
      </trkpt>
      <trkpt lat="37.845522655337625" lon="112.52662634574148">
        <time>2026-09-27T01:20:08.877000Z</time>
      </trkpt>
      <trkpt lat="37.845352635626355" lon="112.52662937501186">
        <time>2026-09-27T01:20:14.977000Z</time>
      </trkpt>
      <trkpt lat="37.84506381928585" lon="112.52671969048556">
        <time>2026-09-27T01:20:24.077000Z</time>
      </trkpt>
      <trkpt lat="37.84471991221155" lon="112.52677791208788">
        <time>2026-09-27T01:20:36.177000Z</time>
      </trkpt>
      <trkpt lat="37.8443760383174" lon="112.52684917418831">
        <time>2026-09-27T01:20:48.077000Z</time>
      </trkpt>
      <trkpt lat="37.84403417744449" lon="112.52692545148894">
        <time>2026-09-27T01:21:00.177000Z</time>
      </trkpt>
      <trkpt lat="37.84374334759688" lon="112.52701075069685">
        <time>2026-09-27T01:21:12.077000Z</time>
      </trkpt>
      <trkpt lat="37.84347061215276" lon="112.52713215969045">
        <time>2026-09-27T01:21:21.177000Z</time>
      </trkpt>
      <trkpt lat="37.84322076306453" lon="112.52720742238951">
        <time>2026-09-27T01:21:30.177000Z</time>
      </trkpt>
      <trkpt lat="37.8429478390226" lon="112.52725460051259">
        <time>2026-09-27T01:21:39.077000Z</time>
      </trkpt>
      <trkpt lat="37.842601086082865" lon="112.5273740109319">
        <time>2026-09-27T01:21:51.077000Z</time>
      </trkpt>
      <trkpt lat="37.842265377709566" lon="112.52751047230451">
        <time>2026-09-27T01:22:03.177000Z</time>
      </trkpt>
      <trkpt lat="37.84210351925312" lon="112.52757669585155">
        <time>2026-09-27T01:22:09.177000Z</time>
      </trkpt>
      <trkpt lat="37.84183169386993" lon="112.52766299403119">
        <time>2026-09-27T01:22:18.177000Z</time>
      </trkpt>
      <trkpt lat="37.84156294721422" lon="112.52778038747306">
        <time>2026-09-27T01:22:27.177000Z</time>
      </trkpt>
      <trkpt lat="37.84129920355933" lon="112.52789878294189">
        <time>2026-09-27T01:22:36.377000Z</time>
      </trkpt>
      <trkpt lat="37.841033449172755" lon="112.52801316582249">
        <time>2026-09-27T01:22:45.477000Z</time>
      </trkpt>
      <trkpt lat="37.84069479629181" lon="112.52817269534104">
        <time>2026-09-27T01:22:57.677000Z</time>
      </trkpt>
      <trkpt lat="37.84043401932905" lon="112.52827804887427">
        <time>2026-09-27T01:23:06.877000Z</time>
      </trkpt>
      <trkpt lat="37.84017227210458" lon="112.52839543898547">
        <time>2026-09-27T01:23:16.077000Z</time>
      </trkpt>
      <trkpt lat="37.839910599813614" lon="112.52854292059192">
        <time>2026-09-27T01:23:25.177000Z</time>
      </trkpt>
      <trkpt lat="37.83959499610462" lon="112.52872150259076">
        <time>2026-09-27T01:23:37.177000Z</time>
      </trkpt>
      <trkpt lat="37.83934030122045" lon="112.52885995419744">
        <time>2026-09-27T01:23:46.177000Z</time>
      </trkpt>
      <trkpt lat="37.83900760859319" lon="112.52900443252935">
        <time>2026-09-27T01:23:58.077000Z</time>
      </trkpt>
      <trkpt lat="37.83874482924326" lon="112.52910978320209">
        <time>2026-09-27T01:24:07.177000Z</time>
      </trkpt>
      <trkpt lat="37.83848401508841" lon="112.52920109065929">
        <time>2026-09-27T01:24:16.177000Z</time>
      </trkpt>
      <trkpt lat="37.83814620363769" lon="112.5292984250415">
        <time>2026-09-27T01:24:28.177000Z</time>
      </trkpt>
      <trkpt lat="37.83788135121144" lon="112.52937468681407">
        <time>2026-09-27T01:24:40.277000Z</time>
      </trkpt>
      <trkpt lat="37.83752490278447" lon="112.52944279310748">
        <time>2026-09-27T01:24:49.377000Z</time>
      </trkpt>
      <trkpt lat="37.837186709631055" lon="112.52956333806432">
        <time>2026-09-27T01:25:01.477000Z</time>
      </trkpt>
      <trkpt lat="37.8368549430287" lon="112.52967872492711">
        <time>2026-09-27T01:25:13.577000Z</time>
      </trkpt>
      <trkpt lat="37.83662104781714" lon="112.52973592460522">
        <time>2026-09-27T01:25:22.777000Z</time>
      </trkpt>
      <trkpt lat="37.83634633165514" lon="112.52986835540258">
        <time>2026-09-27T01:25:31.977000Z</time>
      </trkpt>
      <trkpt lat="37.83602572143331" lon="112.53004692950066">
        <time>2026-09-27T01:25:44.077000Z</time>
      </trkpt>
      <trkpt lat="37.83576300362798" lon="112.53017835439277">
        <time>2026-09-27T01:25:53.177000Z</time>
      </trkpt>
      <trkpt lat="37.83548038310766" lon="112.53035090403452">
        <time>2026-09-27T01:26:05.077000Z</time>
      </trkpt>
      <trkpt lat="37.83521370047625" lon="112.53049737286008">
        <time>2026-09-27T01:26:14.077000Z</time>
      </trkpt>
      <trkpt lat="37.83490503041225" lon="112.53065186971352">
        <time>2026-09-27T01:26:26.077000Z</time>
      </trkpt>
      <trkpt lat="37.83457538829214" lon="112.53081940691948">
        <time>2026-09-27T01:26:38.077000Z</time>
      </trkpt>
      <trkpt lat="37.83426972229348" lon="112.53097590753677">
        <time>2026-09-27T01:26:50.177000Z</time>
      </trkpt>
      <trkpt lat="37.83394809461258" lon="112.53114945961937">
        <time>2026-09-27T01:27:02.177000Z</time>
      </trkpt>
      <trkpt lat="37.833637460534455" lon="112.53132000040145">
        <time>2026-09-27T01:27:14.177000Z</time>
      </trkpt>
      <trkpt lat="37.83332178853249" lon="112.531475496303">
        <time>2026-09-27T01:27:26.177000Z</time>
      </trkpt>
      <trkpt lat="37.8329980880392" lon="112.53161995974646">
        <time>2026-09-27T01:27:38.177000Z</time>
      </trkpt>
      <trkpt lat="37.83268545637896" lon="112.53179250363995">
        <time>2026-09-27T01:27:50.277000Z</time>
      </trkpt>
      <trkpt lat="37.83236971489887" lon="112.53191991441489">
        <time>2026-09-27T01:28:02.377000Z</time>
      </trkpt>
      <trkpt lat="37.83205399228994" lon="112.53205534806757">
        <time>2026-09-27T01:28:14.577000Z</time>
      </trkpt>
      <trkpt lat="37.83197101820481" lon="112.53207140472963">
        <time>2026-09-27T01:28:17.677000Z</time>
      </trkpt>
      <trkpt lat="37.83183597840148" lon="112.53206339698572">
        <time>2026-09-27T01:28:23.777000Z</time>
      </trkpt>
      <trkpt lat="37.831524183783856" lon="112.53216874147844">
        <time>2026-09-27T01:28:35.977000Z</time>
      </trkpt>
      <trkpt lat="37.83124834630437" lon="112.53225402277513">
        <time>2026-09-27T01:28:45.077000Z</time>
      </trkpt>
      <trkpt lat="37.830930528712635" lon="112.53235034087238">
        <time>2026-09-27T01:28:57.077000Z</time>
      </trkpt>
      <trkpt lat="37.83064068158067" lon="112.5324326144411">
        <time>2026-09-27T01:29:06.077000Z</time>
      </trkpt>
      <trkpt lat="37.83032686661651" lon="112.53252993432918">
        <time>2026-09-27T01:29:18.077000Z</time>
      </trkpt>
      <trkpt lat="37.82995310698043" lon="112.5326543395315">
        <time>2026-09-27T01:29:30.077000Z</time>
      </trkpt>
      <trkpt lat="37.82960227162776" lon="112.532745645441">
        <time>2026-09-27T01:29:42.077000Z</time>
      </trkpt>
      <trkpt lat="37.82926349279149" lon="112.53286001646988">
        <time>2026-09-27T01:29:54.077000Z</time>
      </trkpt>
      <trkpt lat="37.82891166881442" lon="112.53295633627793">
        <time>2026-09-27T01:30:06.077000Z</time>
      </trkpt>
      <trkpt lat="37.8285688079161" lon="112.53303660829904">
        <time>2026-09-27T01:30:18.077000Z</time>
      </trkpt>
      <trkpt lat="37.828231988224175" lon="112.53313392859094">
        <time>2026-09-27T01:30:30.077000Z</time>
      </trkpt>
      <trkpt lat="37.82789516832914" lon="112.53323124851318">
        <time>2026-09-27T01:30:42.077000Z</time>
      </trkpt>
      <trkpt lat="37.827548306420574" lon="112.53331152013806">
        <time>2026-09-27T01:30:54.077000Z</time>
      </trkpt>
      <trkpt lat="37.82720642856004" lon="112.53338477073129">
        <time>2026-09-27T01:31:06.077000Z</time>
      </trkpt>
      <trkpt lat="37.82685956171566" lon="112.53346303610762">
        <time>2026-09-27T01:31:18.077000Z</time>
      </trkpt>
      <trkpt lat="37.82654363077098" lon="112.53351221411859">
        <time>2026-09-27T01:31:30.077000Z</time>
      </trkpt>
      <trkpt lat="37.82626367205166" lon="112.53354734753749">
        <time>2026-09-27T01:31:39.077000Z</time>
      </trkpt>
      <trkpt lat="37.825924723532644" lon="112.53359051080199">
        <time>2026-09-27T01:31:51.077000Z</time>
      </trkpt>
      <trkpt lat="37.82558778714541" lon="112.53363868813587">
        <time>2026-09-27T01:32:03.177000Z</time>
      </trkpt>
      <trkpt lat="37.8252487985321" lon="112.53366480238671">
        <time>2026-09-27T01:32:15.077000Z</time>
      </trkpt>
      <trkpt lat="37.82491080304547" lon="112.53368790787339">
        <time>2026-09-27T01:32:27.077000Z</time>
      </trkpt>
      <trkpt lat="37.824582792573395" lon="112.53370399206493">
        <time>2026-09-27T01:32:39.077000Z</time>
      </trkpt>
      <trkpt lat="37.82432675497733" lon="112.53370402189756">
        <time>2026-09-27T01:32:48.177000Z</time>
      </trkpt>
      <trkpt lat="37.82425570207098" lon="112.5336859784571">
        <time>2026-09-27T01:32:51.077000Z</time>
      </trkpt>
      <trkpt lat="37.8239317560539" lon="112.53372913973165">
        <time>2026-09-27T01:33:03.077000Z</time>
      </trkpt>
      <trkpt lat="37.82384078047301" lon="112.53374519627741">
        <time>2026-09-27T01:33:06.177000Z</time>
      </trkpt>
      <trkpt lat="37.82351165683905" lon="112.53371314272242">
        <time>2026-09-27T01:33:18.177000Z</time>
      </trkpt>
      <trkpt lat="37.82326356868274" lon="112.53369110842186">
        <time>2026-09-27T01:33:27.177000Z</time>
      </trkpt>
      <trkpt lat="37.823185616300556" lon="112.5337161893271">
        <time>2026-09-27T01:33:30.077000Z</time>
      </trkpt>
      <trkpt lat="37.82284751036679" lon="112.53369215977023">
        <time>2026-09-27T01:33:42.077000Z</time>
      </trkpt>
      <trkpt lat="37.82250242236849" lon="112.53367615399723">
        <time>2026-09-27T01:33:54.177000Z</time>
      </trkpt>
      <trkpt lat="37.82232734261316" lon="112.53365310828367">
        <time>2026-09-27T01:34:00.177000Z</time>
      </trkpt>
      <trkpt lat="37.821992147483385" lon="112.53359096901927">
        <time>2026-09-27T01:34:12.177000Z</time>
      </trkpt>
      <trkpt lat="37.82172710433252" lon="112.53358899414424">
        <time>2026-09-27T01:34:21.277000Z</time>
      </trkpt>
      <trkpt lat="37.8214229562869" lon="112.5335449029377">
        <time>2026-09-27T01:34:30.277000Z</time>
      </trkpt>
      <trkpt lat="37.82113177462946" lon="112.53348576692856">
        <time>2026-09-27T01:34:39.377000Z</time>
      </trkpt>
      <trkpt lat="37.82085758353734" lon="112.53342161438516">
        <time>2026-09-27T01:34:48.377000Z</time>
      </trkpt>
      <trkpt lat="37.82069136763447" lon="112.5333404000277">
        <time>2026-09-27T01:34:54.377000Z</time>
      </trkpt>
      <trkpt lat="37.8206251707071" lon="112.53326117954116">
        <time>2026-09-27T01:34:57.377000Z</time>
      </trkpt>
      <trkpt lat="37.82033797741225" lon="112.53319702795473">
        <time>2026-09-27T01:35:06.677000Z</time>
      </trkpt>
      <trkpt lat="37.82006278815569" lon="112.5331338777059">
        <time>2026-09-27T01:35:15.877000Z</time>
      </trkpt>
      <trkpt lat="37.819862697610525" lon="112.53310782573467">
        <time>2026-09-27T01:35:21.977000Z</time>
      </trkpt>
      <trkpt lat="37.8195964572029" lon="112.5330226104493">
        <time>2026-09-27T01:35:31.077000Z</time>
      </trkpt>
      <trkpt lat="37.81930019088551" lon="112.53292837225746">
        <time>2026-09-27T01:35:40.077000Z</time>
      </trkpt>
      <trkpt lat="37.819027954045666" lon="112.53284516289528">
        <time>2026-09-27T01:35:49.077000Z</time>
      </trkpt>
      <trkpt lat="37.81865280264556" lon="112.53280408742118">
        <time>2026-09-27T01:36:01.077000Z</time>
      </trkpt>
      <trkpt lat="37.81832453375221" lon="112.53271085508014">
        <time>2026-09-27T01:36:13.077000Z</time>
      </trkpt>
      <trkpt lat="37.818081353321084" lon="112.53264970575079">
        <time>2026-09-27T01:36:19.077000Z</time>
      </trkpt>
      <trkpt lat="37.81786311652462" lon="112.53256348045835">
        <time>2026-09-27T01:36:25.077000Z</time>
      </trkpt>
      <trkpt lat="37.81756192288783" lon="112.53250033170656">
        <time>2026-09-27T01:36:34.077000Z</time>
      </trkpt>
      <trkpt lat="37.8172887523501" lon="112.53244520291122">
        <time>2026-09-27T01:36:43.077000Z</time>
      </trkpt>
      <trkpt lat="37.81700655650827" lon="112.53238004581375">
        <time>2026-09-27T01:36:55.077000Z</time>
      </trkpt>
      <trkpt lat="37.81693744833378" lon="112.53233893394935">
        <time>2026-09-27T01:36:58.077000Z</time>
      </trkpt>
      <trkpt lat="37.81680242685077" lon="112.53233794675785">
        <time>2026-09-27T01:37:01.077000Z</time>
      </trkpt>
      <trkpt lat="37.816479042221644" lon="112.532215112236">
        <time>2026-09-27T01:37:10.077000Z</time>
      </trkpt>
      <trkpt lat="37.81628790481198" lon="112.53215045895469">
        <time>2026-09-27T01:37:16.077000Z</time>
      </trkpt>
      <trkpt lat="37.815967736984064" lon="112.53209934664474">
        <time>2026-09-27T01:37:28.077000Z</time>
      </trkpt>
      <trkpt lat="37.81569158738326" lon="112.53205324378935">
        <time>2026-09-27T01:37:37.177000Z</time>
      </trkpt>
      <trkpt lat="37.81537338366531" lon="112.53198708698332">
        <time>2026-09-27T01:37:49.177000Z</time>
      </trkpt>
      <trkpt lat="37.81509414673924" lon="112.53190487840351">
        <time>2026-09-27T01:37:58.077000Z</time>
      </trkpt>
      <trkpt lat="37.81482500286498" lon="112.53186078028205">
        <time>2026-09-27T01:38:07.077000Z</time>
      </trkpt>
      <trkpt lat="37.814470818124434" lon="112.53180465665099">
        <time>2026-09-27T01:38:19.177000Z</time>
      </trkpt>
      <trkpt lat="37.81421166113212" lon="112.53175453951442">
        <time>2026-09-27T01:38:28.177000Z</time>
      </trkpt>
      <trkpt lat="37.8140902497304" lon="112.53159107268469">
        <time>2026-09-27T01:38:34.177000Z</time>
      </trkpt>
      <trkpt lat="37.81391835667213" lon="112.53123203282252">
        <time>2026-09-27T01:38:46.277000Z</time>
      </trkpt>
      <trkpt lat="37.81383186479647" lon="112.53103445761626">
        <time>2026-09-27T01:38:52.277000Z</time>
      </trkpt>
      <trkpt lat="37.81372742308264" lon="112.5308589486517">
        <time>2026-09-27T01:38:58.377000Z</time>
      </trkpt>
      <trkpt lat="37.81359465310073" lon="112.53055104715811">
        <time>2026-09-27T01:39:07.477000Z</time>
      </trkpt>
      <trkpt lat="37.813414647360645" lon="112.53015087118942">
        <time>2026-09-27T01:39:19.677000Z</time>
      </trkpt>
      <trkpt lat="37.81326886700095" lon="112.52984196023935">
        <time>2026-09-27T01:39:28.777000Z</time>
      </trkpt>
      <trkpt lat="37.813095090049295" lon="112.52953706123016">
        <time>2026-09-27T01:39:37.877000Z</time>
      </trkpt>
      <trkpt lat="37.81303185294271" lon="112.52944478974594">
        <time>2026-09-27T01:39:40.877000Z</time>
      </trkpt>
      <trkpt lat="37.81289507032618" lon="112.5291368729586">
        <time>2026-09-27T01:39:49.977000Z</time>
      </trkpt>
      <trkpt lat="37.81273323665987" lon="112.52881090073862">
        <time>2026-09-27T01:39:58.977000Z</time>
      </trkpt>
      <trkpt lat="37.81269508629958" lon="112.52875272792167">
        <time>2026-09-27T01:40:01.977000Z</time>
      </trkpt>
      <trkpt lat="37.81269508629958" lon="112.52875272792167">
        <time>2026-09-27T01:40:04.377000Z</time>
      </trkpt>
    </trkseg>
  </trk>
</gpx>