<?xml version="1.0" encoding="UTF-8"?>
<gpx xmlns="http://www.topografix.com/GPX/1/1" xmlns:gpxtpx="http://www.garmin.com/xmlschemas/TrackPointExtension/v1" xmlns:xsi="http://www.w3.org/2001/XMLSchema-instance" xsi:schemaLocation="http://www.topografix.com/GPX/1/1 http://www.topografix.com/GPX/1/1/gpx.xsd" version="1.1" creator="gpx.py -- https://github.com/tkrajina/gpxpy">
  <trk>
    <name>gpx from keep</name>
    <type>Run</type>
    <trkseg>
      <trkpt lat="39.86790967397913" lon="116.46704071642259">
        <time>2026-09-18T23:45:59.923000Z</time>
      </trkpt>
      <trkpt lat="39.8677717541735" lon="116.4670678273697">
        <time>2026-09-18T23:46:06.023000Z</time>
      </trkpt>
      <trkpt lat="39.867600719966326" lon="116.4670517933126">
        <time>2026-09-18T23:46:09.023000Z</time>
      </trkpt>
      <trkpt lat="39.86748659095594" lon="116.4670016342243">
        <time>2026-09-18T23:46:12.023000Z</time>
      </trkpt>
      <trkpt lat="39.86747934572163" lon="116.46691031971743">
        <time>2026-09-18T23:46:18.123000Z</time>
      </trkpt>
      <trkpt lat="39.86757356997965" lon="116.46662331801933">
        <time>2026-09-18T23:46:24.223000Z</time>
      </trkpt>
      <trkpt lat="39.86756852206934" lon="116.46623197232195">
        <time>2026-09-18T23:46:36.323000Z</time>
      </trkpt>
      <trkpt lat="39.86748842702544" lon="116.46619485485094">
        <time>2026-09-18T23:46:39.323000Z</time>
      </trkpt>
      <trkpt lat="39.86714840474667" lon="116.4661798458113">
        <time>2026-09-18T23:46:54.323000Z</time>
      </trkpt>
      <trkpt lat="39.86684549051766" lon="116.46620597339331">
        <time>2026-09-18T23:47:06.323000Z</time>
      </trkpt>
      <trkpt lat="39.86677050253778" lon="116.4662089931366">
        <time>2026-09-18T23:47:09.423000Z</time>
      </trkpt>
      <trkpt lat="39.86668262257699" lon="116.46625215237097">
        <time>2026-09-18T23:47:12.423000Z</time>
      </trkpt>
      <trkpt lat="39.866636829036125" lon="116.4663284201933">
        <time>2026-09-18T23:47:15.423000Z</time>
      </trkpt>
      <trkpt lat="39.86663011417477" lon="116.46643478682611">
        <time>2026-09-18T23:47:18.423000Z</time>
      </trkpt>
      <trkpt lat="39.8666436056919" lon="116.46661841734843">
        <time>2026-09-18T23:47:24.423000Z</time>
      </trkpt>
      <trkpt lat="39.86658159832961" lon="116.46698669568518">
        <time>2026-09-18T23:47:36.723000Z</time>
      </trkpt>
      <trkpt lat="39.866571858120565" lon="116.46708302984571">
        <time>2026-09-18T23:47:39.823000Z</time>
      </trkpt>
      <trkpt lat="39.866590330284794" lon="116.46725863507051">
        <time>2026-09-18T23:47:45.923000Z</time>
      </trkpt>
      <trkpt lat="39.866566065556334" lon="116.46753058050164">
        <time>2026-09-18T23:47:55.023000Z</time>
      </trkpt>
      <trkpt lat="39.86651052972857" lon="116.46770117959538">
        <time>2026-09-18T23:48:01.123000Z</time>
      </trkpt>
      <trkpt lat="39.86649625338587" lon="116.46796810937899">
        <time>2026-09-18T23:48:07.123000Z</time>
      </trkpt>
      <trkpt lat="39.866516320326525" lon="116.46836147769554">
        <time>2026-09-18T23:48:19.123000Z</time>
      </trkpt>
      <trkpt lat="39.866530281298864" lon="116.46871471016537">
        <time>2026-09-18T23:48:31.123000Z</time>
      </trkpt>
      <trkpt lat="39.866538472808394" lon="116.46915123858916">
        <time>2026-09-18T23:48:43.123000Z</time>
      </trkpt>
      <trkpt lat="39.86651050485949" lon="116.46952756425978">
        <time>2026-09-18T23:48:55.123000Z</time>
      </trkpt>
      <trkpt lat="39.86649205660663" lon="116.46972827309898">
        <time>2026-09-18T23:49:01.123000Z</time>
      </trkpt>
      <trkpt lat="39.86647726352592" lon="116.47016682199389">
        <time>2026-09-18T23:49:16.123000Z</time>
      </trkpt>
      <trkpt lat="39.8664625435936" lon="116.47026818202465">
        <time>2026-09-18T23:49:19.123000Z</time>
      </trkpt>
      <trkpt lat="39.866453532808265" lon="116.47062645110333">
        <time>2026-09-18T23:49:31.123000Z</time>
      </trkpt>
      <trkpt lat="39.86647135069733" lon="116.47092249880878">
        <time>2026-09-18T23:49:40.123000Z</time>
      </trkpt>
      <trkpt lat="39.86644855756455" lon="116.47099676534339">
        <time>2026-09-18T23:49:43.123000Z</time>
      </trkpt>
      <trkpt lat="39.866393693931066" lon="116.47104494331302">
        <time>2026-09-18T23:49:46.123000Z</time>
      </trkpt>
      <trkpt lat="39.866372934244595" lon="116.47113125259787">
        <time>2026-09-18T23:49:49.123000Z</time>
      </trkpt>
      <trkpt lat="39.86631297360118" lon="116.47114430647697">
        <time>2026-09-18T23:49:52.123000Z</time>
      </trkpt>
      <trkpt lat="39.86624593264489" lon="116.47112825779345">
        <time>2026-09-18T23:49:55.123000Z</time>
      </trkpt>
      <trkpt lat="39.86616621520096" lon="116.47122862458276">
        <time>2026-09-18T23:50:01.123000Z</time>
      </trkpt>
      <trkpt lat="39.86600021011145" lon="116.47122362751468">
        <time>2026-09-18T23:50:07.123000Z</time>
      </trkpt>
      <trkpt lat="39.86593833870407" lon="116.47126879589055">
        <time>2026-09-18T23:50:10.123000Z</time>
      </trkpt>
      <trkpt lat="39.86600557747523" lon="116.47135609815709">
        <time>2026-09-18T23:50:13.123000Z</time>
      </trkpt>
      <trkpt lat="39.8663436709712" lon="116.47139619874136">
        <time>2026-09-18T23:50:25.123000Z</time>
      </trkpt>
      <trkpt lat="39.866476677845014" lon="116.4714011999596">
        <time>2026-09-18T23:50:31.123000Z</time>
      </trkpt>
      <trkpt lat="39.866526822933785" lon="116.47145438308539">
        <time>2026-09-18T23:50:34.123000Z</time>
      </trkpt>
      <trkpt lat="39.8665341126198" lon="116.47155875400834">
        <time>2026-09-18T23:50:37.123000Z</time>
      </trkpt>
      <trkpt lat="39.86650333524821" lon="116.47199732285047">
        <time>2026-09-18T23:50:52.123000Z</time>
      </trkpt>
      <trkpt lat="39.866509413446806" lon="116.47238370424603">
        <time>2026-09-18T23:51:04.123000Z</time>
      </trkpt>
      <trkpt lat="39.86650643287126" lon="116.4727480106487">
        <time>2026-09-18T23:51:16.123000Z</time>
      </trkpt>
      <trkpt lat="39.866489438403924" lon="116.47310629987125">
        <time>2026-09-18T23:51:28.123000Z</time>
      </trkpt>
      <trkpt lat="39.86646068674469" lon="116.4735499005936">
        <time>2026-09-18T23:51:43.223000Z</time>
      </trkpt>
      <trkpt lat="39.8664647780282" lon="116.47393729803288">
        <time>2026-09-18T23:51:55.223000Z</time>
      </trkpt>
      <trkpt lat="39.8664780350024" lon="116.47402862636874">
        <time>2026-09-18T23:51:58.323000Z</time>
      </trkpt>
      <trkpt lat="39.866444111427434" lon="116.47440900669379">
        <time>2026-09-18T23:52:10.323000Z</time>
      </trkpt>
      <trkpt lat="39.866378501088555" lon="116.47454550935521">
        <time>2026-09-18T23:52:16.423000Z</time>
      </trkpt>
      <trkpt lat="39.86637572285215" lon="116.47462379344728">
        <time>2026-09-18T23:52:19.423000Z</time>
      </trkpt>
      <trkpt lat="39.86641994790154" lon="116.47470407905863">
        <time>2026-09-18T23:52:22.423000Z</time>
      </trkpt>
      <trkpt lat="39.86648076982949" lon="116.4749951278357">
        <time>2026-09-18T23:52:31.723000Z</time>
      </trkpt>
      <trkpt lat="39.86648800961401" lon="116.47543171439258">
        <time>2026-09-18T23:52:47.023000Z</time>
      </trkpt>
      <trkpt lat="39.8664855494724" lon="116.4756214054882">
        <time>2026-09-18T23:52:53.023000Z</time>
      </trkpt>
      <trkpt lat="39.86642698703686" lon="116.47577396881967">
        <time>2026-09-18T23:52:59.123000Z</time>
      </trkpt>
      <trkpt lat="39.866439220154234" lon="116.4762065460856">
        <time>2026-09-18T23:53:11.123000Z</time>
      </trkpt>
      <trkpt lat="39.86645726614523" lon="116.47657288335829">
        <time>2026-09-18T23:53:23.123000Z</time>
      </trkpt>
      <trkpt lat="39.866426279247435" lon="116.4769261811645">
        <time>2026-09-18T23:53:35.123000Z</time>
      </trkpt>
      <trkpt lat="39.86642837298929" lon="116.47730758004938">
        <time>2026-09-18T23:53:47.123000Z</time>
      </trkpt>
      <trkpt lat="39.86643790284936" lon="116.47749225717655">
        <time>2026-09-18T23:53:53.123000Z</time>
      </trkpt>
      <trkpt lat="39.866423153517566" lon="116.47792685737964">
        <time>2026-09-18T23:54:08.123000Z</time>
      </trkpt>
      <trkpt lat="39.86640616941937" lon="116.4782791572915">
        <time>2026-09-18T23:54:20.123000Z</time>
      </trkpt>
      <trkpt lat="39.86640769915751" lon="116.47846283446455">
        <time>2026-09-18T23:54:26.123000Z</time>
      </trkpt>
      <trkpt lat="39.866420811593514" lon="116.47884825579085">
        <time>2026-09-18T23:54:38.123000Z</time>
      </trkpt>
      <trkpt lat="39.86642184223736" lon="116.47920457305771">
        <time>2026-09-18T23:54:50.123000Z</time>
      </trkpt>
      <trkpt lat="39.86639836667879" lon="116.47938524464197">
        <time>2026-09-18T23:54:56.123000Z</time>
      </trkpt>
      <trkpt lat="39.86642321492137" lon="116.47967832720504">
        <time>2026-09-18T23:55:05.123000Z</time>
      </trkpt>
      <trkpt lat="39.866412707637636" lon="116.47984795739218">
        <time>2026-09-18T23:55:11.123000Z</time>
      </trkpt>
      <trkpt lat="39.86641425251977" lon="116.48003565350311">
        <time>2026-09-18T23:55:17.123000Z</time>
      </trkpt>
      <trkpt lat="39.86633528361439" lon="116.48038897528666">
        <time>2026-09-18T23:55:29.123000Z</time>
      </trkpt>
      <trkpt lat="39.866310813493065" lon="116.4805706535631">
        <time>2026-09-18T23:55:35.223000Z</time>
      </trkpt>
      <trkpt lat="39.86634297241215" lon="116.4809691320161">
        <time>2026-09-18T23:55:47.223000Z</time>
      </trkpt>
      <trkpt lat="39.86634325038203" lon="116.48106448701532">
        <time>2026-09-18T23:55:50.223000Z</time>
      </trkpt>
      <trkpt lat="39.86630508107884" lon="116.4813485500455">
        <time>2026-09-18T23:55:59.223000Z</time>
      </trkpt>
      <trkpt lat="39.86632690648881" lon="116.48163160280131">
        <time>2026-09-18T23:56:08.223000Z</time>
      </trkpt>
      <trkpt lat="39.866303157054205" lon="116.48171692408202">
        <time>2026-09-18T23:56:11.223000Z</time>
      </trkpt>
      <trkpt lat="39.8662322136288" lon="116.48173500034268">
        <time>2026-09-18T23:56:14.223000Z</time>
      </trkpt>
      <trkpt lat="39.86592905963147" lon="116.48167682089402">
        <time>2026-09-18T23:56:26.323000Z</time>
      </trkpt>
      <trkpt lat="39.865643939923785" lon="116.4816306841701">
        <time>2026-09-18T23:56:38.423000Z</time>
      </trkpt>
      <trkpt lat="39.86537180197657" lon="116.48157852339074">
        <time>2026-09-18T23:56:50.623000Z</time>
      </trkpt>
      <trkpt lat="39.86508971444883" lon="116.48154342751954">
        <time>2026-09-18T23:57:02.823000Z</time>
      </trkpt>
      <trkpt lat="39.86476859094527" lon="116.48149528787056">
        <time>2026-09-18T23:57:15.123000Z</time>
      </trkpt>
      <trkpt lat="39.864488406686995" lon="116.4814270683054">
        <time>2026-09-18T23:57:27.123000Z</time>
      </trkpt>
      <trkpt lat="39.8642142719827" lon="116.48137591164392">
        <time>2026-09-18T23:57:39.123000Z</time>
      </trkpt>
      <trkpt lat="39.86393714334893" lon="116.48132676286889">
        <time>2026-09-18T23:57:51.123000Z</time>
      </trkpt>
      <trkpt lat="39.86364802712681" lon="116.48128163057821">
        <time>2026-09-18T23:58:03.123000Z</time>
      </trkpt>
      <trkpt lat="39.86331088133638" lon="116.48122546316274">
        <time>2026-09-18T23:58:18.123000Z</time>
      </trkpt>
      <trkpt lat="39.86303578495473" lon="116.4811873553543">
        <time>2026-09-18T23:58:30.123000Z</time>
      </trkpt>
      <trkpt lat="39.86283167597914" lon="116.48114622750087">
        <time>2026-09-18T23:58:39.123000Z</time>
      </trkpt>
      <trkpt lat="39.86274071311669" lon="116.48115727996263">
        <time>2026-09-18T23:58:45.123000Z</time>
      </trkpt>
      <trkpt lat="39.8625934986371" lon="116.4810810142044">
        <time>2026-09-18T23:58:51.123000Z</time>
      </trkpt>
      <trkpt lat="39.86231240562824" lon="116.48104391094913">
        <time>2026-09-18T23:59:03.123000Z</time>
      </trkpt>
      <trkpt lat="39.86204236765365" lon="116.48102587733554">
        <time>2026-09-18T23:59:15.123000Z</time>
      </trkpt>
      <trkpt lat="39.86175829535956" lon="116.48099580063395">
        <time>2026-09-18T23:59:27.123000Z</time>
      </trkpt>
      <trkpt lat="39.86148312607478" lon="116.48093259954257">
        <time>2026-09-18T23:59:39.223000Z</time>
      </trkpt>
      <trkpt lat="39.861195992607634" lon="116.48088144481481">
        <time>2026-09-18T23:59:51.223000Z</time>
      </trkpt>
      <trkpt lat="39.86092476183151" lon="116.48079716490241">
        <time>2026-09-19T00:00:03.223000Z</time>
      </trkpt>
      <trkpt lat="39.86063965761191" lon="116.48075604734585">
        <time>2026-09-19T00:00:15.223000Z</time>
      </trkpt>
      <trkpt lat="39.860341524925154" lon="116.48070489410394">
        <time>2026-09-19T00:00:27.323000Z</time>
      </trkpt>
      <trkpt lat="39.86013275566051" lon="116.48078020013689">
        <time>2026-09-19T00:00:36.423000Z</time>
      </trkpt>
      <trkpt lat="39.85984962510455" lon="116.48073004874338">
        <time>2026-09-19T00:00:48.623000Z</time>
      </trkpt>
      <trkpt lat="39.859708597814205" lon="116.48071802152172">
        <time>2026-09-19T00:00:54.723000Z</time>
      </trkpt>
      <trkpt lat="39.85964548731395" lon="116.48067888380392">
        <time>2026-09-19T00:00:57.723000Z</time>
      </trkpt>
      <trkpt lat="39.85960726734619" lon="116.48060260492103">
        <time>2026-09-19T00:01:00.823000Z</time>
      </trkpt>
      <trkpt lat="39.8595722006928" lon="116.48023524433916">
        <time>2026-09-19T00:01:13.023000Z</time>
      </trkpt>
      <trkpt lat="39.8595417327912" lon="116.48007364825617">
        <time>2026-09-19T00:01:19.123000Z</time>
      </trkpt>
      <trkpt lat="39.85949970656888" lon="116.47971933942989">
        <time>2026-09-19T00:01:31.123000Z</time>
      </trkpt>
      <trkpt lat="39.859422715725685" lon="116.47937607752239">
        <time>2026-09-19T00:01:43.123000Z</time>
      </trkpt>
      <trkpt lat="39.85934647369201" lon="116.47894549437422">
        <time>2026-09-19T00:01:58.123000Z</time>
      </trkpt>
      <trkpt lat="39.859288438645116" lon="116.47858617456153">
        <time>2026-09-19T00:02:10.123000Z</time>
      </trkpt>
      <trkpt lat="39.8592391964442" lon="116.4781545892586">
        <time>2026-09-19T00:02:25.123000Z</time>
      </trkpt>
      <trkpt lat="39.85921715724279" lon="116.47779326178826">
        <time>2026-09-19T00:02:37.123000Z</time>
      </trkpt>
      <trkpt lat="39.85923213789082" lon="116.47743895751849">
        <time>2026-09-19T00:02:49.123000Z</time>
      </trkpt>
      <trkpt lat="39.859249606689396" lon="116.47725427724914">
        <time>2026-09-19T00:02:55.123000Z</time>
      </trkpt>
      <trkpt lat="39.85926837408155" lon="116.47682469973017">
        <time>2026-09-19T00:03:10.123000Z</time>
      </trkpt>
      <trkpt lat="39.85936435494435" lon="116.47647039086873">
        <time>2026-09-19T00:03:22.123000Z</time>
      </trkpt>
      <trkpt lat="39.859420887143735" lon="116.47630778934332">
        <time>2026-09-19T00:03:28.123000Z</time>
      </trkpt>
      <trkpt lat="39.85949982291491" lon="116.47593642343818">
        <time>2026-09-19T00:03:40.123000Z</time>
      </trkpt>
      <trkpt lat="39.8595757751516" lon="116.47557007856646">
        <time>2026-09-19T00:03:52.123000Z</time>
      </trkpt>
      <trkpt lat="39.85964972665097" lon="116.47520273266578">
        <time>2026-09-19T00:04:04.123000Z</time>
      </trkpt>
      <trkpt lat="39.85971771752015" lon="116.47484843729117">
        <time>2026-09-19T00:04:16.123000Z</time>
      </trkpt>
      <trkpt lat="39.85979667849045" lon="116.47448310286222">
        <time>2026-09-19T00:04:28.123000Z</time>
      </trkpt>
      <trkpt lat="39.859858673674076" lon="116.4741288129715">
        <time>2026-09-19T00:04:40.123000Z</time>
      </trkpt>
      <trkpt lat="39.85993766427703" lon="116.47377251611137">
        <time>2026-09-19T00:04:52.123000Z</time>
      </trkpt>
      <trkpt lat="39.86000165213363" lon="116.47341421636779">
        <time>2026-09-19T00:05:04.123000Z</time>
      </trkpt>
      <trkpt lat="39.86008569734354" lon="116.47307598881706">
        <time>2026-09-19T00:05:16.123000Z</time>
      </trkpt>
      <trkpt lat="39.86014865851421" lon="116.47270665458419">
        <time>2026-09-19T00:05:28.123000Z</time>
      </trkpt>
      <trkpt lat="39.86022962944159" lon="116.47234033167707">
        <time>2026-09-19T00:05:40.123000Z</time>
      </trkpt>
      <trkpt lat="39.860354737378294" lon="116.47202318174631">
        <time>2026-09-19T00:05:52.123000Z</time>
      </trkpt>
      <trkpt lat="39.860435768534465" lon="116.47167693566807">
        <time>2026-09-19T00:06:04.223000Z</time>
      </trkpt>
      <trkpt lat="39.86050103400324" lon="116.47141399062698">
        <time>2026-09-19T00:06:13.223000Z</time>
      </trkpt>
      <trkpt lat="39.86065774952405" lon="116.4713146173988">
        <time>2026-09-19T00:06:22.223000Z</time>
      </trkpt>
      <trkpt lat="39.860964802329455" lon="116.47133966825511">
        <time>2026-09-19T00:06:37.223000Z</time>
      </trkpt>
      <trkpt lat="39.861157839123585" lon="116.47135670481738">
        <time>2026-09-19T00:06:46.423000Z</time>
      </trkpt>
      <trkpt lat="39.86119965018459" lon="116.47128946032609">
        <time>2026-09-19T00:06:49.423000Z</time>
      </trkpt>
      <trkpt lat="39.86118438372391" lon="116.47119311958994">
        <time>2026-09-19T00:06:52.523000Z</time>
      </trkpt>
      <trkpt lat="39.861043152147886" lon="116.47110683048346">
        <time>2026-09-19T00:06:58.623000Z</time>
      </trkpt>
      <trkpt lat="39.86082698877484" lon="116.47104363290549">
        <time>2026-09-19T00:07:07.923000Z</time>
      </trkpt>
      <trkpt lat="39.86053095219516" lon="116.47102460222482">
        <time>2026-09-19T00:07:20.123000Z</time>
      </trkpt>
      <trkpt lat="39.86046175308136" lon="116.47095135074362">
        <time>2026-09-19T00:07:23.123000Z</time>
      </trkpt>
      <trkpt lat="39.860453492391606" lon="116.47085701697752">
        <time>2026-09-19T00:07:26.123000Z</time>
      </trkpt>
      <trkpt lat="39.8605355253061" lon="116.47050877252885">
        <time>2026-09-19T00:07:38.123000Z</time>
      </trkpt>
      <trkpt lat="39.86062653236715" lon="116.4701504942601">
        <time>2026-09-19T00:07:50.123000Z</time>
      </trkpt>
      <trkpt lat="39.86065054279617" lon="116.46979122379871">
        <time>2026-09-19T00:08:02.123000Z</time>
      </trkpt>
      <trkpt lat="39.86071658366296" lon="116.46944298989924">
        <time>2026-09-19T00:08:14.123000Z</time>
      </trkpt>
      <trkpt lat="39.86077940493691" lon="116.46901347427061">
        <time>2026-09-19T00:08:29.123000Z</time>
      </trkpt>
      <trkpt lat="39.86083642156523" lon="116.4686542093813">
        <time>2026-09-19T00:08:41.123000Z</time>
      </trkpt>
      <trkpt lat="39.86090943991929" lon="116.46829494564618">
        <time>2026-09-19T00:08:53.123000Z</time>
      </trkpt>
      <trkpt lat="39.86095946217103" lon="116.46793568799511">
        <time>2026-09-19T00:09:05.123000Z</time>
      </trkpt>
      <trkpt lat="39.86100051470854" lon="116.46758646953526">
        <time>2026-09-19T00:09:17.123000Z</time>
      </trkpt>
      <trkpt lat="39.861053550209135" lon="116.4672302283718">
        <time>2026-09-19T00:09:29.223000Z</time>
      </trkpt>
      <trkpt lat="39.86112762231661" lon="116.46688703287857">
        <time>2026-09-19T00:09:41.223000Z</time>
      </trkpt>
      <trkpt lat="39.861223679608905" lon="116.46653781697972">
        <time>2026-09-19T00:09:53.223000Z</time>
      </trkpt>
      <trkpt lat="39.86126396531505" lon="116.46627189736267">
        <time>2026-09-19T00:10:02.323000Z</time>
      </trkpt>
      <trkpt lat="39.86133001287628" lon="116.46591667031129">
        <time>2026-09-19T00:10:14.423000Z</time>
      </trkpt>
      <trkpt lat="39.86139391572395" lon="116.46588154198278">
        <time>2026-09-19T00:10:17.523000Z</time>
      </trkpt>
      <trkpt lat="39.86166698376627" lon="116.46591261430265">
        <time>2026-09-19T00:10:29.823000Z</time>
      </trkpt>
      <trkpt lat="39.861957066989156" lon="116.46594970514879">
        <time>2026-09-19T00:10:42.023000Z</time>
      </trkpt>
      <trkpt lat="39.862189990066035" lon="116.4659255934117">
        <time>2026-09-19T00:10:51.123000Z</time>
      </trkpt>
      <trkpt lat="39.8624682372926" lon="116.46594374016921">
        <time>2026-09-19T00:11:03.123000Z</time>
      </trkpt>
      <trkpt lat="39.862676135004484" lon="116.46598975255692">
        <time>2026-09-19T00:11:12.123000Z</time>
      </trkpt>
      <trkpt lat="39.86295709835334" lon="116.46598168980269">
        <time>2026-09-19T00:11:24.123000Z</time>
      </trkpt>
      <trkpt lat="39.86324026249479" lon="116.46604888482699">
        <time>2026-09-19T00:11:36.123000Z</time>
      </trkpt>
      <trkpt lat="39.86351517104283" lon="116.46606599076244">
        <time>2026-09-19T00:11:48.123000Z</time>
      </trkpt>
      <trkpt lat="39.8638233542944" lon="116.46609497005342">
        <time>2026-09-19T00:12:00.123000Z</time>
      </trkpt>
      <trkpt lat="39.8641012884085" lon="116.46607586978628">
        <time>2026-09-19T00:12:12.123000Z</time>
      </trkpt>
      <trkpt lat="39.86443526509953" lon="116.4660738210177">
        <time>2026-09-19T00:12:27.123000Z</time>
      </trkpt>
      <trkpt lat="39.86477519595266" lon="116.46605471298444">
        <time>2026-09-19T00:12:42.223000Z</time>
      </trkpt>
      <trkpt lat="39.865052282950856" lon="116.46609280904897">
        <time>2026-09-19T00:12:54.223000Z</time>
      </trkpt>
      <trkpt lat="39.865327354026114" lon="116.46612488474224">
        <time>2026-09-19T00:13:06.323000Z</time>
      </trkpt>
      <trkpt lat="39.865597347658316" lon="116.46612786121341">
        <time>2026-09-19T00:13:18.323000Z</time>
      </trkpt>
      <trkpt lat="39.865877492393615" lon="116.4661639724247">
        <time>2026-09-19T00:13:30.523000Z</time>
      </trkpt>
      <trkpt lat="39.86617249939671" lon="116.46619602333635">
        <time>2026-09-19T00:13:42.723000Z</time>
      </trkpt>
      <trkpt lat="39.866460548485" lon="116.46622006991956">
        <time>2026-09-19T00:13:55.023000Z</time>
      </trkpt>
      <trkpt lat="39.866525719474055" lon="116.46628528582693">
        <time>2026-09-19T00:13:58.123000Z</time>
      </trkpt>
      <trkpt lat="39.866561330226304" lon="116.46651406826497">
        <time>2026-09-19T00:14:04.123000Z</time>
      </trkpt>
      <trkpt lat="39.866607478426445" lon="116.46657025596556">
        <time>2026-09-19T00:14:07.123000Z</time>
      </trkpt>
      <trkpt lat="39.86665348944099" lon="116.46657526747566">
        <time>2026-09-19T00:14:10.123000Z</time>
      </trkpt>
      <trkpt lat="39.866684245722226" lon="116.4664849526852">
        <time>2026-09-19T00:14:13.123000Z</time>
      </trkpt>
      <trkpt lat="39.86671655905713" lon="116.466229068832">
        <time>2026-09-19T00:14:19.123000Z</time>
      </trkpt>
      <trkpt lat="39.8667755183695" lon="116.46621501318543">
        <time>2026-09-19T00:14:22.123000Z</time>
      </trkpt>
      <trkpt lat="39.86705760003974" lon="116.46625110189602">
        <time>2026-09-19T00:14:34.123000Z</time>
      </trkpt>
      <trkpt lat="39.86732856961729" lon="116.46624504722817">
        <time>2026-09-19T00:14:46.123000Z</time>
      </trkpt>
      <trkpt lat="39.867601619622995" lon="116.46626909572448">
        <time>2026-09-19T00:14:58.123000Z</time>
      </trkpt>
      <trkpt lat="39.867738556043264" lon="116.46624800615025">
        <time>2026-09-19T00:15:04.223000Z</time>
      </trkpt>
      <trkpt lat="39.867944612293066" lon="116.46627306649872">
        <time>2026-09-19T00:15:13.323000Z</time>
      </trkpt>
      <trkpt lat="39.868220861303676" lon="116.46625654021136">
        <time>2026-09-19T00:15:25.423000Z</time>
      </trkpt>
      <trkpt lat="39.86851726161194" lon="116.46625131281314">
        <time>2026-09-19T00:15:37.523000Z</time>
      </trkpt>
      <trkpt lat="39.868856873548545" lon="116.46626543229749">
        <time>2026-09-19T00:15:52.923000Z</time>
      </trkpt>
      <trkpt lat="39.86906919386618" lon="116.46622669756309">
        <time>2026-09-19T00:16:02.123000Z</time>
      </trkpt>
      <trkpt lat="39.869368125806176" lon="116.4662477268795">
        <time>2026-09-19T00:16:14.123000Z</time>
      </trkpt>
      <trkpt lat="39.86965100526428" lon="116.46627051515827">
        <time>2026-09-19T00:16:26.123000Z</time>
      </trkpt>
      <trkpt lat="39.869800485618455" lon="116.46626179579958">
        <time>2026-09-19T00:16:32.123000Z</time>
      </trkpt>
      <trkpt lat="39.8696945931423" lon="116.46629994011774">
        <time>2026-09-19T00:16:41.123000Z</time>
      </trkpt>
      <trkpt lat="39.86956058938791" lon="116.46629594313036">
        <time>2026-09-19T00:16:47.123000Z</time>
      </trkpt>
      <trkpt lat="39.86927159448554" lon="116.46617144040586">
        <time>2026-09-19T00:16:59.123000Z</time>
      </trkpt>
      <trkpt lat="39.869002186591544" lon="116.46613445827887">
        <time>2026-09-19T00:17:11.123000Z</time>
      </trkpt>
      <trkpt lat="39.86886127709293" lon="116.46616558274077">
        <time>2026-09-19T00:17:17.223000Z</time>
      </trkpt>
      <trkpt lat="39.86866424986874" lon="116.46615155922402">
        <time>2026-09-19T00:17:26.223000Z</time>
      </trkpt>
      <trkpt lat="39.86838782358331" lon="116.46621442150588">
        <time>2026-09-19T00:17:38.323000Z</time>
      </trkpt>
      <trkpt lat="39.86818745192271" lon="116.46621784644097">
        <time>2026-09-19T00:17:47.323000Z</time>
      </trkpt>
      <trkpt lat="39.86801832937212" lon="116.46616869880481">
        <time>2026-09-19T00:17:53.423000Z</time>
      </trkpt>
      <trkpt lat="39.86781636682214" lon="116.4661787585892">
        <time>2026-09-19T00:18:02.423000Z</time>
      </trkpt>
      <trkpt lat="39.86762945714537" lon="116.46620888540802">
        <time>2026-09-19T00:18:11.423000Z</time>
      </trkpt>
      <trkpt lat="39.86729841023181" lon="116.46618484422537">
        <time>2026-09-19T00:18:26.523000Z</time>
      </trkpt>
      <trkpt lat="39.86702043297221" lon="116.46618788942595">
        <time>2026-09-19T00:18:38.723000Z</time>
      </trkpt>
      <trkpt lat="39.86672846720732" lon="116.46619495016391">
        <time>2026-09-19T00:18:51.023000Z</time>
      </trkpt>
      <trkpt lat="39.866658527252085" lon="116.46621603130431">
        <time>2026-09-19T00:18:54.123000Z</time>
      </trkpt>
      <trkpt lat="39.86663640425058" lon="116.4665431590392">
        <time>2026-09-19T00:19:03.223000Z</time>
      </trkpt>
      <trkpt lat="39.8665714157673" lon="116.46654617755428">
        <time>2026-09-19T00:19:06.223000Z</time>
      </trkpt>
      <trkpt lat="39.866498882008564" lon="116.46634549613722">
        <time>2026-09-19T00:19:12.223000Z</time>
      </trkpt>
      <trkpt lat="39.86649264338719" lon="116.46625618998652">
        <time>2026-09-19T00:19:15.223000Z</time>
      </trkpt>
      <trkpt lat="39.86645147921362" lon="116.46619398145668">
        <time>2026-09-19T00:19:18.223000Z</time>
      </trkpt>
      <trkpt lat="39.86639439105141" lon="116.46615987147442">
        <time>2026-09-19T00:19:21.223000Z</time>
      </trkpt>
      <trkpt lat="39.86632344309401" lon="116.46617794238482">
        <time>2026-09-19T00:19:24.223000Z</time>
      </trkpt>
      <trkpt lat="39.866050385197745" lon="116.46615088361524">
        <time>2026-09-19T00:19:36.323000Z</time>
      </trkpt>
      <trkpt lat="39.865912349641306" lon="116.46613484581634">
        <time>2026-09-19T00:19:42.323000Z</time>
      </trkpt>
      <trkpt lat="39.865581150185186" lon="116.46605360846392">
        <time>2026-09-19T00:19:57.423000Z</time>
      </trkpt>
      <trkpt lat="39.865294063708966" lon="116.46601551369407">
        <time>2026-09-19T00:20:09.523000Z</time>
      </trkpt>
      <trkpt lat="39.865149135747146" lon="116.46603961446058">
        <time>2026-09-19T00:20:15.623000Z</time>
      </trkpt>
      <trkpt lat="39.86487100866974" lon="116.46598646697689">
        <time>2026-09-19T00:20:27.823000Z</time>
      </trkpt>
      <trkpt lat="39.86465190528156" lon="116.46594334655609">
        <time>2026-09-19T00:20:37.023000Z</time>
      </trkpt>
      <trkpt lat="39.864423019304326" lon="116.46598150596134">
        <time>2026-09-19T00:20:46.123000Z</time>
      </trkpt>
      <trkpt lat="39.864081946603775" lon="116.46594743179374">
        <time>2026-09-19T00:21:01.123000Z</time>
      </trkpt>
      <trkpt lat="39.86385411149811" lon="116.46600465643537">
        <time>2026-09-19T00:21:10.123000Z</time>
      </trkpt>
      <trkpt lat="39.863529072785504" lon="116.4659836249526">
        <time>2026-09-19T00:21:25.123000Z</time>
      </trkpt>
      <trkpt lat="39.86334509611046" lon="116.46598866522505">
        <time>2026-09-19T00:21:34.123000Z</time>
      </trkpt>
      <trkpt lat="39.86304785520252" lon="116.46589237237782">
        <time>2026-09-19T00:21:46.123000Z</time>
      </trkpt>
      <trkpt lat="39.86276981942684" lon="116.46587334193947">
        <time>2026-09-19T00:21:58.123000Z</time>
      </trkpt>
      <trkpt lat="39.8626328696637" lon="116.46588941410883">
        <time>2026-09-19T00:22:04.123000Z</time>
      </trkpt>
      <trkpt lat="39.862499793948786" lon="116.46585832425238">
        <time>2026-09-19T00:22:10.123000Z</time>
      </trkpt>
      <trkpt lat="39.862206767075136" lon="116.46584230601991">
        <time>2026-09-19T00:22:22.123000Z</time>
      </trkpt>
      <trkpt lat="39.86192473428682" lon="116.4658242795445">
        <time>2026-09-19T00:22:34.123000Z</time>
      </trkpt>
      <trkpt lat="39.86171182078349" lon="116.46585240245169">
        <time>2026-09-19T00:22:43.123000Z</time>
      </trkpt>
      <trkpt lat="39.861369753875195" lon="116.46582033540079">
        <time>2026-09-19T00:22:58.123000Z</time>
      </trkpt>
      <trkpt lat="39.861294803437886" lon="116.46583740320611">
        <time>2026-09-19T00:23:01.123000Z</time>
      </trkpt>
      <trkpt lat="39.861616024017366" lon="116.46592666882714">
        <time>2026-09-19T00:23:16.123000Z</time>
      </trkpt>
      <trkpt lat="39.86191007222651" lon="116.46595071448102">
        <time>2026-09-19T00:23:28.123000Z</time>
      </trkpt>
      <trkpt lat="39.862190944515675" lon="116.46590853484426">
        <time>2026-09-19T00:23:40.123000Z</time>
      </trkpt>
      <trkpt lat="39.862479051984934" lon="116.46595465688533">
        <time>2026-09-19T00:23:52.123000Z</time>
      </trkpt>
      <trkpt lat="39.862810095606534" lon="116.46597769447833">
        <time>2026-09-19T00:24:07.123000Z</time>
      </trkpt>
      <trkpt lat="39.863097138976855" lon="116.46599973416335">
        <time>2026-09-19T00:24:19.123000Z</time>
      </trkpt>
      <trkpt lat="39.86337822824668" lon="116.4660388331094">
        <time>2026-09-19T00:24:31.123000Z</time>
      </trkpt>
      <trkpt lat="39.8636747921138" lon="116.4660712957827">
        <time>2026-09-19T00:24:43.123000Z</time>
      </trkpt>
      <trkpt lat="39.86398133774485" lon="116.46609193991246">
        <time>2026-09-19T00:24:55.123000Z</time>
      </trkpt>
      <trkpt lat="39.86430829067908" lon="116.46608086103937">
        <time>2026-09-19T00:25:10.223000Z</time>
      </trkpt>
      <trkpt lat="39.86458525169027" lon="116.46607179532297">
        <time>2026-09-19T00:25:22.223000Z</time>
      </trkpt>
      <trkpt lat="39.86487127655868" lon="116.46608681109176">
        <time>2026-09-19T00:25:34.223000Z</time>
      </trkpt>
      <trkpt lat="39.865162269027635" lon="116.46608978492642">
        <time>2026-09-19T00:25:46.223000Z</time>
      </trkpt>
      <trkpt lat="39.86544138279178" lon="116.46613791521457">
        <time>2026-09-19T00:25:58.323000Z</time>
      </trkpt>
      <trkpt lat="39.865721002748295" lon="116.46614099284436">
        <time>2026-09-19T00:26:10.523000Z</time>
      </trkpt>
      <trkpt lat="39.86606247574039" lon="116.46618499923204">
        <time>2026-09-19T00:26:25.823000Z</time>
      </trkpt>
      <trkpt lat="39.86635050066982" lon="116.4662000147962">
        <time>2026-09-19T00:26:38.023000Z</time>
      </trkpt>
      <trkpt lat="39.86642152909203" lon="116.46621204724188">
        <time>2026-09-19T00:26:41.123000Z</time>
      </trkpt>
      <trkpt lat="39.86650264554037" lon="116.46625719217964">
        <time>2026-09-19T00:26:44.123000Z</time>
      </trkpt>
      <trkpt lat="39.86658416768313" lon="116.46645385818603">
        <time>2026-09-19T00:26:50.123000Z</time>
      </trkpt>
      <trkpt lat="39.866631361478234" lon="116.46652710439236">
        <time>2026-09-19T00:26:53.123000Z</time>
      </trkpt>
      <trkpt lat="39.86669034490278" lon="116.46652207972248">
        <time>2026-09-19T00:26:56.123000Z</time>
      </trkpt>
      <trkpt lat="39.86669172677901" lon="116.46629128569789">
        <time>2026-09-19T00:27:02.123000Z</time>
      </trkpt>
      <trkpt lat="39.86671848383192" lon="116.46620097209158">
        <time>2026-09-19T00:27:05.123000Z</time>
      </trkpt>
      <trkpt lat="39.866928580029445" lon="116.46624108360467">
        <time>2026-09-19T00:27:14.123000Z</time>
      </trkpt>
      <trkpt lat="39.86705553306181" lon="116.46622601597915">
        <time>2026-09-19T00:27:20.123000Z</time>
      </trkpt>
      <trkpt lat="39.86734654451633" lon="116.46623601394981">
        <time>2026-09-19T00:27:32.123000Z</time>
      </trkpt>
      <trkpt lat="39.867625602254016" lon="116.46626307202976">
        <time>2026-09-19T00:27:44.123000Z</time>
      </trkpt>
      <trkpt lat="39.86789951804765" lon="116.46623694804332">
        <time>2026-09-19T00:27:56.223000Z</time>
      </trkpt>
      <trkpt lat="39.86818048180372" lon="116.46622888522882">
        <time>2026-09-19T00:28:08.223000Z</time>
      </trkpt>
      <trkpt lat="39.86825250485342" lon="116.46623891066528">
        <time>2026-09-19T00:28:11.223000Z</time>
      </trkpt>
      <trkpt lat="39.86832159784489" lon="116.46627502611324">
        <time>2026-09-19T00:28:14.223000Z</time>
      </trkpt>
      <trkpt lat="39.86839557517165" lon="116.46626799269889">
        <time>2026-09-19T00:28:17.223000Z</time>
      </trkpt>
      <trkpt lat="39.868467724953625" lon="116.46623735615518">
        <time>2026-09-19T00:28:20.323000Z</time>
      </trkpt>
      <trkpt lat="39.86875549457012" lon="116.46624486826167">
        <time>2026-09-19T00:28:32.223000Z</time>
      </trkpt>
      <trkpt lat="39.86903246665551" lon="116.466239816286">
        <time>2026-09-19T00:28:44.323000Z</time>
      </trkpt>
      <trkpt lat="39.869312065836155" lon="116.46624122564324">
        <time>2026-09-19T00:28:56.323000Z</time>
      </trkpt>
      <trkpt lat="39.86964353405756" lon="116.46627686720603">
        <time>2026-09-19T00:29:11.323000Z</time>
      </trkpt>
      <trkpt lat="39.86975750664534" lon="116.46626882532577">
        <time>2026-09-19T00:29:17.423000Z</time>
      </trkpt>
      <trkpt lat="39.869819562470475" lon="116.46629089340469">
        <time>2026-09-19T00:29:20.423000Z</time>
      </trkpt>
      <trkpt lat="39.869637649810976" lon="116.46632001624191">
        <time>2026-09-19T00:29:29.523000Z</time>
      </trkpt>
      <trkpt lat="39.86938738955391" lon="116.4662525560338">
        <time>2026-09-19T00:29:41.723000Z</time>
      </trkpt>
      <trkpt lat="39.86929893937928" lon="116.46621041116373">
        <time>2026-09-19T00:29:44.823000Z</time>
      </trkpt>
      <trkpt lat="39.869210285660444" lon="116.46617557341776">
        <time>2026-09-19T00:29:47.923000Z</time>
      </trkpt>
      <trkpt lat="39.86894030245898" lon="116.46617661072725">
        <time>2026-09-19T00:30:00.023000Z</time>
      </trkpt>
      <trkpt lat="39.868642331474724" lon="116.46618166532895">
        <time>2026-09-19T00:30:12.223000Z</time>
      </trkpt>
      <trkpt lat="39.868370434262985" lon="116.46621481315108">
        <time>2026-09-19T00:30:24.223000Z</time>
      </trkpt>
      <trkpt lat="39.86807330234431" lon="116.46615966090397">
        <time>2026-09-19T00:30:36.323000Z</time>
      </trkpt>
      <trkpt lat="39.867841422892525" lon="116.46611470386398">
        <time>2026-09-19T00:30:45.323000Z</time>
      </trkpt>
      <trkpt lat="39.867703308411976" lon="116.4661546900858">
        <time>2026-09-19T00:30:51.423000Z</time>
      </trkpt>
      <trkpt lat="39.8674263766536" lon="116.46617479372094">
        <time>2026-09-19T00:31:03.523000Z</time>
      </trkpt>
      <trkpt lat="39.86708635706942" lon="116.46616078813427">
        <time>2026-09-19T00:31:18.923000Z</time>
      </trkpt>
      <trkpt lat="39.86677252925991" lon="116.46621902734613">
        <time>2026-09-19T00:31:31.123000Z</time>
      </trkpt>
      <trkpt lat="39.866705532809746" lon="116.4662190357485">
        <time>2026-09-19T00:31:34.123000Z</time>
      </trkpt>
      <trkpt lat="39.86664362732787" lon="116.46625316070889">
        <time>2026-09-19T00:31:37.123000Z</time>
      </trkpt>
      <trkpt lat="39.86661987559105" lon="116.46634548096365">
        <time>2026-09-19T00:31:40.123000Z</time>
      </trkpt>
      <trkpt lat="39.86663869748566" lon="116.46665253552277">
        <time>2026-09-19T00:31:49.123000Z</time>
      </trkpt>
      <trkpt lat="39.86659476982809" lon="116.46667863094963">
        <time>2026-09-19T00:31:52.123000Z</time>
      </trkpt>
      <trkpt lat="39.86660382810043" lon="116.46632742088251">
        <time>2026-09-19T00:32:01.123000Z</time>
      </trkpt>
      <trkpt lat="39.866574598783956" lon="116.46624112799896">
        <time>2026-09-19T00:32:04.123000Z</time>
      </trkpt>
      <trkpt lat="39.86641646229523" lon="116.4661869617283">
        <time>2026-09-19T00:32:10.123000Z</time>
      </trkpt>
      <trkpt lat="39.8660763918592" lon="116.46615389068764">
        <time>2026-09-19T00:32:25.123000Z</time>
      </trkpt>
      <trkpt lat="39.865800253741064" lon="116.46609672901523">
        <time>2026-09-19T00:32:37.123000Z</time>
      </trkpt>
      <trkpt lat="39.86551007896201" lon="116.46602552101272">
        <time>2026-09-19T00:32:49.123000Z</time>
      </trkpt>
      <trkpt lat="39.86522504329101" lon="116.46600649138311">
        <time>2026-09-19T00:33:01.123000Z</time>
      </trkpt>
      <trkpt lat="39.864948031325895" lon="116.46599649171962">
        <time>2026-09-19T00:33:13.123000Z</time>
      </trkpt>
      <trkpt lat="39.86466394747011" lon="116.4659594000724">
        <time>2026-09-19T00:33:25.123000Z</time>
      </trkpt>
      <trkpt lat="39.86437800565521" lon="116.46597549096738">
        <time>2026-09-19T00:33:37.123000Z</time>
      </trkpt>
      <trkpt lat="39.86404502623432" lon="116.46597653616722">
        <time>2026-09-19T00:33:52.123000Z</time>
      </trkpt>
      <trkpt lat="39.863735155407554" lon="116.4660187195241">
        <time>2026-09-19T00:34:04.123000Z</time>
      </trkpt>
      <trkpt lat="39.863672158804334" lon="116.46601872742441">
        <time>2026-09-19T00:34:07.123000Z</time>
      </trkpt>
      <trkpt lat="39.86335603660939" lon="116.46596658817725">
        <time>2026-09-19T00:34:22.123000Z</time>
      </trkpt>
      <trkpt lat="39.86302883482613" lon="116.46588434726425">
        <time>2026-09-19T00:34:37.123000Z</time>
      </trkpt>
      <trkpt lat="39.86275190334652" lon="116.4659044507447">
        <time>2026-09-19T00:34:49.123000Z</time>
      </trkpt>
      <trkpt lat="39.862435816149414" lon="116.46586535633209">
        <time>2026-09-19T00:35:04.123000Z</time>
      </trkpt>
      <trkpt lat="39.862141794683126" lon="116.46585134509372">
        <time>2026-09-19T00:35:16.123000Z</time>
      </trkpt>
      <trkpt lat="39.86187177996419" lon="116.46584034115789">
        <time>2026-09-19T00:35:28.123000Z</time>
      </trkpt>
      <trkpt lat="39.861532817178784" lon="116.46584740771844">
        <time>2026-09-19T00:35:43.123000Z</time>
      </trkpt>
      <trkpt lat="39.86134881118364" lon="116.4658414101771">
        <time>2026-09-19T00:35:52.123000Z</time>
      </trkpt>
      <trkpt lat="39.861654003209075" lon="116.4659196399968">
        <time>2026-09-19T00:36:04.123000Z</time>
      </trkpt>
      <trkpt lat="39.861993038260024" lon="116.46593966624948">
        <time>2026-09-19T00:36:19.123000Z</time>
      </trkpt>
      <trkpt lat="39.86226498866378" lon="116.46592658744486">
        <time>2026-09-19T00:36:31.123000Z</time>
      </trkpt>
      <trkpt lat="39.86254608315114" lon="116.46596769319042">
        <time>2026-09-19T00:36:43.123000Z</time>
      </trkpt>
      <trkpt lat="39.86283408895076" lon="116.46597568458992">
        <time>2026-09-19T00:36:55.123000Z</time>
      </trkpt>
      <trkpt lat="39.863105181395966" lon="116.46601578820456">
        <time>2026-09-19T00:37:07.123000Z</time>
      </trkpt>
      <trkpt lat="39.863230292507524" lon="116.46605992393795">
        <time>2026-09-19T00:37:13.123000Z</time>
      </trkpt>
      <trkpt lat="39.86351117594648" lon="116.46607557765833">
        <time>2026-09-19T00:37:25.123000Z</time>
      </trkpt>
      <trkpt lat="39.86374134531298" lon="116.4660899631231">
        <time>2026-09-19T00:37:34.123000Z</time>
      </trkpt>
      <trkpt lat="39.86378754121934" lon="116.46616421217641">
        <time>2026-09-19T00:37:37.123000Z</time>
      </trkpt>
      <trkpt lat="39.86378900811669" lon="116.46633881180877">
        <time>2026-09-19T00:37:43.123000Z</time>
      </trkpt>
      <trkpt lat="39.863830215446804" lon="116.46641707578935">
        <time>2026-09-19T00:37:46.123000Z</time>
      </trkpt>
      <trkpt lat="39.86389308846241" lon="116.46637090915769">
        <time>2026-09-19T00:37:49.123000Z</time>
      </trkpt>
      <trkpt lat="39.863898776682454" lon="116.46625450837568">
        <time>2026-09-19T00:37:52.123000Z</time>
      </trkpt>
      <trkpt lat="39.86392450166029" lon="116.46615215366467">
        <time>2026-09-19T00:37:55.123000Z</time>
      </trkpt>
      <trkpt lat="39.863969260676924" lon="116.46606284159334">
        <time>2026-09-19T00:37:58.123000Z</time>
      </trkpt>
      <trkpt lat="39.864037184679376" lon="116.46603574014696">
        <time>2026-09-19T00:38:01.123000Z</time>
      </trkpt>
      <trkpt lat="39.86431225562776" lon="116.46606781578997">
        <time>2026-09-19T00:38:13.123000Z</time>
      </trkpt>
      <trkpt lat="39.86445328021184" lon="116.46607983941374">
        <time>2026-09-19T00:38:19.123000Z</time>
      </trkpt>
      <trkpt lat="39.86478722746275" lon="116.46606675278113">
        <time>2026-09-19T00:38:34.123000Z</time>
      </trkpt>
      <trkpt lat="39.86507427641376" lon="116.46609079940477">
        <time>2026-09-19T00:38:46.223000Z</time>
      </trkpt>
      <trkpt lat="39.865355363254196" lon="116.46612889500534">
        <time>2026-09-19T00:38:58.223000Z</time>
      </trkpt>
      <trkpt lat="39.86562732729272" lon="116.4661208333463">
        <time>2026-09-19T00:39:10.223000Z</time>
      </trkpt>
      <trkpt lat="39.86590518038099" lon="116.46616222481629">
        <time>2026-09-19T00:39:22.323000Z</time>
      </trkpt>
      <trkpt lat="39.8659733168872" lon="116.46617182419484">
        <time>2026-09-19T00:39:25.423000Z</time>
      </trkpt>
      <trkpt lat="39.866265277330136" lon="116.46620049113153">
        <time>2026-09-19T00:39:37.623000Z</time>
      </trkpt>
      <trkpt lat="39.866468548060475" lon="116.4662200689163">
        <time>2026-09-19T00:39:46.823000Z</time>
      </trkpt>
      <trkpt lat="39.86652172773947" lon="116.46628829667246">
        <time>2026-09-19T00:39:49.923000Z</time>
      </trkpt>
      <trkpt lat="39.86653099581616" lon="116.46638864047978">
        <time>2026-09-19T00:39:52.923000Z</time>
      </trkpt>
      <trkpt lat="39.866507483730295" lon="116.46657026850461">
        <time>2026-09-19T00:39:58.923000Z</time>
      </trkpt>
      <trkpt lat="39.866543635220395" lon="116.4666274609997">
        <time>2026-09-19T00:40:02.023000Z</time>
      </trkpt>
      <trkpt lat="39.866620609602926" lon="116.4666194236892">
        <time>2026-09-19T00:40:05.123000Z</time>
      </trkpt>
      <trkpt lat="39.866681326553426" lon="116.46651505667181">
        <time>2026-09-19T00:40:08.123000Z</time>
      </trkpt>
      <trkpt lat="39.86668380506295" lon="116.46632038670745">
        <time>2026-09-19T00:40:14.123000Z</time>
      </trkpt>
      <trkpt lat="39.86669957605723" lon="116.46623509164303">
        <time>2026-09-19T00:40:17.123000Z</time>
      </trkpt>
      <trkpt lat="39.86676052989561" lon="116.46621902885103">
        <time>2026-09-19T00:40:20.123000Z</time>
      </trkpt>
      <trkpt lat="39.866960629324645" lon="116.4662601450851">
        <time>2026-09-19T00:40:29.123000Z</time>
      </trkpt>
      <trkpt lat="39.86720857559933" lon="116.4662080717003">
        <time>2026-09-19T00:40:41.123000Z</time>
      </trkpt>
      <trkpt lat="39.86751779632861" lon="116.4662553288203">
        <time>2026-09-19T00:40:53.123000Z</time>
      </trkpt>
      <trkpt lat="39.86777552725979" lon="116.46623796704134">
        <time>2026-09-19T00:41:05.223000Z</time>
      </trkpt>
      <trkpt lat="39.86790673456026" lon="116.46624794239844">
        <time>2026-09-19T00:41:11.223000Z</time>
      </trkpt>
      <trkpt lat="39.86817781814733" lon="116.46623309962767">
        <time>2026-09-19T00:41:23.223000Z</time>
      </trkpt>
      <trkpt lat="39.86845097209096" lon="116.4662540213772">
        <time>2026-09-19T00:41:35.223000Z</time>
      </trkpt>
      <trkpt lat="39.86872915435847" lon="116.46625540213029">
        <time>2026-09-19T00:41:47.223000Z</time>
      </trkpt>
      <trkpt lat="39.86900424251458" lon="116.4662404764428">
        <time>2026-09-19T00:41:59.223000Z</time>
      </trkpt>
      <trkpt lat="39.86928281797688" lon="116.46621398760425">
        <time>2026-09-19T00:42:11.223000Z</time>
      </trkpt>
      <trkpt lat="39.86956422610157" lon="116.46627117745892">
        <time>2026-09-19T00:42:23.223000Z</time>
      </trkpt>
      <trkpt lat="39.869636606562224" lon="116.46628373207668">
        <time>2026-09-19T00:42:26.223000Z</time>
      </trkpt>
      <trkpt lat="39.86985093767493" lon="116.4663138080536">
        <time>2026-09-19T00:42:35.223000Z</time>
      </trkpt>
      <trkpt lat="39.8695756181379" lon="116.46630697918286">
        <time>2026-09-19T00:42:47.223000Z</time>
      </trkpt>
      <trkpt lat="39.86929058485962" lon="116.46621568066415">
        <time>2026-09-19T00:42:59.223000Z</time>
      </trkpt>
      <trkpt lat="39.869013290594296" lon="116.46617359123607">
        <time>2026-09-19T00:43:11.323000Z</time>
      </trkpt>
      <trkpt lat="39.868682177220165" lon="116.46617320906918">
        <time>2026-09-19T00:43:26.323000Z</time>
      </trkpt>
      <trkpt lat="39.86852740794725" lon="116.46614822518278">
        <time>2026-09-19T00:43:32.423000Z</time>
      </trkpt>
      <trkpt lat="39.86825829721045" lon="116.46613867245972">
        <time>2026-09-19T00:43:44.523000Z</time>
      </trkpt>
      <trkpt lat="39.868175184768525" lon="116.46615546863067">
        <time>2026-09-19T00:43:47.523000Z</time>
      </trkpt>
      <trkpt lat="39.867823383262674" lon="116.46611375630766">
        <time>2026-09-19T00:44:02.923000Z</time>
      </trkpt>
      <trkpt lat="39.867766146922904" lon="116.46609547900684">
        <time>2026-09-19T00:44:06.023000Z</time>
      </trkpt>
      <trkpt lat="39.86762622131185" lon="116.46612058264617">
        <time>2026-09-19T00:44:12.123000Z</time>
      </trkpt>
      <trkpt lat="39.86746339079319" lon="116.46618080975117">
        <time>2026-09-19T00:44:18.123000Z</time>
      </trkpt>
      <trkpt lat="39.86714934569393" lon="116.46615776989948">
        <time>2026-09-19T00:44:33.223000Z</time>
      </trkpt>
      <trkpt lat="39.867014344787954" lon="116.46615477649682">
        <time>2026-09-19T00:44:39.223000Z</time>
      </trkpt>
      <trkpt lat="39.86678646145227" lon="116.46619393944461">
        <time>2026-09-19T00:44:48.323000Z</time>
      </trkpt>
      <trkpt lat="39.86671044133833" lon="116.46618491796745">
        <time>2026-09-19T00:44:51.323000Z</time>
      </trkpt>
      <trkpt lat="39.866644487753916" lon="116.46620098137187">
        <time>2026-09-19T00:44:54.323000Z</time>
      </trkpt>
      <trkpt lat="39.866616736123696" lon="116.46629330199949">
        <time>2026-09-19T00:44:57.323000Z</time>
      </trkpt>
      <trkpt lat="39.866630334635694" lon="116.46651706997511">
        <time>2026-09-19T00:45:03.323000Z</time>
      </trkpt>
      <trkpt lat="39.866595500588275" lon="116.46657828511546">
        <time>2026-09-19T00:45:06.423000Z</time>
      </trkpt>
      <trkpt lat="39.86653838792803" lon="116.4665351436899">
        <time>2026-09-19T00:45:09.423000Z</time>
      </trkpt>
      <trkpt lat="39.86648719433371" lon="116.46646189796984">
        <time>2026-09-19T00:45:12.423000Z</time>
      </trkpt>
      <trkpt lat="39.866493654069245" lon="116.46626020364994">
        <time>2026-09-19T00:45:18.523000Z</time>
      </trkpt>
      <trkpt lat="39.86645548973099" lon="116.46619799473717">
        <time>2026-09-19T00:45:21.623000Z</time>
      </trkpt>
      <trkpt lat="39.866395417815575" lon="116.46616990579592">
        <time>2026-09-19T00:45:24.723000Z</time>
      </trkpt>
      <trkpt lat="39.866118405715035" lon="116.46615990608726">
        <time>2026-09-19T00:45:36.923000Z</time>
      </trkpt>
      <trkpt lat="39.865815314593" lon="116.46611980632618">
        <time>2026-09-19T00:45:49.123000Z</time>
      </trkpt>
      <trkpt lat="39.86557715843643" lon="116.46605661929064">
        <time>2026-09-19T00:45:58.123000Z</time>
      </trkpt>
      <trkpt lat="39.865265172413054" lon="116.46605565497663">
        <time>2026-09-19T00:46:10.123000Z</time>
      </trkpt>
      <trkpt lat="39.86514522169898" lon="116.46607172509593">
        <time>2026-09-19T00:46:16.123000Z</time>
      </trkpt>
      <trkpt lat="39.86476700620778" lon="116.46598346970022">
        <time>2026-09-19T00:46:31.123000Z</time>
      </trkpt>
      <trkpt lat="39.864550993691076" lon="116.46597446583233">
        <time>2026-09-19T00:46:40.123000Z</time>
      </trkpt>
      <trkpt lat="39.864483938386655" lon="116.46595239857349">
        <time>2026-09-19T00:46:43.123000Z</time>
      </trkpt>
      <trkpt lat="39.86436203329101" lon="116.46598552736991">
        <time>2026-09-19T00:46:49.123000Z</time>
      </trkpt>
      <trkpt lat="39.86407204620273" lon="116.46598456029797">
        <time>2026-09-19T00:47:01.123000Z</time>
      </trkpt>
      <trkpt lat="39.863917148280116" lon="116.46601970014152">
        <time>2026-09-19T00:47:07.123000Z</time>
      </trkpt>
      <trkpt lat="39.86383825701419" lon="116.46605884425381">
        <time>2026-09-19T00:47:10.123000Z</time>
      </trkpt>
      <trkpt lat="39.86377025799905" lon="116.46605784933935">
        <time>2026-09-19T00:47:13.123000Z</time>
      </trkpt>
      <trkpt lat="39.86344306403994" lon="116.46597861853932">
        <time>2026-09-19T00:47:28.123000Z</time>
      </trkpt>
      <trkpt lat="39.86317789365909" lon="116.46590941451068">
        <time>2026-09-19T00:47:40.123000Z</time>
      </trkpt>
      <trkpt lat="39.86290785475584" lon="116.46588937962306">
        <time>2026-09-19T00:47:52.123000Z</time>
      </trkpt>
      <trkpt lat="39.86263688282506" lon="116.46589443079276">
        <time>2026-09-19T00:48:04.123000Z</time>
      </trkpt>
      <trkpt lat="39.86235187154372" lon="116.4658844321618">
        <time>2026-09-19T00:48:16.123000Z</time>
      </trkpt>
      <trkpt lat="39.86206786291125" lon="116.46587543684463">
        <time>2026-09-19T00:48:28.123000Z</time>
      </trkpt>
      <trkpt lat="39.86177983579916" lon="116.46585941797713">
        <time>2026-09-19T00:48:40.123000Z</time>
      </trkpt>
      <trkpt lat="39.86143180129867" lon="116.46583939289782">
        <time>2026-09-19T00:48:55.123000Z</time>
      </trkpt>
      <trkpt lat="39.86136482100745" lon="116.46584542191363">
        <time>2026-09-19T00:48:58.123000Z</time>
      </trkpt>
      <trkpt lat="39.861649057012166" lon="116.46593970938541">
        <time>2026-09-19T00:49:13.123000Z</time>
      </trkpt>
      <trkpt lat="39.86192902033277" lon="116.46593164676875">
        <time>2026-09-19T00:49:25.123000Z</time>
      </trkpt>
      <trkpt lat="39.862065962021774" lon="116.46591256426937">
        <time>2026-09-19T00:49:31.123000Z</time>
      </trkpt>
      <trkpt lat="39.862352024083926" lon="116.46594162810878">
        <time>2026-09-19T00:49:43.123000Z</time>
      </trkpt>
      <trkpt lat="39.86263909684638" lon="116.46597470560323">
        <time>2026-09-19T00:49:55.123000Z</time>
      </trkpt>
      <trkpt lat="39.862915140795536" lon="116.4659967466659">
        <time>2026-09-19T00:50:07.123000Z</time>
      </trkpt>
      <trkpt lat="39.863049133540265" lon="116.46599672986245">
        <time>2026-09-19T00:50:13.123000Z</time>
      </trkpt>
      <trkpt lat="39.863236286824375" lon="116.46605791630222">
        <time>2026-09-19T00:50:22.123000Z</time>
      </trkpt>
      <trkpt lat="39.8635252874919" lon="116.46605848127739">
        <time>2026-09-19T00:50:34.123000Z</time>
      </trkpt>
      <trkpt lat="39.86373437785274" lon="116.4661020053132">
        <time>2026-09-19T00:50:43.123000Z</time>
      </trkpt>
      <trkpt lat="39.8638386618532" lon="116.46621036425864">
        <time>2026-09-19T00:50:49.123000Z</time>
      </trkpt>
      <trkpt lat="39.86390757766478" lon="116.46618025224511">
        <time>2026-09-19T00:50:52.123000Z</time>
      </trkpt>
      <trkpt lat="39.8639843992318" lon="116.46611501872317">
        <time>2026-09-19T00:50:55.123000Z</time>
      </trkpt>
      <trkpt lat="39.86411727414934" lon="116.46607085056934">
        <time>2026-09-19T00:51:01.123000Z</time>
      </trkpt>
      <trkpt lat="39.86444630470714" lon="116.46608887127331">
        <time>2026-09-19T00:51:16.123000Z</time>
      </trkpt>
      <trkpt lat="39.86458526240912" lon="116.46607580909152">
        <time>2026-09-19T00:51:22.123000Z</time>
      </trkpt>
      <trkpt lat="39.86492133284672" lon="116.46610888056324">
        <time>2026-09-19T00:51:37.123000Z</time>
      </trkpt>
      <trkpt lat="39.865121356993384" lon="116.46612190024513">
        <time>2026-09-19T00:51:46.123000Z</time>
      </trkpt>
      <trkpt lat="39.86519042033051" lon="116.46614697768739">
        <time>2026-09-19T00:51:49.123000Z</time>
      </trkpt>
      <trkpt lat="39.86550834704417" lon="116.46612586548734">
        <time>2026-09-19T00:52:04.123000Z</time>
      </trkpt>
      <trkpt lat="39.86578543952806" lon="116.46616596851547">
        <time>2026-09-19T00:52:16.123000Z</time>
      </trkpt>
      <trkpt lat="39.8658904929399" lon="116.46618803113762">
        <time>2026-09-19T00:52:22.123000Z</time>
      </trkpt>
      <trkpt lat="39.86596645670925" lon="116.46617598026523">
        <time>2026-09-19T00:52:25.123000Z</time>
      </trkpt>
      <trkpt lat="39.866257580728124" lon="116.46622812294729">
        <time>2026-09-19T00:52:37.223000Z</time>
      </trkpt>
      <trkpt lat="39.86646758836014" lon="116.46623512073745">
        <time>2026-09-19T00:52:46.223000Z</time>
      </trkpt>
      <trkpt lat="39.86651581934148" lon="116.46632241467293">
        <time>2026-09-19T00:52:49.223000Z</time>
      </trkpt>
      <trkpt lat="39.86651760968223" lon="116.46661742969053">
        <time>2026-09-19T00:52:58.423000Z</time>
      </trkpt>
      <trkpt lat="39.86659796361821" lon="116.46675087964825">
        <time>2026-09-19T00:53:04.423000Z</time>
      </trkpt>
      <trkpt lat="39.8666736525549" lon="116.46663647581394">
        <time>2026-09-19T00:53:10.623000Z</time>
      </trkpt>
      <trkpt lat="39.86668987456617" lon="116.46634647563508">
        <time>2026-09-19T00:53:19.823000Z</time>
      </trkpt>
      <trkpt lat="39.86668066830818" lon="116.46626921122558">
        <time>2026-09-19T00:53:22.823000Z</time>
      </trkpt>
      <trkpt lat="39.86672255337297" lon="116.46622706118674">
        <time>2026-09-19T00:53:25.823000Z</time>
      </trkpt>
    </trkseg>
  </trk>
</gpx>