<?xml version="1.0" encoding="UTF-8"?>
<gpx xmlns="http://www.topografix.com/GPX/1/1" xmlns:gpxtpx="http://www.garmin.com/xmlschemas/TrackPointExtension/v1" xmlns:xsi="http://www.w3.org/2001/XMLSchema-instance" xsi:schemaLocation="http://www.topografix.com/GPX/1/1 http://www.topografix.com/GPX/1/1/gpx.xsd" version="1.1" creator="gpx.py -- https://github.com/tkrajina/gpxpy">
  <trk>
    <name>gpx from keep</name>
    <type>Run</type>
    <trkseg>
      <trkpt lat="39.89033868825116" lon="116.34086725538027">
        <ele>0.0</ele>
        <time>2026-08-31T22:16:09.790000Z</time>
      </trkpt>
      <trkpt lat="39.89027336841333" lon="116.3404880784329">
        <ele>0.0</ele>
        <time>2026-08-31T22:16:27.790000Z</time>
      </trkpt>
      <trkpt lat="39.89030847923789" lon="116.3404252093234">
        <ele>0.0</ele>
        <time>2026-08-31T22:16:30.790000Z</time>
      </trkpt>
      <trkpt lat="39.89046142568764" lon="116.34045113413775">
        <ele>0.0</ele>
        <time>2026-08-31T22:16:39.790000Z</time>
      </trkpt>
      <trkpt lat="39.89066025760116" lon="116.34053991789308">
        <ele>0.0</ele>
        <time>2026-08-31T22:16:48.790000Z</time>
      </trkpt>
      <trkpt lat="39.890699925982155" lon="116.3407245160521">
        <ele>0.0</ele>
        <time>2026-08-31T22:16:54.890000Z</time>
      </trkpt>
      <trkpt lat="39.890701184449156" lon="116.3411406236296">
        <ele>0.0</ele>
        <time>2026-08-31T22:17:09.890000Z</time>
      </trkpt>
      <trkpt lat="39.890701022992864" lon="116.3412314293473">
        <ele>0.0</ele>
        <time>2026-08-31T22:17:12.890000Z</time>
      </trkpt>
      <trkpt lat="39.89070732859656" lon="116.34162259326875">
        <ele>0.0</ele>
        <time>2026-08-31T22:17:24.990000Z</time>
      </trkpt>
      <trkpt lat="39.89069500417833" lon="116.3418062037273">
        <ele>0.0</ele>
        <time>2026-08-31T22:17:31.090000Z</time>
      </trkpt>
      <trkpt lat="39.89074352246004" lon="116.34207762060058">
        <ele>0.0</ele>
        <time>2026-08-31T22:17:40.090000Z</time>
      </trkpt>
      <trkpt lat="39.890794405686876" lon="116.34214247648883">
        <ele>0.0</ele>
        <time>2026-08-31T22:17:43.090000Z</time>
      </trkpt>
      <trkpt lat="39.89106641415485" lon="116.34213046751107">
        <ele>0.0</ele>
        <time>2026-08-31T22:17:55.390000Z</time>
      </trkpt>
      <trkpt lat="39.89136541258945" lon="116.34212344453375">
        <ele>0.0</ele>
        <time>2026-08-31T22:18:07.590000Z</time>
      </trkpt>
      <trkpt lat="39.891546421793294" lon="116.34211344282869">
        <ele>0.0</ele>
        <time>2026-08-31T22:18:16.590000Z</time>
      </trkpt>
      <trkpt lat="39.89185534764933" lon="116.34214733176616">
        <ele>0.0</ele>
        <time>2026-08-31T22:18:28.590000Z</time>
      </trkpt>
      <trkpt lat="39.892132380584655" lon="116.34212135180036">
        <ele>0.0</ele>
        <time>2026-08-31T22:18:40.590000Z</time>
      </trkpt>
      <trkpt lat="39.89241942716796" lon="116.3420873875296">
        <ele>0.0</ele>
        <time>2026-08-31T22:18:52.690000Z</time>
      </trkpt>
      <trkpt lat="39.892629420997814" lon="116.34208536521628">
        <ele>0.0</ele>
        <time>2026-08-31T22:19:01.690000Z</time>
      </trkpt>
      <trkpt lat="39.89290858601663" lon="116.34198454400092">
        <ele>0.0</ele>
        <time>2026-08-31T22:19:13.790000Z</time>
      </trkpt>
      <trkpt lat="39.89319562743366" lon="116.34195357345573">
        <ele>0.0</ele>
        <time>2026-08-31T22:19:25.990000Z</time>
      </trkpt>
      <trkpt lat="39.89346959897553" lon="116.34196251972634">
        <ele>0.0</ele>
        <time>2026-08-31T22:19:38.190000Z</time>
      </trkpt>
      <trkpt lat="39.89352258420498" lon="116.34196949818055">
        <ele>0.0</ele>
        <time>2026-08-31T22:19:41.290000Z</time>
      </trkpt>
      <trkpt lat="39.89319258527724" lon="116.34197752293804">
        <ele>0.0</ele>
        <time>2026-08-31T22:19:56.390000Z</time>
      </trkpt>
      <trkpt lat="39.89307260489631" lon="116.34196955507396">
        <ele>0.0</ele>
        <time>2026-08-31T22:20:02.590000Z</time>
      </trkpt>
      <trkpt lat="39.89302852939991" lon="116.34201346734734">
        <ele>0.0</ele>
        <time>2026-08-31T22:20:05.590000Z</time>
      </trkpt>
      <trkpt lat="39.89293971565702" lon="116.34233218797984">
        <ele>0.0</ele>
        <time>2026-08-31T22:20:23.590000Z</time>
      </trkpt>
      <trkpt lat="39.892980301678406" lon="116.34250160646454">
        <ele>0.0</ele>
        <time>2026-08-31T22:20:29.590000Z</time>
      </trkpt>
      <trkpt lat="39.89327535008009" lon="116.34267703052019">
        <ele>0.0</ele>
        <time>2026-08-31T22:20:38.590000Z</time>
      </trkpt>
      <trkpt lat="39.89341047632269" lon="116.34279268299224">
        <ele>0.0</ele>
        <time>2026-08-31T22:20:44.590000Z</time>
      </trkpt>
      <trkpt lat="39.8931071880441" lon="116.34277384746723">
        <ele>0.0</ele>
        <time>2026-08-31T22:20:59.590000Z</time>
      </trkpt>
      <trkpt lat="39.89295520728782" lon="116.34276688142513">
        <ele>0.0</ele>
        <time>2026-08-31T22:21:05.590000Z</time>
      </trkpt>
      <trkpt lat="39.89288215642435" lon="116.34279782540015">
        <ele>0.0</ele>
        <time>2026-08-31T22:21:08.590000Z</time>
      </trkpt>
      <trkpt lat="39.89283705533655" lon="116.34285670694555">
        <ele>0.0</ele>
        <time>2026-08-31T22:21:11.590000Z</time>
      </trkpt>
      <trkpt lat="39.89279569748201" lon="116.34306227921154">
        <ele>0.0</ele>
        <time>2026-08-31T22:21:17.590000Z</time>
      </trkpt>
      <trkpt lat="39.892809029853076" lon="116.3434444747892">
        <ele>0.0</ele>
        <time>2026-08-31T22:21:29.590000Z</time>
      </trkpt>
      <trkpt lat="39.892821427082254" lon="116.34379074849271">
        <ele>0.0</ele>
        <time>2026-08-31T22:21:41.590000Z</time>
      </trkpt>
      <trkpt lat="39.89278530578169" lon="116.34386160507759">
        <ele>0.0</ele>
        <time>2026-08-31T22:21:44.590000Z</time>
      </trkpt>
      <trkpt lat="39.89247136355082" lon="116.34383669688383">
        <ele>0.0</ele>
        <time>2026-08-31T22:21:56.590000Z</time>
      </trkpt>
      <trkpt lat="39.89217533913124" lon="116.34385868848375">
        <ele>0.0</ele>
        <time>2026-08-31T22:22:08.590000Z</time>
      </trkpt>
      <trkpt lat="39.89187532184788" lon="116.3438766889313">
        <ele>0.0</ele>
        <time>2026-08-31T22:22:20.590000Z</time>
      </trkpt>
      <trkpt lat="39.891590309086475" lon="116.34389169373608">
        <ele>0.0</ele>
        <time>2026-08-31T22:22:32.590000Z</time>
      </trkpt>
      <trkpt lat="39.89144724131223" lon="116.34393462228695">
        <ele>0.0</ele>
        <time>2026-08-31T22:22:38.590000Z</time>
      </trkpt>
      <trkpt lat="39.89153369983471" lon="116.34366816798057">
        <ele>0.0</ele>
        <time>2026-08-31T22:23:17.690000Z</time>
      </trkpt>
      <trkpt lat="39.891208671556896" lon="116.3436931569092">
        <ele>0.0</ele>
        <time>2026-08-31T22:23:32.690000Z</time>
      </trkpt>
      <trkpt lat="39.89091871278003" lon="116.34367722697661">
        <ele>0.0</ele>
        <time>2026-08-31T22:23:44.690000Z</time>
      </trkpt>
      <trkpt lat="39.89061479457908" lon="116.34363834683428">
        <ele>0.0</ele>
        <time>2026-08-31T22:23:56.890000Z</time>
      </trkpt>
      <trkpt lat="39.890336826619574" lon="116.34362740495968">
        <ele>0.0</ele>
        <time>2026-08-31T22:24:09.090000Z</time>
      </trkpt>
      <trkpt lat="39.89006780100042" lon="116.34364939304648">
        <ele>0.0</ele>
        <time>2026-08-31T22:24:21.290000Z</time>
      </trkpt>
      <trkpt lat="39.889724867345436" lon="116.34362049697273">
        <ele>0.0</ele>
        <time>2026-08-31T22:24:33.490000Z</time>
      </trkpt>
      <trkpt lat="39.889420876367055" lon="116.34362352915261">
        <ele>0.0</ele>
        <time>2026-08-31T22:24:45.590000Z</time>
      </trkpt>
      <trkpt lat="39.88912190426376" lon="116.3436155836697">
        <ele>0.0</ele>
        <time>2026-08-31T22:24:57.590000Z</time>
      </trkpt>
      <trkpt lat="39.888822928710866" lon="116.34360963401063">
        <ele>0.0</ele>
        <time>2026-08-31T22:25:09.590000Z</time>
      </trkpt>
      <trkpt lat="39.88853593525931" lon="116.34361366195024">
        <ele>0.0</ele>
        <time>2026-08-31T22:25:21.590000Z</time>
      </trkpt>
      <trkpt lat="39.88822597762129" lon="116.34359773456642">
        <ele>0.0</ele>
        <time>2026-08-31T22:25:36.590000Z</time>
      </trkpt>
      <trkpt lat="39.88809298562456" lon="116.34359675347328">
        <ele>0.0</ele>
        <time>2026-08-31T22:25:42.590000Z</time>
      </trkpt>
      <trkpt lat="39.88800695496825" lon="116.34361672257974">
        <ele>0.0</ele>
        <time>2026-08-31T22:25:45.590000Z</time>
      </trkpt>
      <trkpt lat="39.887674965432" lon="116.34361975829722">
        <ele>0.0</ele>
        <time>2026-08-31T22:25:57.690000Z</time>
      </trkpt>
      <trkpt lat="39.887370998892564" lon="116.34360881970882">
        <ele>0.0</ele>
        <time>2026-08-31T22:26:09.790000Z</time>
      </trkpt>
      <trkpt lat="39.88708801402559" lon="116.34360785758203">
        <ele>0.0</ele>
        <time>2026-08-31T22:26:21.990000Z</time>
      </trkpt>
      <trkpt lat="39.88679402969933" lon="116.34360689684569">
        <ele>0.0</ele>
        <time>2026-08-31T22:26:34.190000Z</time>
      </trkpt>
      <trkpt lat="39.886494052620975" lon="116.34360194522128">
        <ele>0.0</ele>
        <time>2026-08-31T22:26:46.390000Z</time>
      </trkpt>
      <trkpt lat="39.88619206698111" lon="116.34360198340707">
        <ele>0.0</ele>
        <time>2026-08-31T22:26:58.590000Z</time>
      </trkpt>
      <trkpt lat="39.88588155291998" lon="116.34361178761208">
        <ele>0.0</ele>
        <time>2026-08-31T22:27:10.590000Z</time>
      </trkpt>
      <trkpt lat="39.885598100496274" lon="116.34359906477819">
        <ele>0.0</ele>
        <time>2026-08-31T22:27:22.590000Z</time>
      </trkpt>
      <trkpt lat="39.88532710823235" lon="116.34360209277749">
        <ele>0.0</ele>
        <time>2026-08-31T22:27:34.590000Z</time>
      </trkpt>
      <trkpt lat="39.88502710175461" lon="116.34361410564877">
        <ele>0.0</ele>
        <time>2026-08-31T22:27:46.590000Z</time>
      </trkpt>
      <trkpt lat="39.88474411357478" lon="116.34361513934178">
        <ele>0.0</ele>
        <time>2026-08-31T22:27:58.590000Z</time>
      </trkpt>
      <trkpt lat="39.88447115096739" lon="116.34360120309427">
        <ele>0.0</ele>
        <time>2026-08-31T22:28:10.590000Z</time>
      </trkpt>
      <trkpt lat="39.88418517164826" lon="116.34359724760763">
        <ele>0.0</ele>
        <time>2026-08-31T22:28:22.590000Z</time>
      </trkpt>
      <trkpt lat="39.88391218998781" lon="116.34359428838863">
        <ele>0.0</ele>
        <time>2026-08-31T22:28:34.590000Z</time>
      </trkpt>
      <trkpt lat="39.88363118963838" lon="116.3436023072073">
        <ele>0.0</ele>
        <time>2026-08-31T22:28:46.590000Z</time>
      </trkpt>
      <trkpt lat="39.8833442138979" lon="116.34359635602252">
        <ele>0.0</ele>
        <time>2026-08-31T22:28:58.590000Z</time>
      </trkpt>
      <trkpt lat="39.8830702288709" lon="116.34359539275157">
        <ele>0.0</ele>
        <time>2026-08-31T22:29:10.590000Z</time>
      </trkpt>
      <trkpt lat="39.88278520968297" lon="116.3436143891045">
        <ele>0.0</ele>
        <time>2026-08-31T22:29:22.590000Z</time>
      </trkpt>
      <trkpt lat="39.88250424065297" lon="116.3436044455114">
        <ele>0.0</ele>
        <time>2026-08-31T22:29:34.590000Z</time>
      </trkpt>
      <trkpt lat="39.882229253996165" lon="116.34360448027716">
        <ele>0.0</ele>
        <time>2026-08-31T22:29:46.590000Z</time>
      </trkpt>
      <trkpt lat="39.88195223795273" lon="116.34362147979732">
        <ele>0.0</ele>
        <time>2026-08-31T22:29:58.590000Z</time>
      </trkpt>
      <trkpt lat="39.88183821573465" lon="116.34363746080459">
        <ele>0.0</ele>
        <time>2026-08-31T22:30:04.590000Z</time>
      </trkpt>
      <trkpt lat="39.881566268888434" lon="116.34361454321076">
        <ele>0.0</ele>
        <time>2026-08-31T22:30:16.590000Z</time>
      </trkpt>
      <trkpt lat="39.88128223415022" lon="116.343642520655">
        <ele>0.0</ele>
        <time>2026-08-31T22:30:28.590000Z</time>
      </trkpt>
      <trkpt lat="39.88100122358372" lon="116.34365652695485">
        <ele>0.0</ele>
        <time>2026-08-31T22:30:40.590000Z</time>
      </trkpt>
      <trkpt lat="39.88072018875948" lon="116.34368450404378">
        <ele>0.0</ele>
        <time>2026-08-31T22:30:52.590000Z</time>
      </trkpt>
      <trkpt lat="39.88037816216028" lon="116.34370949511822">
        <ele>0.0</ele>
        <time>2026-08-31T22:31:07.590000Z</time>
      </trkpt>
      <trkpt lat="39.880107191060986" lon="116.34370054815166">
        <ele>0.0</ele>
        <time>2026-08-31T22:31:19.590000Z</time>
      </trkpt>
      <trkpt lat="39.87983312477766" lon="116.34374648684141">
        <ele>0.0</ele>
        <time>2026-08-31T22:31:31.690000Z</time>
      </trkpt>
      <trkpt lat="39.879552102210276" lon="116.34376747857559">
        <ele>0.0</ele>
        <time>2026-08-31T22:31:43.690000Z</time>
      </trkpt>
      <trkpt lat="39.87926506091045" lon="116.34379944814947">
        <ele>0.0</ele>
        <time>2026-08-31T22:31:55.890000Z</time>
      </trkpt>
      <trkpt lat="39.878934049533285" lon="116.34381545664603">
        <ele>0.0</ele>
        <time>2026-08-31T22:32:11.190000Z</time>
      </trkpt>
      <trkpt lat="39.87864004848106" lon="116.34382447505583">
        <ele>0.0</ele>
        <time>2026-08-31T22:32:23.490000Z</time>
      </trkpt>
      <trkpt lat="39.8783350462664" lon="116.34383449277396">
        <ele>0.0</ele>
        <time>2026-08-31T22:32:35.590000Z</time>
      </trkpt>
      <trkpt lat="39.87804800336371" lon="116.34386746030897">
        <ele>0.0</ele>
        <time>2026-08-31T22:32:47.590000Z</time>
      </trkpt>
      <trkpt lat="39.877764963763816" lon="116.34389843152513">
        <ele>0.0</ele>
        <time>2026-08-31T22:32:59.590000Z</time>
      </trkpt>
      <trkpt lat="39.87747697116913" lon="116.34390245960107">
        <ele>0.0</ele>
        <time>2026-08-31T22:33:11.590000Z</time>
      </trkpt>
      <trkpt lat="39.87720592065274" lon="116.34393941683473">
        <ele>0.0</ele>
        <time>2026-08-31T22:33:23.590000Z</time>
      </trkpt>
      <trkpt lat="39.87714798237204" lon="116.3439054949414">
        <ele>0.0</ele>
        <time>2026-08-31T22:33:26.590000Z</time>
      </trkpt>
      <trkpt lat="39.87685497104151" lon="116.34392050074955">
        <ele>0.0</ele>
        <time>2026-08-31T22:33:38.590000Z</time>
      </trkpt>
      <trkpt lat="39.87658393960852" lon="116.3439464808879">
        <ele>0.0</ele>
        <time>2026-08-31T22:33:50.590000Z</time>
      </trkpt>
      <trkpt lat="39.876274934323526" lon="116.34395849497334">
        <ele>0.0</ele>
        <time>2026-08-31T22:34:05.590000Z</time>
      </trkpt>
      <trkpt lat="39.87600387009939" lon="116.34400343560986">
        <ele>0.0</ele>
        <time>2026-08-31T22:34:17.590000Z</time>
      </trkpt>
      <trkpt lat="39.87571588975033" lon="116.3440004782521">
        <ele>0.0</ele>
        <time>2026-08-31T22:34:29.590000Z</time>
      </trkpt>
      <trkpt lat="39.875442832613125" lon="116.34404142749717">
        <ele>0.0</ele>
        <time>2026-08-31T22:34:41.590000Z</time>
      </trkpt>
      <trkpt lat="39.87530777893598" lon="116.3440763718046">
        <ele>0.0</ele>
        <time>2026-08-31T22:34:47.590000Z</time>
      </trkpt>
      <trkpt lat="39.874973781956506" lon="116.34408439739444">
        <ele>0.0</ele>
        <time>2026-08-31T22:35:02.590000Z</time>
      </trkpt>
      <trkpt lat="39.87470174042485" lon="116.34411636528212">
        <ele>0.0</ele>
        <time>2026-08-31T22:35:14.590000Z</time>
      </trkpt>
      <trkpt lat="39.874410739603015" lon="116.34412538336584">
        <ele>0.0</ele>
        <time>2026-08-31T22:35:26.590000Z</time>
      </trkpt>
      <trkpt lat="39.874138694684106" lon="116.34415934712763">
        <ele>0.0</ele>
        <time>2026-08-31T22:35:38.590000Z</time>
      </trkpt>
      <trkpt lat="39.873849680005684" lon="116.3441763483556">
        <ele>0.0</ele>
        <time>2026-08-31T22:35:50.690000Z</time>
      </trkpt>
      <trkpt lat="39.87356163252255" lon="116.344212310025">
        <ele>0.0</ele>
        <time>2026-08-31T22:36:02.690000Z</time>
      </trkpt>
      <trkpt lat="39.87327861587584" lon="116.34423030843821">
        <ele>0.0</ele>
        <time>2026-08-31T22:36:14.790000Z</time>
      </trkpt>
      <trkpt lat="39.87298859616524" lon="116.34425030359341">
        <ele>0.0</ele>
        <time>2026-08-31T22:36:26.890000Z</time>
      </trkpt>
      <trkpt lat="39.87270152116627" lon="116.34430223201258">
        <ele>0.0</ele>
        <time>2026-08-31T22:36:39.090000Z</time>
      </trkpt>
      <trkpt lat="39.87242750243241" lon="116.34432122724901">
        <ele>0.0</ele>
        <time>2026-08-31T22:36:51.290000Z</time>
      </trkpt>
      <trkpt lat="39.872108446408824" lon="116.34436318051252">
        <ele>0.0</ele>
        <time>2026-08-31T22:37:03.490000Z</time>
      </trkpt>
      <trkpt lat="39.87182938494711" lon="116.34440712461524">
        <ele>0.0</ele>
        <time>2026-08-31T22:37:15.590000Z</time>
      </trkpt>
      <trkpt lat="39.87155536631613" lon="116.3444261198938">
        <ele>0.0</ele>
        <time>2026-08-31T22:37:27.590000Z</time>
      </trkpt>
      <trkpt lat="39.87127334296167" lon="116.34444810997951">
        <ele>0.0</ele>
        <time>2026-08-31T22:37:39.690000Z</time>
      </trkpt>
      <trkpt lat="39.87097530669886" lon="116.34447808553841">
        <ele>0.0</ele>
        <time>2026-08-31T22:37:51.690000Z</time>
      </trkpt>
      <trkpt lat="39.87070325881383" lon="116.34451404541583">
        <ele>0.0</ele>
        <time>2026-08-31T22:38:03.890000Z</time>
      </trkpt>
      <trkpt lat="39.870422228632826" lon="116.3445400271421">
        <ele>0.0</ele>
        <time>2026-08-31T22:38:16.090000Z</time>
      </trkpt>
      <trkpt lat="39.870141169265565" lon="116.34458297373125">
        <ele>0.0</ele>
        <time>2026-08-31T22:38:28.390000Z</time>
      </trkpt>
      <trkpt lat="39.86982612030941" lon="116.3446209349905">
        <ele>0.0</ele>
        <time>2026-08-31T22:38:40.590000Z</time>
      </trkpt>
      <trkpt lat="39.86955207614485" lon="116.34465489936285">
        <ele>0.0</ele>
        <time>2026-08-31T22:38:52.590000Z</time>
      </trkpt>
      <trkpt lat="39.86925301444058" lon="116.34469984420296">
        <ele>0.0</ele>
        <time>2026-08-31T22:39:04.590000Z</time>
      </trkpt>
      <trkpt lat="39.86898397525705" lon="116.3447308141942">
        <ele>0.0</ele>
        <time>2026-08-31T22:39:16.590000Z</time>
      </trkpt>
      <trkpt lat="39.86866490613235" lon="116.34478075131904">
        <ele>0.0</ele>
        <time>2026-08-31T22:39:31.590000Z</time>
      </trkpt>
      <trkpt lat="39.86838383337816" lon="116.34483168163328">
        <ele>0.0</ele>
        <time>2026-08-31T22:39:43.590000Z</time>
      </trkpt>
      <trkpt lat="39.86817580999124" lon="116.34485166668154">
        <ele>0.0</ele>
        <time>2026-08-31T22:39:52.590000Z</time>
      </trkpt>
      <trkpt lat="39.86810576396326" lon="116.34488061574697">
        <ele>0.0</ele>
        <time>2026-08-31T22:39:55.590000Z</time>
      </trkpt>
      <trkpt lat="39.86793445795978" lon="116.34506425848112">
        <ele>0.0</ele>
        <time>2026-08-31T22:40:04.590000Z</time>
      </trkpt>
      <trkpt lat="39.86786420531127" lon="116.34521395900556">
        <ele>0.0</ele>
        <time>2026-08-31T22:40:10.590000Z</time>
      </trkpt>
      <trkpt lat="39.86802251834142" lon="116.34502632554543">
        <ele>0.0</ele>
        <time>2026-08-31T22:40:22.590000Z</time>
      </trkpt>
      <trkpt lat="39.86821573249702" lon="116.34489557093072">
        <ele>0.0</ele>
        <time>2026-08-31T22:40:31.590000Z</time>
      </trkpt>
      <trkpt lat="39.86855376791883" lon="116.34486459210817">
        <ele>0.0</ele>
        <time>2026-08-31T22:40:46.590000Z</time>
      </trkpt>
      <trkpt lat="39.86883624761578" lon="116.34483108790596">
        <ele>0.0</ele>
        <time>2026-08-31T22:40:58.590000Z</time>
      </trkpt>
      <trkpt lat="39.86901101463942" lon="116.34485151454636">
        <ele>0.0</ele>
        <time>2026-08-31T22:41:10.590000Z</time>
      </trkpt>
      <trkpt lat="39.869274884356564" lon="116.34481791321146">
        <ele>0.0</ele>
        <time>2026-08-31T22:41:25.590000Z</time>
      </trkpt>
      <trkpt lat="39.869542530593186" lon="116.34478415694909">
        <ele>0.0</ele>
        <time>2026-08-31T22:41:37.590000Z</time>
      </trkpt>
      <trkpt lat="39.8698195576129" lon="116.34474936277492">
        <ele>0.0</ele>
        <time>2026-08-31T22:41:49.590000Z</time>
      </trkpt>
      <trkpt lat="39.8700997784463" lon="116.34471422751972">
        <ele>0.0</ele>
        <time>2026-08-31T22:42:01.590000Z</time>
      </trkpt>
      <trkpt lat="39.87037937568555" lon="116.34467919569488">
        <ele>0.0</ele>
        <time>2026-08-31T22:42:13.590000Z</time>
      </trkpt>
      <trkpt lat="39.870655295427085" lon="116.34464517523033">
        <ele>0.0</ele>
        <time>2026-08-31T22:42:25.590000Z</time>
      </trkpt>
      <trkpt lat="39.87092813918477" lon="116.34461199167353">
        <ele>0.0</ele>
        <time>2026-08-31T22:42:37.590000Z</time>
      </trkpt>
      <trkpt lat="39.871201399077904" lon="116.34457895884685">
        <ele>0.0</ele>
        <time>2026-08-31T22:42:49.590000Z</time>
      </trkpt>
      <trkpt lat="39.871509225788515" lon="116.34454185300639">
        <ele>0.0</ele>
        <time>2026-08-31T22:43:04.590000Z</time>
      </trkpt>
      <trkpt lat="39.871804187169445" lon="116.34450646252094">
        <ele>0.0</ele>
        <time>2026-08-31T22:43:16.690000Z</time>
      </trkpt>
      <trkpt lat="39.87209233870435" lon="116.34447304443528">
        <ele>0.0</ele>
        <time>2026-08-31T22:43:28.790000Z</time>
      </trkpt>
      <trkpt lat="39.872379791705306" lon="116.3444402231345">
        <ele>0.0</ele>
        <time>2026-08-31T22:43:40.890000Z</time>
      </trkpt>
      <trkpt lat="39.87293249041031" lon="116.3443131800084">
        <ele>0.0</ele>
        <time>2026-08-31T22:43:56.190000Z</time>
      </trkpt>
      <trkpt lat="39.87320704103365" lon="116.34429614922941">
        <ele>0.0</ele>
        <time>2026-08-31T22:44:08.390000Z</time>
      </trkpt>
      <trkpt lat="39.87350084507865" lon="116.34425453648343">
        <ele>0.0</ele>
        <time>2026-08-31T22:44:20.490000Z</time>
      </trkpt>
      <trkpt lat="39.87380571964679" lon="116.34423127480572">
        <ele>0.0</ele>
        <time>2026-08-31T22:44:32.590000Z</time>
      </trkpt>
      <trkpt lat="39.8740962640053" lon="116.3442143205779">
        <ele>0.0</ele>
        <time>2026-08-31T22:44:44.590000Z</time>
      </trkpt>
      <trkpt lat="39.87438402773958" lon="116.34419633632693">
        <ele>0.0</ele>
        <time>2026-08-31T22:44:56.590000Z</time>
      </trkpt>
      <trkpt lat="39.874596992141015" lon="116.34419843985538">
        <ele>0.0</ele>
        <time>2026-08-31T22:45:05.590000Z</time>
      </trkpt>
      <trkpt lat="39.87488166877931" lon="116.34417051549673">
        <ele>0.0</ele>
        <time>2026-08-31T22:45:17.590000Z</time>
      </trkpt>
      <trkpt lat="39.87517681694753" lon="116.34415005634779">
        <ele>0.0</ele>
        <time>2026-08-31T22:45:29.590000Z</time>
      </trkpt>
      <trkpt lat="39.87539678944578" lon="116.34413814188076">
        <ele>0.0</ele>
        <time>2026-08-31T22:45:38.590000Z</time>
      </trkpt>
      <trkpt lat="39.8757167358988" lon="116.3440892930906">
        <ele>0.0</ele>
        <time>2026-08-31T22:45:53.590000Z</time>
      </trkpt>
      <trkpt lat="39.87590980222274" lon="116.34404536015319">
        <ele>0.0</ele>
        <time>2026-08-31T22:46:02.590000Z</time>
      </trkpt>
      <trkpt lat="39.87604279036301" lon="116.34404833710505">
        <ele>0.0</ele>
        <time>2026-08-31T22:46:08.590000Z</time>
      </trkpt>
      <trkpt lat="39.876312871894406" lon="116.34399341735286">
        <ele>0.0</ele>
        <time>2026-08-31T22:46:23.590000Z</time>
      </trkpt>
      <trkpt lat="39.87644988405309" lon="116.34398242291884">
        <ele>0.0</ele>
        <time>2026-08-31T22:46:29.590000Z</time>
      </trkpt>
      <trkpt lat="39.87654684288926" lon="116.34400336697486">
        <ele>0.0</ele>
        <time>2026-08-31T22:46:32.590000Z</time>
      </trkpt>
      <trkpt lat="39.876630913176214" lon="116.34398442018446">
        <ele>0.0</ele>
        <time>2026-08-31T22:46:35.590000Z</time>
      </trkpt>
      <trkpt lat="39.876931840933985" lon="116.34399333911048">
        <ele>0.0</ele>
        <time>2026-08-31T22:46:47.590000Z</time>
      </trkpt>
      <trkpt lat="39.8772168647558" lon="116.34397134885397">
        <ele>0.0</ele>
        <time>2026-08-31T22:46:59.590000Z</time>
      </trkpt>
      <trkpt lat="39.87728281996597" lon="116.34399529058241">
        <ele>0.0</ele>
        <time>2026-08-31T22:47:02.590000Z</time>
      </trkpt>
      <trkpt lat="39.87757279495331" lon="116.34396455069606">
        <ele>0.0</ele>
        <time>2026-08-31T22:47:14.590000Z</time>
      </trkpt>
      <trkpt lat="39.87785087471005" lon="116.34394731865403">
        <ele>0.0</ele>
        <time>2026-08-31T22:47:26.590000Z</time>
      </trkpt>
      <trkpt lat="39.878134120784516" lon="116.34392601767111">
        <ele>0.0</ele>
        <time>2026-08-31T22:47:38.590000Z</time>
      </trkpt>
      <trkpt lat="39.878417316250584" lon="116.34389998354006">
        <ele>0.0</ele>
        <time>2026-08-31T22:47:50.590000Z</time>
      </trkpt>
      <trkpt lat="39.87870595777308" lon="116.34388908882282">
        <ele>0.0</ele>
        <time>2026-08-31T22:48:02.590000Z</time>
      </trkpt>
      <trkpt lat="39.87899497352358" lon="116.34385737952483">
        <ele>0.0</ele>
        <time>2026-08-31T22:48:14.590000Z</time>
      </trkpt>
      <trkpt lat="39.87926595522227" lon="116.34386032092357">
        <ele>0.0</ele>
        <time>2026-08-31T22:48:26.590000Z</time>
      </trkpt>
      <trkpt lat="39.879334462879044" lon="116.34383921141901">
        <ele>0.0</ele>
        <time>2026-08-31T22:48:29.590000Z</time>
      </trkpt>
      <trkpt lat="39.87961512398722" lon="116.34383972030342">
        <ele>0.0</ele>
        <time>2026-08-31T22:48:41.590000Z</time>
      </trkpt>
      <trkpt lat="39.879896543907044" lon="116.34378790620967">
        <ele>0.0</ele>
        <time>2026-08-31T22:48:53.590000Z</time>
      </trkpt>
      <trkpt lat="39.88018098293655" lon="116.34381829275858">
        <ele>0.0</ele>
        <time>2026-08-31T22:49:05.590000Z</time>
      </trkpt>
      <trkpt lat="39.88025097257401" lon="116.3438222755742">
        <ele>0.0</ele>
        <time>2026-08-31T22:49:08.590000Z</time>
      </trkpt>
      <trkpt lat="39.88052605957213" lon="116.34376436170402">
        <ele>0.0</ele>
        <time>2026-08-31T22:49:20.590000Z</time>
      </trkpt>
      <trkpt lat="39.88081507835344" lon="116.34374536478816">
        <ele>0.0</ele>
        <time>2026-08-31T22:49:32.590000Z</time>
      </trkpt>
      <trkpt lat="39.8811500949159" lon="116.34372636206434">
        <ele>0.0</ele>
        <time>2026-08-31T22:49:47.590000Z</time>
      </trkpt>
      <trkpt lat="39.88143509834646" lon="116.34371634689388">
        <ele>0.0</ele>
        <time>2026-08-31T22:49:59.590000Z</time>
      </trkpt>
      <trkpt lat="39.88170808331186" lon="116.3437173102952">
        <ele>0.0</ele>
        <time>2026-08-31T22:50:11.590000Z</time>
      </trkpt>
      <trkpt lat="39.88203610723574" lon="116.34369431681206">
        <ele>0.0</ele>
        <time>2026-08-31T22:50:26.590000Z</time>
      </trkpt>
      <trkpt lat="39.88211713104722" lon="116.3436783399579">
        <ele>0.0</ele>
        <time>2026-08-31T22:50:29.590000Z</time>
      </trkpt>
      <trkpt lat="39.88241908343674" lon="116.34369726213272">
        <ele>0.0</ele>
        <time>2026-08-31T22:50:41.590000Z</time>
      </trkpt>
      <trkpt lat="39.8827200844543" lon="116.3436882428574">
        <ele>0.0</ele>
        <time>2026-08-31T22:50:53.590000Z</time>
      </trkpt>
      <trkpt lat="39.88300008130847" lon="116.34368221997808">
        <ele>0.0</ele>
        <time>2026-08-31T22:51:05.590000Z</time>
      </trkpt>
      <trkpt lat="39.88328704316023" lon="116.34369615448087">
        <ele>0.0</ele>
        <time>2026-08-31T22:51:17.590000Z</time>
      </trkpt>
      <trkpt lat="39.88355804222115" lon="116.34368913482417">
        <ele>0.0</ele>
        <time>2026-08-31T22:51:29.590000Z</time>
      </trkpt>
      <trkpt lat="39.883822986101336" lon="116.34371404916087">
        <ele>0.0</ele>
        <time>2026-08-31T22:51:41.590000Z</time>
      </trkpt>
      <trkpt lat="39.884112013808476" lon="116.34369006269434">
        <ele>0.0</ele>
        <time>2026-08-31T22:51:53.690000Z</time>
      </trkpt>
      <trkpt lat="39.88433581523224" lon="116.34367610007027">
        <ele>0.0</ele>
        <time>2026-08-31T22:52:02.690000Z</time>
      </trkpt>
      <trkpt lat="39.88463299745871" lon="116.34368500725515">
        <ele>0.0</ele>
        <time>2026-08-31T22:52:14.790000Z</time>
      </trkpt>
      <trkpt lat="39.88491899242321" lon="116.34367998152814">
        <ele>0.0</ele>
        <time>2026-08-31T22:52:26.890000Z</time>
      </trkpt>
      <trkpt lat="39.885194942797234" lon="116.34370090281186">
        <ele>0.0</ele>
        <time>2026-08-31T22:52:39.090000Z</time>
      </trkpt>
      <trkpt lat="39.885468940106385" lon="116.34369488068609">
        <ele>0.0</ele>
        <time>2026-08-31T22:52:51.290000Z</time>
      </trkpt>
      <trkpt lat="39.88575594028258" lon="116.34368686109039">
        <ele>0.0</ele>
        <time>2026-08-31T22:53:03.490000Z</time>
      </trkpt>
      <trkpt lat="39.88606494290068" lon="116.34367684288773">
        <ele>0.0</ele>
        <time>2026-08-31T22:53:15.490000Z</time>
      </trkpt>
      <trkpt lat="39.88637688990379" lon="116.34369875752913">
        <ele>0.0</ele>
        <time>2026-08-31T22:53:30.490000Z</time>
      </trkpt>
      <trkpt lat="39.88670592803754" lon="116.3436677806195">
        <ele>0.0</ele>
        <time>2026-08-31T22:53:42.490000Z</time>
      </trkpt>
      <trkpt lat="39.8869948727064" lon="116.34369169399037">
        <ele>0.0</ele>
        <time>2026-08-31T22:53:54.590000Z</time>
      </trkpt>
      <trkpt lat="39.887293879356164" lon="116.34367968122321">
        <ele>0.0</ele>
        <time>2026-08-31T22:54:06.490000Z</time>
      </trkpt>
      <trkpt lat="39.887569890585354" lon="116.34366567554146">
        <ele>0.0</ele>
        <time>2026-08-31T22:54:18.590000Z</time>
      </trkpt>
      <trkpt lat="39.88785789433021" lon="116.34365565999627">
        <ele>0.0</ele>
        <time>2026-08-31T22:54:30.590000Z</time>
      </trkpt>
      <trkpt lat="39.88812784170179" lon="116.34367857784825">
        <ele>0.0</ele>
        <time>2026-08-31T22:54:42.590000Z</time>
      </trkpt>
      <trkpt lat="39.88831248292327" lon="116.3436850227035">
        <ele>0.0</ele>
        <time>2026-08-31T22:54:51.590000Z</time>
      </trkpt>
      <trkpt lat="39.88838878258713" lon="116.34370548850252">
        <ele>0.0</ele>
        <time>2026-08-31T22:54:54.590000Z</time>
      </trkpt>
      <trkpt lat="39.88871075877279" lon="116.34371043735098">
        <ele>0.0</ele>
        <time>2026-08-31T22:55:06.590000Z</time>
      </trkpt>
      <trkpt lat="39.88900578480043" lon="116.3436874480362">
        <ele>0.0</ele>
        <time>2026-08-31T22:55:18.590000Z</time>
      </trkpt>
      <trkpt lat="39.88934374640804" lon="116.34370037816537">
        <ele>0.0</ele>
        <time>2026-08-31T22:55:33.590000Z</time>
      </trkpt>
      <trkpt lat="39.88963073470455" lon="116.34369934395686">
        <ele>0.0</ele>
        <time>2026-08-31T22:55:45.590000Z</time>
      </trkpt>
      <trkpt lat="39.889904662947266" lon="116.34373323837328">
        <ele>0.0</ele>
        <time>2026-08-31T22:55:57.590000Z</time>
      </trkpt>
      <trkpt lat="39.89018340350708" lon="116.34373352918722">
        <ele>0.0</ele>
        <time>2026-08-31T22:56:09.590000Z</time>
      </trkpt>
      <trkpt lat="39.89039341300226" lon="116.34370371443676">
        <ele>0.0</ele>
        <time>2026-08-31T22:56:18.590000Z</time>
      </trkpt>
      <trkpt lat="39.89066988364442" lon="116.34370668897301">
        <ele>0.0</ele>
        <time>2026-08-31T22:56:30.590000Z</time>
      </trkpt>
      <trkpt lat="39.890945945977485" lon="116.34374098631883">
        <ele>0.0</ele>
        <time>2026-08-31T22:56:42.590000Z</time>
      </trkpt>
      <trkpt lat="39.891034306404116" lon="116.34374851690988">
        <ele>0.0</ele>
        <time>2026-08-31T22:56:45.590000Z</time>
      </trkpt>
      <trkpt lat="39.891319572871375" lon="116.3437266581414">
        <ele>0.0</ele>
        <time>2026-08-31T22:56:57.590000Z</time>
      </trkpt>
      <trkpt lat="39.89159999174367" lon="116.34373911567712">
        <ele>0.0</ele>
        <time>2026-08-31T22:57:09.590000Z</time>
      </trkpt>
      <trkpt lat="39.89174634729279" lon="116.34393426276495">
        <ele>0.0</ele>
        <time>2026-08-31T22:57:18.590000Z</time>
      </trkpt>
      <trkpt lat="39.891946026603385" lon="116.3439511235737">
        <ele>0.0</ele>
        <time>2026-08-31T22:57:30.590000Z</time>
      </trkpt>
      <trkpt lat="39.892192284439965" lon="116.34394617097907">
        <ele>0.0</ele>
        <time>2026-08-31T22:57:42.590000Z</time>
      </trkpt>
      <trkpt lat="39.892459220828435" lon="116.3439317862505">
        <ele>0.0</ele>
        <time>2026-08-31T22:57:54.590000Z</time>
      </trkpt>
      <trkpt lat="39.892766482240226" lon="116.34383717888942">
        <ele>0.0</ele>
        <time>2026-08-31T22:58:09.590000Z</time>
      </trkpt>
      <trkpt lat="39.893059814694844" lon="116.34386059210775">
        <ele>0.0</ele>
        <time>2026-08-31T22:58:21.590000Z</time>
      </trkpt>
      <trkpt lat="39.89334817035055" lon="116.34386148532512">
        <ele>0.0</ele>
        <time>2026-08-31T22:58:33.590000Z</time>
      </trkpt>
      <trkpt lat="39.89366324985978" lon="116.34385105777224">
        <ele>0.0</ele>
        <time>2026-08-31T22:58:48.590000Z</time>
      </trkpt>
      <trkpt lat="39.89395796627489" lon="116.3438375634962">
        <ele>0.0</ele>
        <time>2026-08-31T22:59:00.590000Z</time>
      </trkpt>
      <trkpt lat="39.894263755836015" lon="116.34366269575766">
        <ele>0.0</ele>
        <time>2026-08-31T22:59:12.590000Z</time>
      </trkpt>
      <trkpt lat="39.89447730287596" lon="116.343691415298">
        <ele>0.0</ele>
        <time>2026-08-31T22:59:24.590000Z</time>
      </trkpt>
      <trkpt lat="39.89493982786073" lon="116.34350407978127">
        <ele>0.0</ele>
        <time>2026-08-31T22:59:33.590000Z</time>
      </trkpt>
      <trkpt lat="39.89521680827895" lon="116.34350803638122">
        <ele>0.0</ele>
        <time>2026-08-31T22:59:45.590000Z</time>
      </trkpt>
      <trkpt lat="39.895486745608586" lon="116.3435369416086">
        <ele>0.0</ele>
        <time>2026-08-31T22:59:57.590000Z</time>
      </trkpt>
      <trkpt lat="39.89554575334385" lon="116.34353094668631">
        <ele>0.0</ele>
        <time>2026-08-31T23:00:00.590000Z</time>
      </trkpt>
      <trkpt lat="39.89521583090971" lon="116.34349506368771">
        <ele>0.0</ele>
        <time>2026-08-31T23:00:15.590000Z</time>
      </trkpt>
      <trkpt lat="39.8949218338941" lon="116.34350108833029">
        <ele>0.0</ele>
        <time>2026-08-31T23:00:27.690000Z</time>
      </trkpt>
      <trkpt lat="39.89467788499908" lon="116.343478167286">
        <ele>0.0</ele>
        <time>2026-08-31T23:00:36.690000Z</time>
      </trkpt>
      <trkpt lat="39.894394859711824" lon="116.34350015707926">
        <ele>0.0</ele>
        <time>2026-08-31T23:00:48.790000Z</time>
      </trkpt>
      <trkpt lat="39.894105834724364" lon="116.34352214764117">
        <ele>0.0</ele>
        <time>2026-08-31T23:01:00.890000Z</time>
      </trkpt>
      <trkpt lat="39.893822809487446" lon="116.34354413745392">
        <ele>0.0</ele>
        <time>2026-08-31T23:01:13.090000Z</time>
      </trkpt>
      <trkpt lat="39.89348279036649" lon="116.34356413866475">
        <ele>0.0</ele>
        <time>2026-08-31T23:01:28.390000Z</time>
      </trkpt>
      <trkpt lat="39.89320775266371" lon="116.34359311286177">
        <ele>0.0</ele>
        <time>2026-08-31T23:01:40.490000Z</time>
      </trkpt>
      <trkpt lat="39.8931107258854" lon="116.34361108753443">
        <ele>0.0</ele>
        <time>2026-08-31T23:01:43.490000Z</time>
      </trkpt>
      <trkpt lat="39.8928357350784" lon="116.34361311813961">
        <ele>0.0</ele>
        <time>2026-08-31T23:01:55.490000Z</time>
      </trkpt>
      <trkpt lat="39.89255568899394" lon="116.34364708255904">
        <ele>0.0</ele>
        <time>2026-08-31T23:02:07.490000Z</time>
      </trkpt>
      <trkpt lat="39.89227568977814" lon="116.3436541033594">
        <ele>0.0</ele>
        <time>2026-08-31T23:02:19.490000Z</time>
      </trkpt>
      <trkpt lat="39.89199367853069" lon="116.34366810980192">
        <ele>0.0</ele>
        <time>2026-08-31T23:02:31.490000Z</time>
      </trkpt>
      <trkpt lat="39.89165264575921" lon="116.34369609449443">
        <ele>0.0</ele>
        <time>2026-08-31T23:02:46.490000Z</time>
      </trkpt>
      <trkpt lat="39.89165264575921" lon="116.34369609449443">
        <ele>0.0</ele>
        <time>2026-08-31T23:02:48.690000Z</time>
      </trkpt>
      <trkpt lat="39.891522189401584" lon="116.34396255451878">
        <ele>0.0</ele>
        <time>2026-08-31T23:03:43.590000Z</time>
      </trkpt>
      <trkpt lat="39.89179919905148" lon="116.34394954654032">
        <ele>0.0</ele>
        <time>2026-08-31T23:03:55.590000Z</time>
      </trkpt>
      <trkpt lat="39.89208320839735" lon="116.34393653767971">
        <ele>0.0</ele>
        <time>2026-08-31T23:04:07.590000Z</time>
      </trkpt>
      <trkpt lat="39.89240622288358" lon="116.34391953221775">
        <ele>0.0</ele>
        <time>2026-08-31T23:04:19.690000Z</time>
      </trkpt>
      <trkpt lat="39.89269927166357" lon="116.34388357012715">
        <ele>0.0</ele>
        <time>2026-08-31T23:04:31.690000Z</time>
      </trkpt>
      <trkpt lat="39.89277927662994" lon="116.3438785704228">
        <ele>0.0</ele>
        <time>2026-08-31T23:04:34.690000Z</time>
      </trkpt>
      <trkpt lat="39.89285133390491" lon="116.34384363423283">
        <ele>0.0</ele>
        <time>2026-08-31T23:04:37.690000Z</time>
      </trkpt>
      <trkpt lat="39.892870534001275" lon="116.34372787367778">
        <ele>0.0</ele>
        <time>2026-08-31T23:04:40.690000Z</time>
      </trkpt>
      <trkpt lat="39.89284412213196" lon="116.34339058335226">
        <ele>0.0</ele>
        <time>2026-08-31T23:04:49.690000Z</time>
      </trkpt>
      <trkpt lat="39.89284477200403" lon="116.34301836541272">
        <ele>0.0</ele>
        <time>2026-08-31T23:05:01.890000Z</time>
      </trkpt>
      <trkpt lat="39.89288904594876" lon="116.3428606919557">
        <ele>0.0</ele>
        <time>2026-08-31T23:05:07.890000Z</time>
      </trkpt>
      <trkpt lat="39.89300017897525" lon="116.34278184415682">
        <ele>0.0</ele>
        <time>2026-08-31T23:05:13.990000Z</time>
      </trkpt>
      <trkpt lat="39.89332307307027" lon="116.34276083954366">
        <ele>0.0</ele>
        <time>2026-08-31T23:05:29.390000Z</time>
      </trkpt>
      <trkpt lat="39.893401003098184" lon="116.34278749467984">
        <ele>0.0</ele>
        <time>2026-08-31T23:05:32.490000Z</time>
      </trkpt>
      <trkpt lat="39.89331124864769" lon="116.34273390589458">
        <ele>0.0</ele>
        <time>2026-08-31T23:05:38.590000Z</time>
      </trkpt>
      <trkpt lat="39.8930272162192" lon="116.34275988705835">
        <ele>0.0</ele>
        <time>2026-08-31T23:05:50.590000Z</time>
      </trkpt>
      <trkpt lat="39.89305569204562" lon="116.34192066115651">
        <ele>0.0</ele>
        <time>2026-08-31T23:06:20.890000Z</time>
      </trkpt>
      <trkpt lat="39.89332347179489" lon="116.34203837706092">
        <ele>0.0</ele>
        <time>2026-08-31T23:06:26.890000Z</time>
      </trkpt>
      <trkpt lat="39.89344150688133" lon="116.3420154108918">
        <ele>0.0</ele>
        <time>2026-08-31T23:06:32.890000Z</time>
      </trkpt>
      <trkpt lat="39.89350648980365" lon="116.34202338571608">
        <ele>0.0</ele>
        <time>2026-08-31T23:06:35.990000Z</time>
      </trkpt>
      <trkpt lat="39.89331446516431" lon="116.3420423697216">
        <ele>0.0</ele>
        <time>2026-08-31T23:06:45.090000Z</time>
      </trkpt>
      <trkpt lat="39.89297857045925" lon="116.34199152030898">
        <ele>0.0</ele>
        <time>2026-08-31T23:06:57.390000Z</time>
      </trkpt>
      <trkpt lat="39.89274055499888" lon="116.34200651859788">
        <ele>0.0</ele>
        <time>2026-08-31T23:07:06.490000Z</time>
      </trkpt>
      <trkpt lat="39.892688624349475" lon="116.34196860574274">
        <ele>0.0</ele>
        <time>2026-08-31T23:07:09.590000Z</time>
      </trkpt>
      <trkpt lat="39.89267380134121" lon="116.34186881979616">
        <ele>0.0</ele>
        <time>2026-08-31T23:07:12.590000Z</time>
      </trkpt>
      <trkpt lat="39.89269096642114" lon="116.34177501724463">
        <ele>0.0</ele>
        <time>2026-08-31T23:07:15.590000Z</time>
      </trkpt>
      <trkpt lat="39.892557041457984" lon="116.34173611704466">
        <ele>0.0</ele>
        <time>2026-08-31T23:07:21.590000Z</time>
      </trkpt>
      <trkpt lat="39.89230500542007" lon="116.34176309153462">
        <ele>0.0</ele>
        <time>2026-08-31T23:07:30.690000Z</time>
      </trkpt>
      <trkpt lat="39.89201993034256" lon="116.34181302136393">
        <ele>0.0</ele>
        <time>2026-08-31T23:07:42.690000Z</time>
      </trkpt>
      <trkpt lat="39.891868011505" lon="116.34177112978361">
        <ele>0.0</ele>
        <time>2026-08-31T23:07:48.690000Z</time>
      </trkpt>
      <trkpt lat="39.89157697909206" lon="116.34179711134497">
        <ele>0.0</ele>
        <time>2026-08-31T23:08:00.690000Z</time>
      </trkpt>
      <trkpt lat="39.89137093041244" lon="116.34183006731094">
        <ele>0.0</ele>
        <time>2026-08-31T23:08:09.790000Z</time>
      </trkpt>
      <trkpt lat="39.89129295697053" lon="116.34181710477425">
        <ele>0.0</ele>
        <time>2026-08-31T23:08:12.890000Z</time>
      </trkpt>
      <trkpt lat="39.89099492317419" lon="116.3418440851198">
        <ele>0.0</ele>
        <time>2026-08-31T23:08:24.990000Z</time>
      </trkpt>
      <trkpt lat="39.89079291845526" lon="116.34185209367241">
        <ele>0.0</ele>
        <time>2026-08-31T23:08:34.190000Z</time>
      </trkpt>
      <trkpt lat="39.89072602391362" lon="116.3417942252933">
        <ele>0.0</ele>
        <time>2026-08-31T23:08:37.290000Z</time>
      </trkpt>
      <trkpt lat="39.89071072002159" lon="116.3416923939404">
        <ele>0.0</ele>
        <time>2026-08-31T23:08:40.390000Z</time>
      </trkpt>
      <trkpt lat="39.890757618131474" lon="116.34145793815607">
        <ele>0.0</ele>
        <time>2026-08-31T23:08:46.490000Z</time>
      </trkpt>
      <trkpt lat="39.890766339452" lon="116.34105180557044">
        <ele>0.0</ele>
        <time>2026-08-31T23:08:58.490000Z</time>
      </trkpt>
      <trkpt lat="39.89075703913286" lon="116.34065964819223">
        <ele>0.0</ele>
        <time>2026-08-31T23:09:10.590000Z</time>
      </trkpt>
      <trkpt lat="39.89075221229494" lon="116.34056285690448">
        <ele>0.0</ele>
        <time>2026-08-31T23:09:13.590000Z</time>
      </trkpt>
      <trkpt lat="39.8906963237209" lon="116.34050199491945">
        <ele>0.0</ele>
        <time>2026-08-31T23:09:16.590000Z</time>
      </trkpt>
      <trkpt lat="39.89043240026413" lon="116.34046610558534">
        <ele>0.0</ele>
        <time>2026-08-31T23:09:25.590000Z</time>
      </trkpt>
      <trkpt lat="39.89032635880341" lon="116.34049206314653">
        <ele>0.0</ele>
        <time>2026-08-31T23:09:31.590000Z</time>
      </trkpt>
    </trkseg>
  </trk>
</gpx>