<?xml version="1.0" encoding="UTF-8"?>
<gpx xmlns="http://www.topografix.com/GPX/1/1" xmlns:gpxtpx="http://www.garmin.com/xmlschemas/TrackPointExtension/v1" xmlns:xsi="http://www.w3.org/2001/XMLSchema-instance" xsi:schemaLocation="http://www.topografix.com/GPX/1/1 http://www.topografix.com/GPX/1/1/gpx.xsd" version="1.1" creator="gpx.py -- https://github.com/tkrajina/gpxpy">
  <trk>
    <name>gpx from keep</name>
    <type>Run</type>
    <trkseg>
      <trkpt lat="39.867849431457564" lon="116.4669494084657">
        <time>2026-10-03T00:08:34.005000Z</time>
      </trkpt>
      <trkpt lat="39.86783564276665" lon="116.46702768061854">
        <time>2026-10-03T00:08:37.005000Z</time>
      </trkpt>
      <trkpt lat="39.867662665382944" lon="116.46703271964692">
        <time>2026-10-03T00:08:43.005000Z</time>
      </trkpt>
      <trkpt lat="39.867590847464086" lon="116.4670989576042">
        <time>2026-10-03T00:08:49.105000Z</time>
      </trkpt>
      <trkpt lat="39.86752361870451" lon="116.46701266772361">
        <time>2026-10-03T00:08:52.205000Z</time>
      </trkpt>
      <trkpt lat="39.867525766374115" lon="116.46669557301117">
        <time>2026-10-03T00:09:01.205000Z</time>
      </trkpt>
      <trkpt lat="39.86756472895239" lon="116.46630923828839">
        <time>2026-10-03T00:09:13.405000Z</time>
      </trkpt>
      <trkpt lat="39.86750957884957" lon="116.46625204865778">
        <time>2026-10-03T00:09:16.405000Z</time>
      </trkpt>
      <trkpt lat="39.86721967736339" lon="116.4662831918992">
        <time>2026-10-03T00:09:28.405000Z</time>
      </trkpt>
      <trkpt lat="39.867010688413" lon="116.46628321810937">
        <time>2026-10-03T00:09:37.505000Z</time>
      </trkpt>
      <trkpt lat="39.86672863087409" lon="116.46625616039069">
        <time>2026-10-03T00:09:49.605000Z</time>
      </trkpt>
      <trkpt lat="39.8666818078541" lon="116.46632139040715">
        <time>2026-10-03T00:09:52.605000Z</time>
      </trkpt>
      <trkpt lat="39.86666607464144" lon="116.46642073398725">
        <time>2026-10-03T00:09:55.605000Z</time>
      </trkpt>
      <trkpt lat="39.86665688774603" lon="116.46672377883148">
        <time>2026-10-03T00:10:04.805000Z</time>
      </trkpt>
      <trkpt lat="39.86661734005596" lon="116.46689136197078">
        <time>2026-10-03T00:10:10.905000Z</time>
      </trkpt>
      <trkpt lat="39.866611310233914" lon="116.46725160812342">
        <time>2026-10-03T00:10:23.105000Z</time>
      </trkpt>
      <trkpt lat="39.866611293694646" lon="116.46761587080617">
        <time>2026-10-03T00:10:35.305000Z</time>
      </trkpt>
      <trkpt lat="39.86659342238225" lon="116.46803232074618">
        <time>2026-10-03T00:10:47.405000Z</time>
      </trkpt>
      <trkpt lat="39.866578412544236" lon="116.46839659249788">
        <time>2026-10-03T00:10:59.405000Z</time>
      </trkpt>
      <trkpt lat="39.86649883185008" lon="116.4685491351835">
        <time>2026-10-03T00:11:05.405000Z</time>
      </trkpt>
      <trkpt lat="39.86649207546992" lon="116.46863844821368">
        <time>2026-10-03T00:11:08.405000Z</time>
      </trkpt>
      <trkpt lat="39.86653220976448" lon="116.46905490144361">
        <time>2026-10-03T00:11:20.405000Z</time>
      </trkpt>
      <trkpt lat="39.86652827832833" lon="116.46944527263176">
        <time>2026-10-03T00:11:32.405000Z</time>
      </trkpt>
      <trkpt lat="39.86653480364183" lon="116.46963694615698">
        <time>2026-10-03T00:11:38.405000Z</time>
      </trkpt>
      <trkpt lat="39.86651689118655" lon="116.47003234217767">
        <time>2026-10-03T00:11:50.505000Z</time>
      </trkpt>
      <trkpt lat="39.86649389892495" lon="116.47039763592839">
        <time>2026-10-03T00:12:02.505000Z</time>
      </trkpt>
      <trkpt lat="39.86645992919208" lon="116.47076995900888">
        <time>2026-10-03T00:12:14.605000Z</time>
      </trkpt>
      <trkpt lat="39.86645271860556" lon="116.47105497157742">
        <time>2026-10-03T00:12:23.605000Z</time>
      </trkpt>
      <trkpt lat="39.86641891232736" lon="116.47112422187381">
        <time>2026-10-03T00:12:26.705000Z</time>
      </trkpt>
      <trkpt lat="39.86636102670353" lon="116.471164371814">
        <time>2026-10-03T00:12:29.705000Z</time>
      </trkpt>
      <trkpt lat="39.86607586101004" lon="116.47109917564755">
        <time>2026-10-03T00:12:41.905000Z</time>
      </trkpt>
      <trkpt lat="39.86594588739949" lon="116.4711062168812">
        <time>2026-10-03T00:12:48.005000Z</time>
      </trkpt>
      <trkpt lat="39.86602345672411" lon="116.47131294234292">
        <time>2026-10-03T00:12:54.205000Z</time>
      </trkpt>
      <trkpt lat="39.86608569583295" lon="116.47140024532011">
        <time>2026-10-03T00:12:57.305000Z</time>
      </trkpt>
      <trkpt lat="39.866378749943415" lon="116.4714252979749">
        <time>2026-10-03T00:13:09.505000Z</time>
      </trkpt>
      <trkpt lat="39.86647074784674" lon="116.47142629003449">
        <time>2026-10-03T00:13:12.405000Z</time>
      </trkpt>
      <trkpt lat="39.86652787028053" lon="116.47147144371888">
        <time>2026-10-03T00:13:15.405000Z</time>
      </trkpt>
      <trkpt lat="39.86653188349445" lon="116.47183574222285">
        <time>2026-10-03T00:13:27.405000Z</time>
      </trkpt>
      <trkpt lat="39.86651189193715" lon="116.47219703580053">
        <time>2026-10-03T00:13:39.505000Z</time>
      </trkpt>
      <trkpt lat="39.86650289085065" lon="116.47255431635946">
        <time>2026-10-03T00:13:51.505000Z</time>
      </trkpt>
      <trkpt lat="39.866494931303954" lon="116.4729256499017">
        <time>2026-10-03T00:14:03.505000Z</time>
      </trkpt>
      <trkpt lat="39.86649514008973" lon="116.47335619841508">
        <time>2026-10-03T00:14:18.505000Z</time>
      </trkpt>
      <trkpt lat="39.86646518105384" lon="116.4737255334546">
        <time>2026-10-03T00:14:30.605000Z</time>
      </trkpt>
      <trkpt lat="39.866484207479154" lon="116.47408984689125">
        <time>2026-10-03T00:14:42.605000Z</time>
      </trkpt>
      <trkpt lat="39.86647941335915" lon="116.47451639127581">
        <time>2026-10-03T00:14:57.805000Z</time>
      </trkpt>
      <trkpt lat="39.86648551050828" lon="116.47490379559103">
        <time>2026-10-03T00:15:10.105000Z</time>
      </trkpt>
      <trkpt lat="39.86647878466303" lon="116.47535242699276">
        <time>2026-10-03T00:15:25.405000Z</time>
      </trkpt>
      <trkpt lat="39.86647551000709" lon="116.4756073555512">
        <time>2026-10-03T00:15:34.405000Z</time>
      </trkpt>
      <trkpt lat="39.86644475738965" lon="116.47569367390929">
        <time>2026-10-03T00:15:37.405000Z</time>
      </trkpt>
      <trkpt lat="39.86643858721934" lon="116.4759847362171">
        <time>2026-10-03T00:15:46.405000Z</time>
      </trkpt>
      <trkpt lat="39.86646809540853" lon="116.47616338482108">
        <time>2026-10-03T00:15:52.405000Z</time>
      </trkpt>
      <trkpt lat="39.86646534610894" lon="116.47660098520042">
        <time>2026-10-03T00:16:07.405000Z</time>
      </trkpt>
      <trkpt lat="39.866446361588835" lon="116.47695528535085">
        <time>2026-10-03T00:16:19.405000Z</time>
      </trkpt>
      <trkpt lat="39.866451389054404" lon="116.47731359928628">
        <time>2026-10-03T00:16:31.405000Z</time>
      </trkpt>
      <trkpt lat="39.86644345935346" lon="116.47768596855484">
        <time>2026-10-03T00:16:43.405000Z</time>
      </trkpt>
      <trkpt lat="39.8664536635344" lon="116.47810450777958">
        <time>2026-10-03T00:16:58.405000Z</time>
      </trkpt>
      <trkpt lat="39.86644791428435" lon="116.47853810719835">
        <time>2026-10-03T00:17:13.405000Z</time>
      </trkpt>
      <trkpt lat="39.866433958871994" lon="116.47889944329921">
        <time>2026-10-03T00:17:25.405000Z</time>
      </trkpt>
      <trkpt lat="39.86642099338733" lon="116.47925676628427">
        <time>2026-10-03T00:17:37.405000Z</time>
      </trkpt>
      <trkpt lat="39.86642705461987" lon="116.47962312214553">
        <time>2026-10-03T00:17:49.405000Z</time>
      </trkpt>
      <trkpt lat="39.86643132741519" lon="116.48006174822271">
        <time>2026-10-03T00:18:04.405000Z</time>
      </trkpt>
      <trkpt lat="39.86637036933457" lon="116.48041908279878">
        <time>2026-10-03T00:18:16.405000Z</time>
      </trkpt>
      <trkpt lat="39.86633785879841" lon="116.48058670989955">
        <time>2026-10-03T00:18:22.405000Z</time>
      </trkpt>
      <trkpt lat="39.866344907947685" lon="116.48094704957215">
        <time>2026-10-03T00:18:34.505000Z</time>
      </trkpt>
      <trkpt lat="39.866327164869105" lon="116.48137765579183">
        <time>2026-10-03T00:18:49.505000Z</time>
      </trkpt>
      <trkpt lat="39.86633268040616" lon="116.48155431379224">
        <time>2026-10-03T00:18:55.505000Z</time>
      </trkpt>
      <trkpt lat="39.866315933465316" lon="116.48164063786948">
        <time>2026-10-03T00:18:58.505000Z</time>
      </trkpt>
      <trkpt lat="39.86627110595823" lon="116.48169886066019">
        <time>2026-10-03T00:19:01.505000Z</time>
      </trkpt>
      <trkpt lat="39.86620622967866" lon="116.48174002230911">
        <time>2026-10-03T00:19:04.505000Z</time>
      </trkpt>
      <trkpt lat="39.865855063573825" lon="116.4816768301154">
        <time>2026-10-03T00:19:19.505000Z</time>
      </trkpt>
      <trkpt lat="39.86558193443504" lon="116.48162768066409">
        <time>2026-10-03T00:19:31.505000Z</time>
      </trkpt>
      <trkpt lat="39.86531079350933" lon="116.48157451601864">
        <time>2026-10-03T00:19:43.605000Z</time>
      </trkpt>
      <trkpt lat="39.8650426700621" lon="116.48152737348978">
        <time>2026-10-03T00:19:55.705000Z</time>
      </trkpt>
      <trkpt lat="39.86470454748293" lon="116.48147923596858">
        <time>2026-10-03T00:20:10.905000Z</time>
      </trkpt>
      <trkpt lat="39.86443835369895" lon="116.48140800344763">
        <time>2026-10-03T00:20:23.205000Z</time>
      </trkpt>
      <trkpt lat="39.86415323424887" lon="116.48136186687279">
        <time>2026-10-03T00:20:35.405000Z</time>
      </trkpt>
      <trkpt lat="39.86382508201509" lon="116.48130369080016">
        <time>2026-10-03T00:20:50.405000Z</time>
      </trkpt>
      <trkpt lat="39.86355697346559" lon="116.48126156712397">
        <time>2026-10-03T00:21:02.405000Z</time>
      </trkpt>
      <trkpt lat="39.86328785329869" lon="116.4812154286379">
        <time>2026-10-03T00:21:14.405000Z</time>
      </trkpt>
      <trkpt lat="39.86296975925256" lon="116.48117732619299">
        <time>2026-10-03T00:21:29.405000Z</time>
      </trkpt>
      <trkpt lat="39.86264256914709" lon="116.4811061015367">
        <time>2026-10-03T00:21:44.405000Z</time>
      </trkpt>
      <trkpt lat="39.86231443185647" lon="116.48105294433284">
        <time>2026-10-03T00:21:59.405000Z</time>
      </trkpt>
      <trkpt lat="39.86199633797346" lon="116.48101484196532">
        <time>2026-10-03T00:22:14.405000Z</time>
      </trkpt>
      <trkpt lat="39.861678185628776" lon="116.48095666489671">
        <time>2026-10-03T00:22:29.505000Z</time>
      </trkpt>
      <trkpt lat="39.86135505117456" lon="116.48090451090478">
        <time>2026-10-03T00:22:44.505000Z</time>
      </trkpt>
      <trkpt lat="39.861162003242896" lon="116.48088446025697">
        <time>2026-10-03T00:22:53.605000Z</time>
      </trkpt>
      <trkpt lat="39.86083971971663" lon="116.48078111575629">
        <time>2026-10-03T00:23:08.705000Z</time>
      </trkpt>
      <trkpt lat="39.860502606677954" lon="116.48073598975677">
        <time>2026-10-03T00:23:24.005000Z</time>
      </trkpt>
      <trkpt lat="39.860354559282364" lon="116.48071693727663">
        <time>2026-10-03T00:23:30.205000Z</time>
      </trkpt>
      <trkpt lat="39.86016378903517" lon="116.48079224107742">
        <time>2026-10-03T00:23:39.305000Z</time>
      </trkpt>
      <trkpt lat="39.859880640931756" lon="116.48073606727782">
        <time>2026-10-03T00:23:51.405000Z</time>
      </trkpt>
      <trkpt lat="39.859686532220465" lon="116.48069694629397">
        <time>2026-10-03T00:24:00.405000Z</time>
      </trkpt>
      <trkpt lat="39.85961019706707" lon="116.48057851499837">
        <time>2026-10-03T00:24:06.405000Z</time>
      </trkpt>
      <trkpt lat="39.8595630465821" lon="116.48018204796642">
        <time>2026-10-03T00:24:21.505000Z</time>
      </trkpt>
      <trkpt lat="39.859489785736976" lon="116.47974644111714">
        <time>2026-10-03T00:24:36.505000Z</time>
      </trkpt>
      <trkpt lat="39.85942064315368" lon="116.47935098489764">
        <time>2026-10-03T00:24:51.505000Z</time>
      </trkpt>
      <trkpt lat="39.85936544942311" lon="116.47893746233233">
        <time>2026-10-03T00:25:06.605000Z</time>
      </trkpt>
      <trkpt lat="39.85928722719764" lon="116.47851290434276">
        <time>2026-10-03T00:25:21.805000Z</time>
      </trkpt>
      <trkpt lat="39.859246071701655" lon="116.47811142940901">
        <time>2026-10-03T00:25:37.205000Z</time>
      </trkpt>
      <trkpt lat="39.859229130591" lon="116.4777842270642">
        <time>2026-10-03T00:25:49.405000Z</time>
      </trkpt>
      <trkpt lat="39.85925287444956" lon="116.47734761950343">
        <time>2026-10-03T00:26:04.405000Z</time>
      </trkpt>
      <trkpt lat="39.85927168155204" lon="116.4769320928307">
        <time>2026-10-03T00:26:19.505000Z</time>
      </trkpt>
      <trkpt lat="39.85931494048435" lon="116.47667414258113">
        <time>2026-10-03T00:26:28.505000Z</time>
      </trkpt>
      <trkpt lat="39.859440817233086" lon="116.47628369882348">
        <time>2026-10-03T00:26:43.505000Z</time>
      </trkpt>
      <trkpt lat="39.85952462697613" lon="116.4758681713788">
        <time>2026-10-03T00:26:58.505000Z</time>
      </trkpt>
      <trkpt lat="39.859598468353376" lon="116.47546268470995">
        <time>2026-10-03T00:27:13.505000Z</time>
      </trkpt>
      <trkpt lat="39.85968528869275" lon="116.47504917017274">
        <time>2026-10-03T00:27:28.605000Z</time>
      </trkpt>
      <trkpt lat="39.85977010892176" lon="116.47463465535633">
        <time>2026-10-03T00:27:43.805000Z</time>
      </trkpt>
      <trkpt lat="39.85987193090183" lon="116.47422014161101">
        <time>2026-10-03T00:27:59.005000Z</time>
      </trkpt>
      <trkpt lat="39.85996077614392" lon="116.47381265811232">
        <time>2026-10-03T00:28:14.205000Z</time>
      </trkpt>
      <trkpt lat="39.86004953379499" lon="116.47337306219211">
        <time>2026-10-03T00:28:29.305000Z</time>
      </trkpt>
      <trkpt lat="39.8600980798782" lon="116.47321247814432">
        <time>2026-10-03T00:28:35.305000Z</time>
      </trkpt>
      <trkpt lat="39.860158955938566" lon="116.47281303506081">
        <time>2026-10-03T00:28:50.405000Z</time>
      </trkpt>
      <trkpt lat="39.86025279924191" lon="116.47240154798158">
        <time>2026-10-03T00:29:05.405000Z</time>
      </trkpt>
      <trkpt lat="39.86037063577277" lon="116.47198705067025">
        <time>2026-10-03T00:29:20.405000Z</time>
      </trkpt>
      <trkpt lat="39.86047651506688" lon="116.47158660857389">
        <time>2026-10-03T00:29:35.405000Z</time>
      </trkpt>
      <trkpt lat="39.86052412194341" lon="116.47144610208525">
        <time>2026-10-03T00:29:41.405000Z</time>
      </trkpt>
      <trkpt lat="39.860638719927536" lon="116.47130358050225">
        <time>2026-10-03T00:29:50.405000Z</time>
      </trkpt>
      <trkpt lat="39.860692700251604" lon="116.47129755232463">
        <time>2026-10-03T00:29:53.405000Z</time>
      </trkpt>
      <trkpt lat="39.86079782820152" lon="116.47134571057711">
        <time>2026-10-03T00:29:59.405000Z</time>
      </trkpt>
      <trkpt lat="39.86085782769705" lon="116.47134670664099">
        <time>2026-10-03T00:30:02.405000Z</time>
      </trkpt>
      <trkpt lat="39.860917894066034" lon="116.47137178842038">
        <time>2026-10-03T00:30:05.405000Z</time>
      </trkpt>
      <trkpt lat="39.86102453724097" lon="116.4712453251672">
        <time>2026-10-03T00:30:11.405000Z</time>
      </trkpt>
      <trkpt lat="39.86104429955" lon="116.47116001938245">
        <time>2026-10-03T00:30:14.405000Z</time>
      </trkpt>
      <trkpt lat="39.86097917234464" lon="116.47111285988788">
        <time>2026-10-03T00:30:17.405000Z</time>
      </trkpt>
      <trkpt lat="39.860758106577926" lon="116.47108478770251">
        <time>2026-10-03T00:30:26.405000Z</time>
      </trkpt>
      <trkpt lat="39.860544998692156" lon="116.47104166106496">
        <time>2026-10-03T00:30:35.405000Z</time>
      </trkpt>
      <trkpt lat="39.86048591296676" lon="116.47100955439778">
        <time>2026-10-03T00:30:38.405000Z</time>
      </trkpt>
      <trkpt lat="39.86046666389297" lon="116.4709192361323">
        <time>2026-10-03T00:30:41.405000Z</time>
      </trkpt>
      <trkpt lat="39.860548735210635" lon="116.4705850409522">
        <time>2026-10-03T00:30:53.405000Z</time>
      </trkpt>
      <trkpt lat="39.86059586309485" lon="116.47026992006528">
        <time>2026-10-03T00:31:05.505000Z</time>
      </trkpt>
      <trkpt lat="39.86064436282401" lon="116.47008927585334">
        <time>2026-10-03T00:31:11.505000Z</time>
      </trkpt>
      <trkpt lat="39.86064862837813" lon="116.46982233367136">
        <time>2026-10-03T00:31:20.505000Z</time>
      </trkpt>
      <trkpt lat="39.860731684605966" lon="116.46948011855878">
        <time>2026-10-03T00:31:32.505000Z</time>
      </trkpt>
      <trkpt lat="39.86077754489246" lon="116.4690646539345">
        <time>2026-10-03T00:31:47.505000Z</time>
      </trkpt>
      <trkpt lat="39.860865387164495" lon="116.4686421636483">
        <time>2026-10-03T00:32:02.605000Z</time>
      </trkpt>
      <trkpt lat="39.86092823985958" lon="116.4682216878589">
        <time>2026-10-03T00:32:17.905000Z</time>
      </trkpt>
      <trkpt lat="39.86099332979048" lon="116.46788751621413">
        <time>2026-10-03T00:32:30.205000Z</time>
      </trkpt>
      <trkpt lat="39.86101264698054" lon="116.46763563866813">
        <time>2026-10-03T00:32:39.505000Z</time>
      </trkpt>
      <trkpt lat="39.86108063529507" lon="116.4672623361237">
        <time>2026-10-03T00:32:51.505000Z</time>
      </trkpt>
      <trkpt lat="39.86117048242137" lon="116.46683585087814">
        <time>2026-10-03T00:33:06.505000Z</time>
      </trkpt>
      <trkpt lat="39.86123486197017" lon="116.46660605056167">
        <time>2026-10-03T00:33:15.505000Z</time>
      </trkpt>
      <trkpt lat="39.86128488902119" lon="116.46624379821591">
        <time>2026-10-03T00:33:27.605000Z</time>
      </trkpt>
      <trkpt lat="39.86132919228794" lon="116.46598390082451">
        <time>2026-10-03T00:33:36.705000Z</time>
      </trkpt>
      <trkpt lat="39.86135400085959" lon="116.4659126535512">
        <time>2026-10-03T00:33:39.705000Z</time>
      </trkpt>
      <trkpt lat="39.86141292003662" lon="116.46588354647383">
        <time>2026-10-03T00:33:42.705000Z</time>
      </trkpt>
      <trkpt lat="39.86159705717335" lon="116.46593871246756">
        <time>2026-10-03T00:33:51.805000Z</time>
      </trkpt>
      <trkpt lat="39.86192408484895" lon="116.46595572991917">
        <time>2026-10-03T00:34:07.205000Z</time>
      </trkpt>
      <trkpt lat="39.86211902604752" lon="116.46593764357284">
        <time>2026-10-03T00:34:16.405000Z</time>
      </trkpt>
      <trkpt lat="39.86246313049818" lon="116.46598375862841">
        <time>2026-10-03T00:34:31.405000Z</time>
      </trkpt>
      <trkpt lat="39.86278513980573" lon="116.46599375264788">
        <time>2026-10-03T00:34:46.405000Z</time>
      </trkpt>
      <trkpt lat="39.86310518675286" lon="116.4660177950856">
        <time>2026-10-03T00:35:01.405000Z</time>
      </trkpt>
      <trkpt lat="39.86322726051849" lon="116.46604788301576">
        <time>2026-10-03T00:35:07.405000Z</time>
      </trkpt>
      <trkpt lat="39.8635062400879" lon="116.46604584114691">
        <time>2026-10-03T00:35:19.405000Z</time>
      </trkpt>
      <trkpt lat="39.86371132013072" lon="116.46607993246108">
        <time>2026-10-03T00:35:28.405000Z</time>
      </trkpt>
      <trkpt lat="39.86376349424568" lon="116.46614615318863">
        <time>2026-10-03T00:35:31.405000Z</time>
      </trkpt>
      <trkpt lat="39.863776753735976" lon="116.46624348575838">
        <time>2026-10-03T00:35:34.405000Z</time>
      </trkpt>
      <trkpt lat="39.863762913152165" lon="116.46667597564421">
        <time>2026-10-03T00:35:49.405000Z</time>
      </trkpt>
      <trkpt lat="39.8637368665495" lon="116.46703020141982">
        <time>2026-10-03T00:36:01.405000Z</time>
      </trkpt>
      <trkpt lat="39.86372703034706" lon="116.46746169623829">
        <time>2026-10-03T00:36:16.405000Z</time>
      </trkpt>
      <trkpt lat="39.86369419658195" lon="116.46789219521979">
        <time>2026-10-03T00:36:31.405000Z</time>
      </trkpt>
      <trkpt lat="39.86366715364266" lon="116.46824442516034">
        <time>2026-10-03T00:36:43.505000Z</time>
      </trkpt>
      <trkpt lat="39.86363231051526" lon="116.46866891177561">
        <time>2026-10-03T00:36:58.505000Z</time>
      </trkpt>
      <trkpt lat="39.86361951098107" lon="116.46910845283745">
        <time>2026-10-03T00:37:13.505000Z</time>
      </trkpt>
      <trkpt lat="39.86359369671339" lon="116.46954097546262">
        <time>2026-10-03T00:37:28.605000Z</time>
      </trkpt>
      <trkpt lat="39.863563855946765" lon="116.46996246406808">
        <time>2026-10-03T00:37:43.905000Z</time>
      </trkpt>
      <trkpt lat="39.863521008218015" lon="116.4703799442278">
        <time>2026-10-03T00:37:59.205000Z</time>
      </trkpt>
      <trkpt lat="39.86351700347267" lon="116.47074022064929">
        <time>2026-10-03T00:38:11.405000Z</time>
      </trkpt>
      <trkpt lat="39.863467947943604" lon="116.47108043430612">
        <time>2026-10-03T00:38:23.405000Z</time>
      </trkpt>
      <trkpt lat="39.863440133057395" lon="116.4711466731782">
        <time>2026-10-03T00:38:26.405000Z</time>
      </trkpt>
      <trkpt lat="39.863380216997456" lon="116.47117578413673">
        <time>2026-10-03T00:38:29.405000Z</time>
      </trkpt>
      <trkpt lat="39.86309219917663" lon="116.47116377736914">
        <time>2026-10-03T00:38:41.405000Z</time>
      </trkpt>
      <trkpt lat="39.862781213240616" lon="116.47116281272118">
        <time>2026-10-03T00:38:56.405000Z</time>
      </trkpt>
      <trkpt lat="39.86245325052106" lon="116.47116987873841">
        <time>2026-10-03T00:39:11.405000Z</time>
      </trkpt>
      <trkpt lat="39.862119263116774" lon="116.4711679134">
        <time>2026-10-03T00:39:26.405000Z</time>
      </trkpt>
      <trkpt lat="39.86179325304997" lon="116.47115791852272">
        <time>2026-10-03T00:39:41.505000Z</time>
      </trkpt>
      <trkpt lat="39.86151918453248" lon="116.47112784580803">
        <time>2026-10-03T00:39:53.505000Z</time>
      </trkpt>
      <trkpt lat="39.861196135426326" lon="116.47110380064012">
        <time>2026-10-03T00:40:08.505000Z</time>
      </trkpt>
      <trkpt lat="39.86088601612689" lon="116.47105466473315">
        <time>2026-10-03T00:40:23.505000Z</time>
      </trkpt>
      <trkpt lat="39.860604931449764" lon="116.47101857158081">
        <time>2026-10-03T00:40:35.505000Z</time>
      </trkpt>
      <trkpt lat="39.86048482407366" lon="116.47097744049567">
        <time>2026-10-03T00:40:41.505000Z</time>
      </trkpt>
      <trkpt lat="39.86046262799711" lon="116.47090619033277">
        <time>2026-10-03T00:40:44.505000Z</time>
      </trkpt>
      <trkpt lat="39.86054654686708" lon="116.47051679957222">
        <time>2026-10-03T00:40:59.605000Z</time>
      </trkpt>
      <trkpt lat="39.86063038293137" lon="116.470096302406">
        <time>2026-10-03T00:41:14.705000Z</time>
      </trkpt>
      <trkpt lat="39.8606604375004" lon="116.46975308820194">
        <time>2026-10-03T00:41:27.005000Z</time>
      </trkpt>
      <trkpt lat="39.860726753656444" lon="116.46950520740454">
        <time>2026-10-03T00:41:36.105000Z</time>
      </trkpt>
      <trkpt lat="39.86077758329061" lon="116.4690787031963">
        <time>2026-10-03T00:41:51.405000Z</time>
      </trkpt>
      <trkpt lat="39.86084759600171" lon="116.46871843259967">
        <time>2026-10-03T00:42:03.505000Z</time>
      </trkpt>
      <trkpt lat="39.860913428792095" lon="116.46829093114673">
        <time>2026-10-03T00:42:18.505000Z</time>
      </trkpt>
      <trkpt lat="39.860976270917234" lon="116.46786544158326">
        <time>2026-10-03T00:42:33.605000Z</time>
      </trkpt>
      <trkpt lat="39.86104914334363" lon="116.46744999011464">
        <time>2026-10-03T00:42:48.705000Z</time>
      </trkpt>
      <trkpt lat="39.861114214341306" lon="116.46710679379687">
        <time>2026-10-03T00:43:01.005000Z</time>
      </trkpt>
      <trkpt lat="39.861202089927765" lon="116.46669034511413">
        <time>2026-10-03T00:43:16.205000Z</time>
      </trkpt>
      <trkpt lat="39.861284907805924" lon="116.46625082234239">
        <time>2026-10-03T00:43:31.405000Z</time>
      </trkpt>
      <trkpt lat="39.86132044458351" lon="116.46607822538942">
        <time>2026-10-03T00:43:37.405000Z</time>
      </trkpt>
      <trkpt lat="39.861320206168834" lon="116.46598891915104">
        <time>2026-10-03T00:43:40.405000Z</time>
      </trkpt>
      <trkpt lat="39.86134700391838" lon="116.4659136578666">
        <time>2026-10-03T00:43:43.405000Z</time>
      </trkpt>
      <trkpt lat="39.86140292593409" lon="116.46588555460148">
        <time>2026-10-03T00:43:46.405000Z</time>
      </trkpt>
      <trkpt lat="39.8617190853157" lon="116.46595174187004">
        <time>2026-10-03T00:44:01.405000Z</time>
      </trkpt>
      <trkpt lat="39.8619890732773" lon="116.4659527114522">
        <time>2026-10-03T00:44:13.405000Z</time>
      </trkpt>
      <trkpt lat="39.862242094312705" lon="116.46596572443286">
        <time>2026-10-03T00:44:25.405000Z</time>
      </trkpt>
      <trkpt lat="39.86236899371691" lon="116.46593058815579">
        <time>2026-10-03T00:44:31.505000Z</time>
      </trkpt>
      <trkpt lat="39.86256814889793" lon="116.46599277641921">
        <time>2026-10-03T00:44:40.505000Z</time>
      </trkpt>
      <trkpt lat="39.86289815242858" lon="116.46600076255774">
        <time>2026-10-03T00:44:55.505000Z</time>
      </trkpt>
      <trkpt lat="39.86321130961164" lon="116.46606594697113">
        <time>2026-10-03T00:45:10.605000Z</time>
      </trkpt>
      <trkpt lat="39.863490251668146" lon="116.46604985691883">
        <time>2026-10-03T00:45:22.705000Z</time>
      </trkpt>
      <trkpt lat="39.863685241147216" lon="116.46604983246593">
        <time>2026-10-03T00:45:31.805000Z</time>
      </trkpt>
      <trkpt lat="39.86373840980271" lon="116.46611404612784">
        <time>2026-10-03T00:45:34.805000Z</time>
      </trkpt>
      <trkpt lat="39.863770657469374" lon="116.46620736244815">
        <time>2026-10-03T00:45:37.905000Z</time>
      </trkpt>
      <trkpt lat="39.86376588852902" lon="116.46629365950477">
        <time>2026-10-03T00:45:40.905000Z</time>
      </trkpt>
      <trkpt lat="39.86380807961056" lon="116.46636590256534">
        <time>2026-10-03T00:45:44.005000Z</time>
      </trkpt>
      <trkpt lat="39.86387197947579" lon="116.46632977035969">
        <time>2026-10-03T00:45:47.005000Z</time>
      </trkpt>
      <trkpt lat="39.863958405992754" lon="116.46611702887003">
        <time>2026-10-03T00:45:53.205000Z</time>
      </trkpt>
      <trkpt lat="39.86400022149784" lon="116.4660487895232">
        <time>2026-10-03T00:45:56.305000Z</time>
      </trkpt>
      <trkpt lat="39.86428632134106" lon="116.46609190166532">
        <time>2026-10-03T00:46:08.405000Z</time>
      </trkpt>
      <trkpt lat="39.86459729660413" lon="116.4660888523375">
        <time>2026-10-03T00:46:23.405000Z</time>
      </trkpt>
      <trkpt lat="39.86487126315896" lon="116.46608179387957">
        <time>2026-10-03T00:46:35.405000Z</time>
      </trkpt>
      <trkpt lat="39.86519936890817" lon="116.46612791112486">
        <time>2026-10-03T00:46:50.405000Z</time>
      </trkpt>
      <trkpt lat="39.86553339665072" lon="116.46614492778536">
        <time>2026-10-03T00:47:05.405000Z</time>
      </trkpt>
      <trkpt lat="39.8658534359062" lon="116.46616595998786">
        <time>2026-10-03T00:47:20.405000Z</time>
      </trkpt>
      <trkpt lat="39.86613357658615" lon="116.46622412471223">
        <time>2026-10-03T00:47:32.405000Z</time>
      </trkpt>
      <trkpt lat="39.86639460565133" lon="116.46624014712533">
        <time>2026-10-03T00:47:44.405000Z</time>
      </trkpt>
      <trkpt lat="39.86646165576723" lon="116.46626020766291">
        <time>2026-10-03T00:47:47.405000Z</time>
      </trkpt>
      <trkpt lat="39.86652782676057" lon="116.46632542351502">
        <time>2026-10-03T00:47:50.405000Z</time>
      </trkpt>
      <trkpt lat="39.866550091541626" lon="116.46642476233987">
        <time>2026-10-03T00:47:53.405000Z</time>
      </trkpt>
      <trkpt lat="39.86653230756097" lon="116.46650504081602">
        <time>2026-10-03T00:47:56.405000Z</time>
      </trkpt>
      <trkpt lat="39.8665993470373" lon="116.46652108767903">
        <time>2026-10-03T00:48:02.405000Z</time>
      </trkpt>
      <trkpt lat="39.8666731495246" lon="116.46644882976382">
        <time>2026-10-03T00:48:05.405000Z</time>
      </trkpt>
      <trkpt lat="39.8667126317219" lon="116.4662561623972">
        <time>2026-10-03T00:48:11.405000Z</time>
      </trkpt>
      <trkpt lat="39.86677953157205" lon="116.46622002991444">
        <time>2026-10-03T00:48:14.405000Z</time>
      </trkpt>
      <trkpt lat="39.867082601401314" lon="116.46625210220786">
        <time>2026-10-03T00:48:29.405000Z</time>
      </trkpt>
      <trkpt lat="39.86740758423165" lon="116.4662520614497">
        <time>2026-10-03T00:48:44.405000Z</time>
      </trkpt>
      <trkpt lat="39.86773657493407" lon="116.4662550305307">
        <time>2026-10-03T00:48:59.605000Z</time>
      </trkpt>
      <trkpt lat="39.86806449326775" lon="116.46623090667009">
        <time>2026-10-03T00:49:14.605000Z</time>
      </trkpt>
      <trkpt lat="39.86825740532166" lon="116.46620178252583">
        <time>2026-10-03T00:49:23.605000Z</time>
      </trkpt>
      <trkpt lat="39.86838250876093" lon="116.46624290814853">
        <time>2026-10-03T00:49:29.705000Z</time>
      </trkpt>
      <trkpt lat="39.8686594647163" lon="116.4662318354936">
        <time>2026-10-03T00:49:41.705000Z</time>
      </trkpt>
      <trkpt lat="39.8686594647163" lon="116.4662318354936">
        <time>2026-10-03T00:49:43.905000Z</time>
      </trkpt>
    </trkseg>
  </trk>
</gpx>