<?xml version="1.0" encoding="UTF-8"?>
<gpx xmlns="http://www.topografix.com/GPX/1/1" xmlns:gpxtpx="http://www.garmin.com/xmlschemas/TrackPointExtension/v1" xmlns:xsi="http://www.w3.org/2001/XMLSchema-instance" xsi:schemaLocation="http://www.topografix.com/GPX/1/1 http://www.topografix.com/GPX/1/1/gpx.xsd" version="1.1" creator="gpx.py -- https://github.com/tkrajina/gpxpy">
  <trk>
    <name>gpx from keep</name>
    <type>Run</type>
    <trkseg>
      <trkpt lat="39.890303780631946" lon="116.34081636899951">
        <ele>0.0</ele>
        <time>2026-09-10T22:22:34.046000Z</time>
      </trkpt>
      <trkpt lat="39.89025680418229" lon="116.340804400639">
        <ele>0.0</ele>
        <time>2026-09-10T22:22:37.046000Z</time>
      </trkpt>
      <trkpt lat="39.89026837221572" lon="116.34048608335934">
        <ele>0.0</ele>
        <time>2026-09-10T22:22:49.046000Z</time>
      </trkpt>
      <trkpt lat="39.89036342133019" lon="116.34045613578208">
        <ele>0.0</ele>
        <time>2026-09-10T22:22:55.046000Z</time>
      </trkpt>
      <trkpt lat="39.890559296199655" lon="116.34052097144094">
        <ele>0.0</ele>
        <time>2026-09-10T22:23:04.246000Z</time>
      </trkpt>
      <trkpt lat="39.89063927998576" lon="116.34052794630483">
        <ele>0.0</ele>
        <time>2026-09-10T22:23:07.346000Z</time>
      </trkpt>
      <trkpt lat="39.890696188150656" lon="116.34057783179315">
        <ele>0.0</ele>
        <time>2026-09-10T22:23:10.346000Z</time>
      </trkpt>
      <trkpt lat="39.89067055717865" lon="116.34093207431692">
        <ele>0.0</ele>
        <time>2026-09-10T22:23:22.646000Z</time>
      </trkpt>
      <trkpt lat="39.8906769141783" lon="116.34129330009797">
        <ele>0.0</ele>
        <time>2026-09-10T22:23:34.946000Z</time>
      </trkpt>
      <trkpt lat="39.89068420950621" lon="116.34169045158163">
        <ele>0.0</ele>
        <time>2026-09-10T22:23:47.046000Z</time>
      </trkpt>
      <trkpt lat="39.890706513619314" lon="116.34208361256728">
        <ele>0.0</ele>
        <time>2026-09-10T22:23:59.346000Z</time>
      </trkpt>
      <trkpt lat="39.89076838930254" lon="116.34215245860375">
        <ele>0.0</ele>
        <time>2026-09-10T22:24:02.446000Z</time>
      </trkpt>
      <trkpt lat="39.89085437474588" lon="116.34215843502915">
        <ele>0.0</ele>
        <time>2026-09-10T22:24:05.546000Z</time>
      </trkpt>
      <trkpt lat="39.89099041064834" lon="116.34213446864919">
        <ele>0.0</ele>
        <time>2026-09-10T22:24:11.746000Z</time>
      </trkpt>
      <trkpt lat="39.89121738954498" lon="116.34214042724675">
        <ele>0.0</ele>
        <time>2026-09-10T22:24:20.746000Z</time>
      </trkpt>
      <trkpt lat="39.89149942045261" lon="116.34211544453494">
        <ele>0.0</ele>
        <time>2026-09-10T22:24:32.746000Z</time>
      </trkpt>
      <trkpt lat="39.89177238668375" lon="116.34212738460812">
        <ele>0.0</ele>
        <time>2026-09-10T22:24:44.746000Z</time>
      </trkpt>
      <trkpt lat="39.89206140322667" lon="116.342110384073">
        <ele>0.0</ele>
        <time>2026-09-10T22:24:56.746000Z</time>
      </trkpt>
      <trkpt lat="39.89233739575066" lon="116.34210735553276">
        <ele>0.0</ele>
        <time>2026-09-10T22:25:08.746000Z</time>
      </trkpt>
      <trkpt lat="39.892551384111435" lon="116.34210832635884">
        <ele>0.0</ele>
        <time>2026-09-10T22:25:17.746000Z</time>
      </trkpt>
      <trkpt lat="39.89269945826269" lon="116.3420624050952">
        <ele>0.0</ele>
        <time>2026-09-10T22:25:23.746000Z</time>
      </trkpt>
      <trkpt lat="39.89282862494498" lon="116.3419645965257">
        <ele>0.0</ele>
        <time>2026-09-10T22:25:29.846000Z</time>
      </trkpt>
      <trkpt lat="39.89311061900784" lon="116.3419605693561">
        <ele>0.0</ele>
        <time>2026-09-10T22:25:41.846000Z</time>
      </trkpt>
      <trkpt lat="39.89338263117249" lon="116.34194656466049">
        <ele>0.0</ele>
        <time>2026-09-10T22:25:53.946000Z</time>
      </trkpt>
      <trkpt lat="39.89352359297026" lon="116.34196450865755">
        <ele>0.0</ele>
        <time>2026-09-10T22:26:00.046000Z</time>
      </trkpt>
      <trkpt lat="39.89323959897469" lon="116.34196853608096">
        <ele>0.0</ele>
        <time>2026-09-10T22:26:15.246000Z</time>
      </trkpt>
      <trkpt lat="39.89304660256876" lon="116.34197155411988">
        <ele>0.0</ele>
        <time>2026-09-10T22:26:24.446000Z</time>
      </trkpt>
      <trkpt lat="39.893108492632564" lon="116.34260021394168">
        <ele>0.0</ele>
        <time>2026-09-10T22:26:51.646000Z</time>
      </trkpt>
      <trkpt lat="39.89317148622932" lon="116.34260220175824">
        <ele>0.0</ele>
        <time>2026-09-10T22:26:54.646000Z</time>
      </trkpt>
      <trkpt lat="39.893443186588335" lon="116.34276582182059">
        <ele>0.0</ele>
        <time>2026-09-10T22:27:03.646000Z</time>
      </trkpt>
      <trkpt lat="39.893385157765515" lon="116.34278379126148">
        <ele>0.0</ele>
        <time>2026-09-10T22:27:06.646000Z</time>
      </trkpt>
      <trkpt lat="39.89321321990723" lon="116.34275287827677">
        <ele>0.0</ele>
        <time>2026-09-10T22:27:12.646000Z</time>
      </trkpt>
      <trkpt lat="39.89292515794151" lon="116.34279582417213">
        <ele>0.0</ele>
        <time>2026-09-10T22:27:24.646000Z</time>
      </trkpt>
      <trkpt lat="39.89284095204779" lon="116.34291558236298">
        <ele>0.0</ele>
        <time>2026-09-10T22:27:30.746000Z</time>
      </trkpt>
      <trkpt lat="39.892822811419784" lon="116.3429964144081">
        <ele>0.0</ele>
        <time>2026-09-10T22:27:33.746000Z</time>
      </trkpt>
      <trkpt lat="39.892773736882084" lon="116.34304032818777">
        <ele>0.0</ele>
        <time>2026-09-10T22:27:36.746000Z</time>
      </trkpt>
      <trkpt lat="39.892570690411844" lon="116.34307228667124">
        <ele>0.0</ele>
        <time>2026-09-10T22:27:45.746000Z</time>
      </trkpt>
      <trkpt lat="39.89251240024907" lon="116.34323994160292">
        <ele>0.0</ele>
        <time>2026-09-10T22:28:18.746000Z</time>
      </trkpt>
      <trkpt lat="39.89278336162673" lon="116.34325487589312">
        <ele>0.0</ele>
        <time>2026-09-10T22:28:30.846000Z</time>
      </trkpt>
      <trkpt lat="39.89309535596416" lon="116.34324984691352">
        <ele>0.0</ele>
        <time>2026-09-10T22:28:42.946000Z</time>
      </trkpt>
      <trkpt lat="39.89324036670906" lon="116.34323984953424">
        <ele>0.0</ele>
        <time>2026-09-10T22:28:48.946000Z</time>
      </trkpt>
      <trkpt lat="39.89353041086516" lon="116.34320688203643">
        <ele>0.0</ele>
        <time>2026-09-10T22:29:01.146000Z</time>
      </trkpt>
      <trkpt lat="39.89380643652968" lon="116.34318489326176">
        <ele>0.0</ele>
        <time>2026-09-10T22:29:13.246000Z</time>
      </trkpt>
      <trkpt lat="39.89409146354904" lon="116.34316190545599">
        <ele>0.0</ele>
        <time>2026-09-10T22:29:25.446000Z</time>
      </trkpt>
      <trkpt lat="39.89437751147019" lon="116.3431269427121">
        <ele>0.0</ele>
        <time>2026-09-10T22:29:37.646000Z</time>
      </trkpt>
      <trkpt lat="39.89465751784812" lon="116.34311593038183">
        <ele>0.0</ele>
        <time>2026-09-10T22:29:46.646000Z</time>
      </trkpt>
      <trkpt lat="39.89493553654365" lon="116.34309793299826">
        <ele>0.0</ele>
        <time>2026-09-10T22:29:58.646000Z</time>
      </trkpt>
      <trkpt lat="39.89520757646742" lon="116.34306796157209">
        <ele>0.0</ele>
        <time>2026-09-10T22:30:10.646000Z</time>
      </trkpt>
      <trkpt lat="39.89554658370856" lon="116.3430549459915">
        <ele>0.0</ele>
        <time>2026-09-10T22:30:25.646000Z</time>
      </trkpt>
      <trkpt lat="39.89583859660199" lon="116.34303994055846">
        <ele>0.0</ele>
        <time>2026-09-10T22:30:37.746000Z</time>
      </trkpt>
      <trkpt lat="39.896113692333195" lon="116.34297803601812">
        <ele>0.0</ele>
        <time>2026-09-10T22:30:49.746000Z</time>
      </trkpt>
      <trkpt lat="39.89642977929622" lon="116.34292011795883">
        <ele>0.0</ele>
        <time>2026-09-10T22:31:04.746000Z</time>
      </trkpt>
      <trkpt lat="39.89669669209622" lon="116.34296299380236">
        <ele>0.0</ele>
        <time>2026-09-10T22:31:16.746000Z</time>
      </trkpt>
      <trkpt lat="39.89678778928822" lon="116.34290510421835">
        <ele>0.0</ele>
        <time>2026-09-10T22:31:22.746000Z</time>
      </trkpt>
      <trkpt lat="39.896871795971066" lon="116.34289910621088">
        <ele>0.0</ele>
        <time>2026-09-10T22:31:25.746000Z</time>
      </trkpt>
      <trkpt lat="39.897148727542" lon="116.34293100389417">
        <ele>0.0</ele>
        <time>2026-09-10T22:31:34.746000Z</time>
      </trkpt>
      <trkpt lat="39.89745472245961" lon="116.34292597570192">
        <ele>0.0</ele>
        <time>2026-09-10T22:31:46.746000Z</time>
      </trkpt>
      <trkpt lat="39.897783768776" lon="116.34289100768306">
        <ele>0.0</ele>
        <time>2026-09-10T22:32:01.846000Z</time>
      </trkpt>
      <trkpt lat="39.898094426062706" lon="116.34289212817158">
        <ele>0.0</ele>
        <time>2026-09-10T22:32:13.946000Z</time>
      </trkpt>
      <trkpt lat="39.89838278551417" lon="116.34286598450076">
        <ele>0.0</ele>
        <time>2026-09-10T22:32:26.146000Z</time>
      </trkpt>
      <trkpt lat="39.89852284215813" lon="116.34283004253341">
        <ele>0.0</ele>
        <time>2026-09-10T22:32:32.246000Z</time>
      </trkpt>
      <trkpt lat="39.89866099863768" lon="116.34273722085985">
        <ele>0.0</ele>
        <time>2026-09-10T22:32:38.246000Z</time>
      </trkpt>
      <trkpt lat="39.89877124586241" lon="116.34259351042515">
        <ele>0.0</ele>
        <time>2026-09-10T22:32:44.346000Z</time>
      </trkpt>
      <trkpt lat="39.89866504921356" lon="116.34270828143862">
        <ele>0.0</ele>
        <time>2026-09-10T22:32:53.546000Z</time>
      </trkpt>
      <trkpt lat="39.89852490327371" lon="116.34279511594168">
        <ele>0.0</ele>
        <time>2026-09-10T22:32:59.746000Z</time>
      </trkpt>
      <trkpt lat="39.89819890743099" lon="116.34280114454631">
        <ele>0.0</ele>
        <time>2026-09-10T22:33:11.746000Z</time>
      </trkpt>
      <trkpt lat="39.897902854304995" lon="116.34283910201648">
        <ele>0.0</ele>
        <time>2026-09-10T22:33:23.746000Z</time>
      </trkpt>
      <trkpt lat="39.89759281233752" lon="116.34287107390617">
        <ele>0.0</ele>
        <time>2026-09-10T22:33:38.746000Z</time>
      </trkpt>
      <trkpt lat="39.897337196130636" lon="116.3428881666789">
        <ele>0.0</ele>
        <time>2026-09-10T22:33:47.746000Z</time>
      </trkpt>
      <trkpt lat="39.897052787786194" lon="116.34289908331802">
        <ele>0.0</ele>
        <time>2026-09-10T22:33:59.746000Z</time>
      </trkpt>
      <trkpt lat="39.89678579986232" lon="116.3428991170881">
        <ele>0.0</ele>
        <time>2026-09-10T22:34:11.746000Z</time>
      </trkpt>
      <trkpt lat="39.896734840615515" lon="116.34287716980606">
        <ele>0.0</ele>
        <time>2026-09-10T22:34:14.746000Z</time>
      </trkpt>
      <trkpt lat="39.89639977017462" lon="116.34292610913893">
        <ele>0.0</ele>
        <time>2026-09-10T22:34:32.746000Z</time>
      </trkpt>
      <trkpt lat="39.89616670389639" lon="116.34297004612567">
        <ele>0.0</ele>
        <time>2026-09-10T22:34:41.746000Z</time>
      </trkpt>
      <trkpt lat="39.896025595086826" lon="116.3430359253073">
        <ele>0.0</ele>
        <time>2026-09-10T22:34:47.746000Z</time>
      </trkpt>
      <trkpt lat="39.8959326167624" lon="116.3430259580721">
        <ele>0.0</ele>
        <time>2026-09-10T22:34:50.746000Z</time>
      </trkpt>
      <trkpt lat="39.8957617188004" lon="116.34297209314589">
        <ele>0.0</ele>
        <time>2026-09-10T22:34:56.746000Z</time>
      </trkpt>
      <trkpt lat="39.895453669963516" lon="116.34300805646332">
        <ele>0.0</ele>
        <time>2026-09-10T22:35:08.746000Z</time>
      </trkpt>
      <trkpt lat="39.895346673090664" lon="116.34300906789545">
        <ele>0.0</ele>
        <time>2026-09-10T22:35:14.846000Z</time>
      </trkpt>
      <trkpt lat="39.89518668242536" lon="116.34304059163067">
        <ele>0.0</ele>
        <time>2026-09-10T22:35:20.846000Z</time>
      </trkpt>
      <trkpt lat="39.89488867128402" lon="116.34302209851366">
        <ele>0.0</ele>
        <time>2026-09-10T22:35:32.946000Z</time>
      </trkpt>
      <trkpt lat="39.894602645954436" lon="116.3430440884813">
        <ele>0.0</ele>
        <time>2026-09-10T22:35:45.146000Z</time>
      </trkpt>
      <trkpt lat="39.894330620009264" lon="116.34306607668788">
        <ele>0.0</ele>
        <time>2026-09-10T22:35:57.346000Z</time>
      </trkpt>
      <trkpt lat="39.89405658720252" lon="116.34309205676098">
        <ele>0.0</ele>
        <time>2026-09-10T22:36:09.646000Z</time>
      </trkpt>
      <trkpt lat="39.89391560587463" lon="116.34308508928635">
        <ele>0.0</ele>
        <time>2026-09-10T22:36:15.646000Z</time>
      </trkpt>
      <trkpt lat="39.89375831978319" lon="116.34311514257466">
        <ele>0.0</ele>
        <time>2026-09-10T22:36:21.746000Z</time>
      </trkpt>
      <trkpt lat="39.89344920372589" lon="116.34312163425416">
        <ele>0.0</ele>
        <time>2026-09-10T22:36:33.746000Z</time>
      </trkpt>
      <trkpt lat="39.893161567261075" lon="116.34312709649886">
        <ele>0.0</ele>
        <time>2026-09-10T22:36:45.746000Z</time>
      </trkpt>
      <trkpt lat="39.89288255046794" lon="116.34314409611567">
        <ele>0.0</ele>
        <time>2026-09-10T22:36:57.746000Z</time>
      </trkpt>
      <trkpt lat="39.892583503247515" lon="116.34317906051487">
        <ele>0.0</ele>
        <time>2026-09-10T22:37:09.746000Z</time>
      </trkpt>
      <trkpt lat="39.89228146665837" lon="116.34320803789723">
        <ele>0.0</ele>
        <time>2026-09-10T22:37:21.746000Z</time>
      </trkpt>
      <trkpt lat="39.891952433094005" lon="116.34323602080693">
        <ele>0.0</ele>
        <time>2026-09-10T22:37:36.746000Z</time>
      </trkpt>
      <trkpt lat="39.89165250904631" lon="116.34325976366993">
        <ele>0.0</ele>
        <time>2026-09-10T22:37:48.746000Z</time>
      </trkpt>
      <trkpt lat="39.891348438440495" lon="116.34324906994298">
        <ele>0.0</ele>
        <time>2026-09-10T22:38:00.746000Z</time>
      </trkpt>
      <trkpt lat="39.89106459634363" lon="116.3432483502177">
        <ele>0.0</ele>
        <time>2026-09-10T22:38:12.746000Z</time>
      </trkpt>
      <trkpt lat="39.890773510445364" lon="116.34322319715211">
        <ele>0.0</ele>
        <time>2026-09-10T22:38:24.746000Z</time>
      </trkpt>
      <trkpt lat="39.89048853765225" lon="116.34321524996233">
        <ele>0.0</ele>
        <time>2026-09-10T22:38:36.746000Z</time>
      </trkpt>
      <trkpt lat="39.890215531218786" lon="116.34322626142495">
        <ele>0.0</ele>
        <time>2026-09-10T22:38:48.746000Z</time>
      </trkpt>
      <trkpt lat="39.88999752540721" lon="116.34323157810388">
        <ele>0.0</ele>
        <time>2026-09-10T22:38:57.746000Z</time>
      </trkpt>
      <trkpt lat="39.889689602829165" lon="116.34319938454172">
        <ele>0.0</ele>
        <time>2026-09-10T22:39:09.746000Z</time>
      </trkpt>
      <trkpt lat="39.88940561612227" lon="116.343199420453">
        <ele>0.0</ele>
        <time>2026-09-10T22:39:21.846000Z</time>
      </trkpt>
      <trkpt lat="39.88911864525645" lon="116.34319047561404">
        <ele>0.0</ele>
        <time>2026-09-10T22:39:33.946000Z</time>
      </trkpt>
      <trkpt lat="39.888819659290995" lon="116.34319051342098">
        <ele>0.0</ele>
        <time>2026-09-10T22:39:45.946000Z</time>
      </trkpt>
      <trkpt lat="39.88852469058395" lon="116.34318057169102">
        <ele>0.0</ele>
        <time>2026-09-10T22:39:58.246000Z</time>
      </trkpt>
      <trkpt lat="39.88819652596419" lon="116.34316964329598">
        <ele>0.0</ele>
        <time>2026-09-10T22:40:13.546000Z</time>
      </trkpt>
      <trkpt lat="39.88792673618295" lon="116.3431706682734">
        <ele>0.0</ele>
        <time>2026-09-10T22:40:22.746000Z</time>
      </trkpt>
      <trkpt lat="39.887623783605896" lon="116.3431517464344">
        <ele>0.0</ele>
        <time>2026-09-10T22:40:34.746000Z</time>
      </trkpt>
      <trkpt lat="39.88728979417057" lon="116.34315478237106">
        <ele>0.0</ele>
        <time>2026-09-10T22:40:49.746000Z</time>
      </trkpt>
      <trkpt lat="39.886995795893334" lon="116.34316180486042">
        <ele>0.0</ele>
        <time>2026-09-10T22:41:01.746000Z</time>
      </trkpt>
      <trkpt lat="39.886698806494294" lon="116.34316383821604">
        <ele>0.0</ele>
        <time>2026-09-10T22:41:13.746000Z</time>
      </trkpt>
      <trkpt lat="39.88640182234504" lon="116.34316287786315">
        <ele>0.0</ele>
        <time>2026-09-10T22:41:25.746000Z</time>
      </trkpt>
      <trkpt lat="39.88609585084663" lon="116.34315493332947">
        <ele>0.0</ele>
        <time>2026-09-10T22:41:40.746000Z</time>
      </trkpt>
      <trkpt lat="39.88577386444592" lon="116.34315597194139">
        <ele>0.0</ele>
        <time>2026-09-10T22:41:52.746000Z</time>
      </trkpt>
      <trkpt lat="39.885487874607655" lon="116.34315800390411">
        <ele>0.0</ele>
        <time>2026-09-10T22:42:04.746000Z</time>
      </trkpt>
      <trkpt lat="39.88519388342867" lon="116.34316103478051">
        <ele>0.0</ele>
        <time>2026-09-10T22:42:16.746000Z</time>
      </trkpt>
      <trkpt lat="39.88490786923031" lon="116.34317703738263">
        <ele>0.0</ele>
        <time>2026-09-10T22:42:28.746000Z</time>
      </trkpt>
      <trkpt lat="39.88462188468074" lon="116.34317607563598">
        <ele>0.0</ele>
        <time>2026-09-10T22:42:40.746000Z</time>
      </trkpt>
      <trkpt lat="39.88431790972986" lon="116.34317012664977">
        <ele>0.0</ele>
        <time>2026-09-10T22:42:52.746000Z</time>
      </trkpt>
      <trkpt lat="39.883979901582" lon="116.34318414002117">
        <ele>0.0</ele>
        <time>2026-09-10T22:43:07.746000Z</time>
      </trkpt>
      <trkpt lat="39.883677930067215" lon="116.34317619497396">
        <ele>0.0</ele>
        <time>2026-09-10T22:43:19.846000Z</time>
      </trkpt>
      <trkpt lat="39.88338093219293" lon="116.34318321784058">
        <ele>0.0</ele>
        <time>2026-09-10T22:43:31.946000Z</time>
      </trkpt>
      <trkpt lat="39.8830849726328" lon="116.34316828671324">
        <ele>0.0</ele>
        <time>2026-09-10T22:43:44.146000Z</time>
      </trkpt>
      <trkpt lat="39.882804960036445" lon="116.34318329065371">
        <ele>0.0</ele>
        <time>2026-09-10T22:43:56.446000Z</time>
      </trkpt>
      <trkpt lat="39.88250196948856" lon="116.3431863226654">
        <ele>0.0</ele>
        <time>2026-09-10T22:44:08.646000Z</time>
      </trkpt>
      <trkpt lat="39.8821974524088" lon="116.34318988335816">
        <ele>0.0</ele>
        <time>2026-09-10T22:44:20.646000Z</time>
      </trkpt>
      <trkpt lat="39.88190801053261" lon="116.34317941242861">
        <ele>0.0</ele>
        <time>2026-09-10T22:44:32.646000Z</time>
      </trkpt>
      <trkpt lat="39.88162757365816" lon="116.34319197047053">
        <ele>0.0</ele>
        <time>2026-09-10T22:44:44.646000Z</time>
      </trkpt>
      <trkpt lat="39.88131796435023" lon="116.34322239686064">
        <ele>0.0</ele>
        <time>2026-09-10T22:44:56.646000Z</time>
      </trkpt>
      <trkpt lat="39.88103395731268" lon="116.34323440760856">
        <ele>0.0</ele>
        <time>2026-09-10T22:45:08.646000Z</time>
      </trkpt>
      <trkpt lat="39.880748960797" lon="116.34324043105883">
        <ele>0.0</ele>
        <time>2026-09-10T22:45:20.646000Z</time>
      </trkpt>
      <trkpt lat="39.88044394264333" lon="116.3432594297979">
        <ele>0.0</ele>
        <time>2026-09-10T22:45:32.646000Z</time>
      </trkpt>
      <trkpt lat="39.880159916524626" lon="116.34328241751048">
        <ele>0.0</ele>
        <time>2026-09-10T22:45:44.646000Z</time>
      </trkpt>
      <trkpt lat="39.87986387710093" lon="116.34331338999678">
        <ele>0.0</ele>
        <time>2026-09-10T22:45:56.646000Z</time>
      </trkpt>
      <trkpt lat="39.87956387097552" lon="116.34332540278797">
        <ele>0.0</ele>
        <time>2026-09-10T22:46:08.646000Z</time>
      </trkpt>
      <trkpt lat="39.87927784330558" lon="116.34334938869023">
        <ele>0.0</ele>
        <time>2026-09-10T22:46:20.646000Z</time>
      </trkpt>
      <trkpt lat="39.87898784543801" lon="116.34335641069163">
        <ele>0.0</ele>
        <time>2026-09-10T22:46:32.646000Z</time>
      </trkpt>
      <trkpt lat="39.8786958129023" lon="116.34338339108886">
        <ele>0.0</ele>
        <time>2026-09-10T22:46:44.646000Z</time>
      </trkpt>
      <trkpt lat="39.878393789591236" lon="116.34340538322557">
        <ele>0.0</ele>
        <time>2026-09-10T22:46:56.746000Z</time>
      </trkpt>
      <trkpt lat="39.878114777341644" lon="116.34342038710788">
        <ele>0.0</ele>
        <time>2026-09-10T22:47:08.746000Z</time>
      </trkpt>
      <trkpt lat="39.877822230425814" lon="116.3434374032696">
        <ele>0.0</ele>
        <time>2026-09-10T22:47:20.746000Z</time>
      </trkpt>
      <trkpt lat="39.87753273151489" lon="116.34346337073382">
        <ele>0.0</ele>
        <time>2026-09-10T22:47:32.746000Z</time>
      </trkpt>
      <trkpt lat="39.8772470554998" lon="116.34350271745846">
        <ele>0.0</ele>
        <time>2026-09-10T22:47:44.746000Z</time>
      </trkpt>
      <trkpt lat="39.87717916621186" lon="116.34351350438092">
        <ele>0.0</ele>
        <time>2026-09-10T22:47:47.746000Z</time>
      </trkpt>
      <trkpt lat="39.877114356923244" lon="116.34354139556439">
        <ele>0.0</ele>
        <time>2026-09-10T22:47:50.746000Z</time>
      </trkpt>
      <trkpt lat="39.87677465117463" lon="116.34353132439384">
        <ele>0.0</ele>
        <time>2026-09-10T22:48:05.746000Z</time>
      </trkpt>
      <trkpt lat="39.87648659611829" lon="116.34357127722454">
        <ele>0.0</ele>
        <time>2026-09-10T22:48:17.746000Z</time>
      </trkpt>
      <trkpt lat="39.87615958819542" lon="116.34358528931163">
        <ele>0.0</ele>
        <time>2026-09-10T22:48:32.746000Z</time>
      </trkpt>
      <trkpt lat="39.876002575241" lon="116.34359728409348">
        <ele>0.0</ele>
        <time>2026-09-10T22:48:38.746000Z</time>
      </trkpt>
      <trkpt lat="39.87571950789313" lon="116.34364422173459">
        <ele>0.0</ele>
        <time>2026-09-10T22:48:50.746000Z</time>
      </trkpt>
      <trkpt lat="39.875388522809864" lon="116.34364526148052">
        <ele>0.0</ele>
        <time>2026-09-10T22:49:05.746000Z</time>
      </trkpt>
      <trkpt lat="39.87518459382029" lon="116.34361036032938">
        <ele>0.0</ele>
        <time>2026-09-10T22:49:14.746000Z</time>
      </trkpt>
      <trkpt lat="39.87488156225384" lon="116.3436373422549">
        <ele>0.0</ele>
        <time>2026-09-10T22:49:26.746000Z</time>
      </trkpt>
      <trkpt lat="39.8745995425244" lon="116.34365619504568">
        <ele>0.0</ele>
        <time>2026-09-10T22:49:38.746000Z</time>
      </trkpt>
      <trkpt lat="39.87430795040545" lon="116.3436760880248">
        <ele>0.0</ele>
        <time>2026-09-10T22:49:50.746000Z</time>
      </trkpt>
      <trkpt lat="39.87399805996663" lon="116.34369683041315">
        <ele>0.0</ele>
        <time>2026-09-10T22:50:02.746000Z</time>
      </trkpt>
      <trkpt lat="39.87370112299409" lon="116.34372921622446">
        <ele>0.0</ele>
        <time>2026-09-10T22:50:14.746000Z</time>
      </trkpt>
      <trkpt lat="39.87341404686482" lon="116.34375571453666">
        <ele>0.0</ele>
        <time>2026-09-10T22:50:26.746000Z</time>
      </trkpt>
      <trkpt lat="39.873123496858405" lon="116.34377464278757">
        <ele>0.0</ele>
        <time>2026-09-10T22:50:38.746000Z</time>
      </trkpt>
      <trkpt lat="39.87281307075202" lon="116.34379632066205">
        <ele>0.0</ele>
        <time>2026-09-10T22:50:50.746000Z</time>
      </trkpt>
      <trkpt lat="39.8724922080274" lon="116.34383944682338">
        <ele>0.0</ele>
        <time>2026-09-10T22:51:02.746000Z</time>
      </trkpt>
      <trkpt lat="39.87219793886789" lon="116.3438897698782">
        <ele>0.0</ele>
        <time>2026-09-10T22:51:14.746000Z</time>
      </trkpt>
      <trkpt lat="39.87200125655401" lon="116.34389816211099">
        <ele>0.0</ele>
        <time>2026-09-10T22:51:23.746000Z</time>
      </trkpt>
      <trkpt lat="39.87187515748354" lon="116.34395905107168">
        <ele>0.0</ele>
        <time>2026-09-10T22:51:29.746000Z</time>
      </trkpt>
      <trkpt lat="39.87179417893943" lon="116.34394908211611">
        <ele>0.0</ele>
        <time>2026-09-10T22:51:35.746000Z</time>
      </trkpt>
      <trkpt lat="39.87152012730427" lon="116.34398703768234">
        <ele>0.0</ele>
        <time>2026-09-10T22:51:47.846000Z</time>
      </trkpt>
      <trkpt lat="39.87121190176579" lon="116.34401082582983">
        <ele>0.0</ele>
        <time>2026-09-10T22:51:59.946000Z</time>
      </trkpt>
      <trkpt lat="39.87103597328579" lon="116.34403052595259">
        <ele>0.0</ele>
        <time>2026-09-10T22:52:12.246000Z</time>
      </trkpt>
      <trkpt lat="39.87077027082372" lon="116.3440581338432">
        <ele>0.0</ele>
        <time>2026-09-10T22:52:24.346000Z</time>
      </trkpt>
      <trkpt lat="39.87052647731356" lon="116.3440746472861">
        <ele>0.0</ele>
        <time>2026-09-10T22:52:33.546000Z</time>
      </trkpt>
      <trkpt lat="39.87024226917739" lon="116.34410108405372">
        <ele>0.0</ele>
        <time>2026-09-10T22:52:45.646000Z</time>
      </trkpt>
      <trkpt lat="39.8699568288601" lon="116.34414242499967">
        <ele>0.0</ele>
        <time>2026-09-10T22:52:57.646000Z</time>
      </trkpt>
      <trkpt lat="39.869673757329274" lon="116.3441912614879">
        <ele>0.0</ele>
        <time>2026-09-10T22:53:09.646000Z</time>
      </trkpt>
      <trkpt lat="39.869427602081736" lon="116.34423279521086">
        <ele>0.0</ele>
        <time>2026-09-10T22:53:18.646000Z</time>
      </trkpt>
      <trkpt lat="39.86914535685214" lon="116.34425595317022">
        <ele>0.0</ele>
        <time>2026-09-10T22:53:30.646000Z</time>
      </trkpt>
      <trkpt lat="39.86885708791925" lon="116.34428041623158">
        <ele>0.0</ele>
        <time>2026-09-10T22:53:42.646000Z</time>
      </trkpt>
      <trkpt lat="39.8683116655604" lon="116.34435068730649">
        <ele>0.0</ele>
        <time>2026-09-10T22:53:57.646000Z</time>
      </trkpt>
      <trkpt lat="39.868262656067905" lon="116.34435767899194">
        <ele>0.0</ele>
        <time>2026-09-10T22:54:00.646000Z</time>
      </trkpt>
      <trkpt lat="39.868432858639444" lon="116.344383543724">
        <ele>0.0</ele>
        <time>2026-09-10T22:54:09.646000Z</time>
      </trkpt>
      <trkpt lat="39.868731626361395" lon="116.34436061350881">
        <ele>0.0</ele>
        <time>2026-09-10T22:54:18.646000Z</time>
      </trkpt>
      <trkpt lat="39.86901168238551" lon="116.34431966310483">
        <ele>0.0</ele>
        <time>2026-09-10T22:54:30.646000Z</time>
      </trkpt>
      <trkpt lat="39.86928774384267" lon="116.34427571946395">
        <ele>0.0</ele>
        <time>2026-09-10T22:54:42.646000Z</time>
      </trkpt>
      <trkpt lat="39.86958376119918" lon="116.34425672146904">
        <ele>0.0</ele>
        <time>2026-09-10T22:54:54.646000Z</time>
      </trkpt>
      <trkpt lat="39.869863788042416" lon="116.344232735878">
        <ele>0.0</ele>
        <time>2026-09-10T22:55:06.646000Z</time>
      </trkpt>
      <trkpt lat="39.87014884399168" lon="116.34419178495305">
        <ele>0.0</ele>
        <time>2026-09-10T22:55:18.746000Z</time>
      </trkpt>
      <trkpt lat="39.87044790962724" lon="116.34414484475482">
        <ele>0.0</ele>
        <time>2026-09-10T22:55:30.746000Z</time>
      </trkpt>
      <trkpt lat="39.870725945325084" lon="116.34411586985983">
        <ele>0.0</ele>
        <time>2026-09-10T22:55:42.746000Z</time>
      </trkpt>
      <trkpt lat="39.87100998420513" lon="116.3440848983803">
        <ele>0.0</ele>
        <time>2026-09-10T22:55:54.746000Z</time>
      </trkpt>
      <trkpt lat="39.87130300192727" lon="116.34406590084022">
        <ele>0.0</ele>
        <time>2026-09-10T22:56:06.746000Z</time>
      </trkpt>
      <trkpt lat="39.87160605373114" lon="116.34402694362564">
        <ele>0.0</ele>
        <time>2026-09-10T22:56:18.746000Z</time>
      </trkpt>
      <trkpt lat="39.87198010713135" lon="116.34398498371066">
        <ele>0.0</ele>
        <time>2026-09-10T22:56:36.746000Z</time>
      </trkpt>
      <trkpt lat="39.87229117939733" lon="116.34393405052444">
        <ele>0.0</ele>
        <time>2026-09-10T22:56:48.746000Z</time>
      </trkpt>
      <trkpt lat="39.87256223647273" lon="116.34389310162537">
        <ele>0.0</ele>
        <time>2026-09-10T22:57:00.746000Z</time>
      </trkpt>
      <trkpt lat="39.872846280814386" lon="116.34385913653816">
        <ele>0.0</ele>
        <time>2026-09-10T22:57:12.746000Z</time>
      </trkpt>
      <trkpt lat="39.873139293568755" lon="116.34384313283749">
        <ele>0.0</ele>
        <time>2026-09-10T22:57:24.746000Z</time>
      </trkpt>
      <trkpt lat="39.873425725807344" lon="116.34381371060104">
        <ele>0.0</ele>
        <time>2026-09-10T22:57:36.746000Z</time>
      </trkpt>
      <trkpt lat="39.87373134830655" lon="116.34379416012113">
        <ele>0.0</ele>
        <time>2026-09-10T22:57:48.746000Z</time>
      </trkpt>
      <trkpt lat="39.87402636278264" lon="116.3437771582732">
        <ele>0.0</ele>
        <time>2026-09-10T22:58:00.746000Z</time>
      </trkpt>
      <trkpt lat="39.87431441923884" lon="116.3437362073589">
        <ele>0.0</ele>
        <time>2026-09-10T22:58:12.846000Z</time>
      </trkpt>
      <trkpt lat="39.87460342888199" lon="116.34372220003223">
        <ele>0.0</ele>
        <time>2026-09-10T22:58:24.946000Z</time>
      </trkpt>
      <trkpt lat="39.87489446099224" lon="116.34369521957592">
        <ele>0.0</ele>
        <time>2026-09-10T22:58:37.146000Z</time>
      </trkpt>
      <trkpt lat="39.875177484868985" lon="116.34367322971185">
        <ele>0.0</ele>
        <time>2026-09-10T22:58:49.246000Z</time>
      </trkpt>
      <trkpt lat="39.875321503631454" lon="116.34365824281541">
        <ele>0.0</ele>
        <time>2026-09-10T22:58:55.446000Z</time>
      </trkpt>
      <trkpt lat="39.87546742690542" lon="116.34369814089932">
        <ele>0.0</ele>
        <time>2026-09-10T22:59:01.546000Z</time>
      </trkpt>
      <trkpt lat="39.87575342986315" lon="116.34368812561587">
        <ele>0.0</ele>
        <time>2026-09-10T22:59:13.646000Z</time>
      </trkpt>
      <trkpt lat="39.876025457830224" lon="116.34366414131829">
        <ele>0.0</ele>
        <time>2026-09-10T22:59:25.746000Z</time>
      </trkpt>
      <trkpt lat="39.87634147668291" lon="116.3436441431219">
        <ele>0.0</ele>
        <time>2026-09-10T22:59:43.746000Z</time>
      </trkpt>
      <trkpt lat="39.876604439590395" lon="116.3436506154535">
        <ele>0.0</ele>
        <time>2026-09-10T22:59:52.746000Z</time>
      </trkpt>
      <trkpt lat="39.87690750910718" lon="116.34360914465438">
        <ele>0.0</ele>
        <time>2026-09-10T23:00:04.746000Z</time>
      </trkpt>
      <trkpt lat="39.8771844831358" lon="116.34361609502801">
        <ele>0.0</ele>
        <time>2026-09-10T23:00:16.846000Z</time>
      </trkpt>
      <trkpt lat="39.87724555126084" lon="116.3435751729399">
        <ele>0.0</ele>
        <time>2026-09-10T23:00:19.846000Z</time>
      </trkpt>
      <trkpt lat="39.8775385974407" lon="116.34354020902605">
        <ele>0.0</ele>
        <time>2026-09-10T23:00:31.846000Z</time>
      </trkpt>
      <trkpt lat="39.877829631602864" lon="116.34351223075917">
        <ele>0.0</ele>
        <time>2026-09-10T23:00:43.946000Z</time>
      </trkpt>
      <trkpt lat="39.878113640085346" lon="116.34349922203585">
        <ele>0.0</ele>
        <time>2026-09-10T23:00:56.146000Z</time>
      </trkpt>
      <trkpt lat="39.87838866641484" lon="116.34347623536023">
        <ele>0.0</ele>
        <time>2026-09-10T23:01:08.446000Z</time>
      </trkpt>
      <trkpt lat="39.87868769853869" lon="116.34344925402702">
        <ele>0.0</ele>
        <time>2026-09-10T23:01:20.646000Z</time>
      </trkpt>
      <trkpt lat="39.87900375246295" lon="116.34340929775625">
        <ele>0.0</ele>
        <time>2026-09-10T23:01:32.746000Z</time>
      </trkpt>
      <trkpt lat="39.87929275211387" lon="116.34340127796561">
        <ele>0.0</ele>
        <time>2026-09-10T23:01:44.746000Z</time>
      </trkpt>
      <trkpt lat="39.87959779100514" lon="116.34337030428651">
        <ele>0.0</ele>
        <time>2026-09-10T23:01:56.746000Z</time>
      </trkpt>
      <trkpt lat="39.87988681332326" lon="116.3433493117142">
        <ele>0.0</ele>
        <time>2026-09-10T23:02:08.846000Z</time>
      </trkpt>
      <trkpt lat="39.88016582049962" lon="116.34333730157098">
        <ele>0.0</ele>
        <time>2026-09-10T23:02:20.846000Z</time>
      </trkpt>
      <trkpt lat="39.88045484983368" lon="116.34331231738884">
        <ele>0.0</ele>
        <time>2026-09-10T23:02:33.046000Z</time>
      </trkpt>
      <trkpt lat="39.88073486745393" lon="116.34329431969462">
        <ele>0.0</ele>
        <time>2026-09-10T23:02:45.146000Z</time>
      </trkpt>
      <trkpt lat="39.88101789191766" lon="116.34327233000731">
        <ele>0.0</ele>
        <time>2026-09-10T23:02:57.346000Z</time>
      </trkpt>
      <trkpt lat="39.88129791481472" lon="116.34325133861344">
        <ele>0.0</ele>
        <time>2026-09-10T23:03:09.646000Z</time>
      </trkpt>
      <trkpt lat="39.881605880643455" lon="116.3432622766324">
        <ele>0.0</ele>
        <time>2026-09-10T23:03:21.646000Z</time>
      </trkpt>
      <trkpt lat="39.88188383925177" lon="116.34327820797058">
        <ele>0.0</ele>
        <time>2026-09-10T23:03:33.646000Z</time>
      </trkpt>
      <trkpt lat="39.882154836525785" lon="116.34327218628356">
        <ele>0.0</ele>
        <time>2026-09-10T23:03:45.646000Z</time>
      </trkpt>
      <trkpt lat="39.882440862695454" lon="116.34324919832113">
        <ele>0.0</ele>
        <time>2026-09-10T23:03:57.646000Z</time>
      </trkpt>
      <trkpt lat="39.882727847044116" lon="116.34325015994571">
        <ele>0.0</ele>
        <time>2026-09-10T23:04:09.746000Z</time>
      </trkpt>
      <trkpt lat="39.88300885086132" lon="116.3432401453796">
        <ele>0.0</ele>
        <time>2026-09-10T23:04:21.746000Z</time>
      </trkpt>
      <trkpt lat="39.883298871684815" lon="116.34322015063742">
        <ele>0.0</ele>
        <time>2026-09-10T23:04:33.746000Z</time>
      </trkpt>
      <trkpt lat="39.88358783161103" lon="116.34323508266428">
        <ele>0.0</ele>
        <time>2026-09-10T23:04:45.746000Z</time>
      </trkpt>
      <trkpt lat="39.8838728265884" lon="116.34323005711477">
        <ele>0.0</ele>
        <time>2026-09-10T23:04:57.746000Z</time>
      </trkpt>
      <trkpt lat="39.8841598180061" lon="116.34322702712056">
        <ele>0.0</ele>
        <time>2026-09-10T23:05:09.746000Z</time>
      </trkpt>
      <trkpt lat="39.8844367959889" lon="116.3432319816226">
        <ele>0.0</ele>
        <time>2026-09-10T23:05:21.746000Z</time>
      </trkpt>
      <trkpt lat="39.8847327887565" lon="116.34322795258556">
        <ele>0.0</ele>
        <time>2026-09-10T23:05:33.746000Z</time>
      </trkpt>
      <trkpt lat="39.885007761648325" lon="116.34323590105198">
        <ele>0.0</ele>
        <time>2026-09-10T23:05:45.746000Z</time>
      </trkpt>
      <trkpt lat="39.88529773210084" lon="116.34324484552708">
        <ele>0.0</ele>
        <time>2026-09-10T23:05:57.846000Z</time>
      </trkpt>
      <trkpt lat="39.8855677192036" lon="116.34324481139188">
        <ele>0.0</ele>
        <time>2026-09-10T23:06:09.946000Z</time>
      </trkpt>
      <trkpt lat="39.885878721786696" lon="116.34323479303042">
        <ele>0.0</ele>
        <time>2026-09-10T23:06:22.046000Z</time>
      </trkpt>
      <trkpt lat="39.88616670632855" lon="116.34323575452281">
        <ele>0.0</ele>
        <time>2026-09-10T23:06:34.146000Z</time>
      </trkpt>
      <trkpt lat="39.88644072221257" lon="116.34324027521714">
        <ele>0.0</ele>
        <time>2026-09-10T23:06:46.446000Z</time>
      </trkpt>
      <trkpt lat="39.886768670754215" lon="116.34323967002729">
        <ele>0.0</ele>
        <time>2026-09-10T23:06:58.646000Z</time>
      </trkpt>
      <trkpt lat="39.887061677763434" lon="116.34322765813307">
        <ele>0.0</ele>
        <time>2026-09-10T23:07:10.646000Z</time>
      </trkpt>
      <trkpt lat="39.887340695910574" lon="116.34320966058975">
        <ele>0.0</ele>
        <time>2026-09-10T23:07:22.646000Z</time>
      </trkpt>
      <trkpt lat="39.887631682151834" lon="116.34320962379658">
        <ele>0.0</ele>
        <time>2026-09-10T23:07:34.646000Z</time>
      </trkpt>
      <trkpt lat="39.887924661349764" lon="116.34321357836448">
        <ele>0.0</ele>
        <time>2026-09-10T23:07:46.646000Z</time>
      </trkpt>
      <trkpt lat="39.88820862183002" lon="116.34322851101217">
        <ele>0.0</ele>
        <time>2026-09-10T23:08:01.646000Z</time>
      </trkpt>
      <trkpt lat="39.88850663633958" lon="116.34322005784071">
        <ele>0.0</ele>
        <time>2026-09-10T23:08:13.746000Z</time>
      </trkpt>
      <trkpt lat="39.888837564373254" lon="116.34324439794446">
        <ele>0.0</ele>
        <time>2026-09-10T23:08:25.746000Z</time>
      </trkpt>
      <trkpt lat="39.88917353815528" lon="116.34325034288412">
        <ele>0.0</ele>
        <time>2026-09-10T23:08:40.846000Z</time>
      </trkpt>
      <trkpt lat="39.889463500186444" lon="116.34326427687668">
        <ele>0.0</ele>
        <time>2026-09-10T23:08:52.846000Z</time>
      </trkpt>
      <trkpt lat="39.8897605054445" lon="116.34325326237143">
        <ele>0.0</ele>
        <time>2026-09-10T23:09:04.946000Z</time>
      </trkpt>
      <trkpt lat="39.890044464312574" lon="116.34326919293167">
        <ele>0.0</ele>
        <time>2026-09-10T23:09:17.046000Z</time>
      </trkpt>
      <trkpt lat="39.89037984511009" lon="116.34327299372956">
        <ele>0.0</ele>
        <time>2026-09-10T23:09:32.446000Z</time>
      </trkpt>
      <trkpt lat="39.890685383939086" lon="116.34329805111805">
        <ele>0.0</ele>
        <time>2026-09-10T23:09:44.646000Z</time>
      </trkpt>
      <trkpt lat="39.890979372003414" lon="116.34329701603403">
        <ele>0.0</ele>
        <time>2026-09-10T23:09:56.646000Z</time>
      </trkpt>
      <trkpt lat="39.89125233321162" lon="116.34331195009098">
        <ele>0.0</ele>
        <time>2026-09-10T23:10:08.646000Z</time>
      </trkpt>
      <trkpt lat="39.89154231453608" lon="116.34331490713362">
        <ele>0.0</ele>
        <time>2026-09-10T23:10:20.646000Z</time>
      </trkpt>
      <trkpt lat="39.89182333458877" lon="116.34329591139529">
        <ele>0.0</ele>
        <time>2026-09-10T23:10:32.646000Z</time>
      </trkpt>
      <trkpt lat="39.89217637397166" lon="116.34326393379807">
        <ele>0.0</ele>
        <time>2026-09-10T23:10:47.746000Z</time>
      </trkpt>
      <trkpt lat="39.89231737616311" lon="116.34325892644411">
        <ele>0.0</ele>
        <time>2026-09-10T23:10:53.746000Z</time>
      </trkpt>
      <trkpt lat="39.89286285322489" lon="116.3429714618764">
        <ele>0.0</ele>
        <time>2026-09-10T23:12:26.946000Z</time>
      </trkpt>
      <trkpt lat="39.89289000745177" lon="116.34288264555704">
        <ele>0.0</ele>
        <time>2026-09-10T23:12:29.946000Z</time>
      </trkpt>
      <trkpt lat="39.89293712066324" lon="116.34281677845877">
        <ele>0.0</ele>
        <time>2026-09-10T23:12:32.946000Z</time>
      </trkpt>
      <trkpt lat="39.89300217013719" lon="116.34278683337891">
        <ele>0.0</ele>
        <time>2026-09-10T23:12:35.946000Z</time>
      </trkpt>
      <trkpt lat="39.893237106855445" lon="116.34281674052207">
        <ele>0.0</ele>
        <time>2026-09-10T23:12:45.046000Z</time>
      </trkpt>
      <trkpt lat="39.893399144878046" lon="116.34279077475642">
        <ele>0.0</ele>
        <time>2026-09-10T23:12:51.146000Z</time>
      </trkpt>
      <trkpt lat="39.89349678181754" lon="116.34267698937622">
        <ele>0.0</ele>
        <time>2026-09-10T23:13:00.346000Z</time>
      </trkpt>
      <trkpt lat="39.89341839078748" lon="116.34265006933643">
        <ele>0.0</ele>
        <time>2026-09-10T23:13:03.346000Z</time>
      </trkpt>
      <trkpt lat="39.89300825033914" lon="116.34274092946858">
        <ele>0.0</ele>
        <time>2026-09-10T23:13:09.446000Z</time>
      </trkpt>
      <trkpt lat="39.893274600889534" lon="116.34196653589727">
        <ele>0.0</ele>
        <time>2026-09-10T23:13:36.546000Z</time>
      </trkpt>
      <trkpt lat="39.89334173354864" lon="116.34188969077536">
        <ele>0.0</ele>
        <time>2026-09-10T23:13:39.546000Z</time>
      </trkpt>
      <trkpt lat="39.893512588188756" lon="116.34196750368618">
        <ele>0.0</ele>
        <time>2026-09-10T23:13:48.646000Z</time>
      </trkpt>
      <trkpt lat="39.893422527131705" lon="116.3420044366127">
        <ele>0.0</ele>
        <time>2026-09-10T23:13:51.646000Z</time>
      </trkpt>
      <trkpt lat="39.89324253188361" lon="116.34200645513039">
        <ele>0.0</ele>
        <time>2026-09-10T23:13:57.646000Z</time>
      </trkpt>
      <trkpt lat="39.89315859388992" lon="116.34197353571871">
        <ele>0.0</ele>
        <time>2026-09-10T23:14:00.646000Z</time>
      </trkpt>
      <trkpt lat="39.89282059183308" lon="116.34198355724692">
        <ele>0.0</ele>
        <time>2026-09-10T23:14:12.646000Z</time>
      </trkpt>
      <trkpt lat="39.892738590326736" lon="116.34198656125298">
        <ele>0.0</ele>
        <time>2026-09-10T23:14:15.646000Z</time>
      </trkpt>
      <trkpt lat="39.89268368450456" lon="116.34193467848729">
        <ele>0.0</ele>
        <time>2026-09-10T23:14:18.646000Z</time>
      </trkpt>
      <trkpt lat="39.892671871997045" lon="116.34182890496407">
        <ele>0.0</ele>
        <time>2026-09-10T23:14:21.646000Z</time>
      </trkpt>
      <trkpt lat="39.89269303341912" lon="116.34173709772676">
        <ele>0.0</ele>
        <time>2026-09-10T23:14:24.646000Z</time>
      </trkpt>
      <trkpt lat="39.89265912683079" lon="116.34168521254772">
        <ele>0.0</ele>
        <time>2026-09-10T23:14:27.646000Z</time>
      </trkpt>
      <trkpt lat="39.89231610909881" lon="116.34170421551957">
        <ele>0.0</ele>
        <time>2026-09-10T23:14:39.746000Z</time>
      </trkpt>
      <trkpt lat="39.892023032579466" lon="116.3417551441804">
        <ele>0.0</ele>
        <time>2026-09-10T23:14:51.746000Z</time>
      </trkpt>
      <trkpt lat="39.89174303318124" lon="116.34176216470492">
        <ele>0.0</ele>
        <time>2026-09-10T23:15:03.746000Z</time>
      </trkpt>
      <trkpt lat="39.891446972766" lon="116.34180411291267">
        <ele>0.0</ele>
        <time>2026-09-10T23:15:15.746000Z</time>
      </trkpt>
      <trkpt lat="39.89115891555412" lon="116.341844064388">
        <ele>0.0</ele>
        <time>2026-09-10T23:15:27.846000Z</time>
      </trkpt>
      <trkpt lat="39.89088282255956" lon="116.3419039719368">
        <ele>0.0</ele>
        <time>2026-09-10T23:15:39.846000Z</time>
      </trkpt>
      <trkpt lat="39.89081481338029" lon="116.3419109656809">
        <ele>0.0</ele>
        <time>2026-09-10T23:15:42.946000Z</time>
      </trkpt>
      <trkpt lat="39.89075193800425" lon="116.34184212008383">
        <ele>0.0</ele>
        <time>2026-09-10T23:15:45.946000Z</time>
      </trkpt>
      <trkpt lat="39.89071116762286" lon="116.34171339928103">
        <ele>0.0</ele>
        <time>2026-09-10T23:15:48.946000Z</time>
      </trkpt>
      <trkpt lat="39.89073193289084" lon="116.34128131874404">
        <ele>0.0</ele>
        <time>2026-09-10T23:16:01.146000Z</time>
      </trkpt>
      <trkpt lat="39.89074631196444" lon="116.34106777390237">
        <ele>0.0</ele>
        <time>2026-09-10T23:16:07.246000Z</time>
      </trkpt>
      <trkpt lat="39.890680825366836" lon="116.34078139632074">
        <ele>0.0</ele>
        <time>2026-09-10T23:16:16.346000Z</time>
      </trkpt>
      <trkpt lat="39.890643923245875" lon="116.34072751669967">
        <ele>0.0</ele>
        <time>2026-09-10T23:16:19.346000Z</time>
      </trkpt>
    </trkseg>
  </trk>
</gpx>