<?xml version="1.0" encoding="UTF-8"?>
<gpx xmlns="http://www.topografix.com/GPX/1/1" xmlns:gpxtpx="http://www.garmin.com/xmlschemas/TrackPointExtension/v1" xmlns:xsi="http://www.w3.org/2001/XMLSchema-instance" xsi:schemaLocation="http://www.topografix.com/GPX/1/1 http://www.topografix.com/GPX/1/1/gpx.xsd" version="1.1" creator="gpx.py -- https://github.com/tkrajina/gpxpy">
  <trk>
    <name>gpx from keep</name>
    <type>Run</type>
    <trkseg>
      <trkpt lat="39.895752875975234" lon="116.34345507941518">
        <ele>0.0</ele>
        <time>2026-08-26T09:34:24.004000Z</time>
      </trkpt>
      <trkpt lat="39.89601687788461" lon="116.34344706275593">
        <ele>0.0</ele>
        <time>2026-08-26T09:34:36.104000Z</time>
      </trkpt>
      <trkpt lat="39.89615781239316" lon="116.34348097380753">
        <ele>0.0</ele>
        <time>2026-08-26T09:34:42.204000Z</time>
      </trkpt>
      <trkpt lat="39.89642481070934" lon="116.34347495258116">
        <ele>0.0</ele>
        <time>2026-08-26T09:34:54.404000Z</time>
      </trkpt>
      <trkpt lat="39.89657395868517" lon="116.34338611994328">
        <ele>0.0</ele>
        <time>2026-08-26T09:35:00.404000Z</time>
      </trkpt>
      <trkpt lat="39.89666112004954" lon="116.34329130787795">
        <ele>0.0</ele>
        <time>2026-08-26T09:35:03.404000Z</time>
      </trkpt>
      <trkpt lat="39.8967505185962" lon="116.34306078111089">
        <ele>0.0</ele>
        <time>2026-08-26T09:35:06.404000Z</time>
      </trkpt>
      <trkpt lat="39.896830637142244" lon="116.34299091801692">
        <ele>0.0</ele>
        <time>2026-08-26T09:35:09.404000Z</time>
      </trkpt>
      <trkpt lat="39.89678574220983" lon="116.34293204770455">
        <ele>0.0</ele>
        <time>2026-08-26T09:35:12.504000Z</time>
      </trkpt>
      <trkpt lat="39.896731753388025" lon="116.34292706504573">
        <ele>0.0</ele>
        <time>2026-08-26T09:35:15.604000Z</time>
      </trkpt>
      <trkpt lat="39.8966186956282" lon="116.34296300366782">
        <ele>0.0</ele>
        <time>2026-08-26T09:35:18.604000Z</time>
      </trkpt>
      <trkpt lat="39.89642078319816" lon="116.34291812330203">
        <ele>0.0</ele>
        <time>2026-08-26T09:35:21.604000Z</time>
      </trkpt>
      <trkpt lat="39.89621281033584" lon="116.3431461959317">
        <ele>0.0</ele>
        <time>2026-08-26T09:35:27.604000Z</time>
      </trkpt>
      <trkpt lat="39.896112537625605" lon="116.34323231726218">
        <ele>0.0</ele>
        <time>2026-08-26T09:35:30.704000Z</time>
      </trkpt>
      <trkpt lat="39.89591003313745" lon="116.34324864506847">
        <ele>0.0</ele>
        <time>2026-08-26T09:35:36.704000Z</time>
      </trkpt>
      <trkpt lat="39.89584257245609" lon="116.3433733916084">
        <ele>0.0</ele>
        <time>2026-08-26T09:35:39.704000Z</time>
      </trkpt>
      <trkpt lat="39.8957639589233" lon="116.34340717844991">
        <ele>0.0</ele>
        <time>2026-08-26T09:35:42.704000Z</time>
      </trkpt>
      <trkpt lat="39.89546195179718" lon="116.34341919153867">
        <ele>0.0</ele>
        <time>2026-08-26T09:35:54.704000Z</time>
      </trkpt>
      <trkpt lat="39.895174945747" lon="116.34343020482494">
        <ele>0.0</ele>
        <time>2026-08-26T09:36:06.704000Z</time>
      </trkpt>
      <trkpt lat="39.894835935136555" lon="116.34344521632289">
        <ele>0.0</ele>
        <time>2026-08-26T09:36:21.704000Z</time>
      </trkpt>
      <trkpt lat="39.89469294166753" lon="116.34344523441025">
        <ele>0.0</ele>
        <time>2026-08-26T09:36:27.704000Z</time>
      </trkpt>
      <trkpt lat="39.89455894779133" lon="116.34344525135914">
        <ele>0.0</ele>
        <time>2026-08-26T09:36:33.704000Z</time>
      </trkpt>
      <trkpt lat="39.89433988655281" lon="116.34348619330869">
        <ele>0.0</ele>
        <time>2026-08-26T09:36:42.704000Z</time>
      </trkpt>
      <trkpt lat="39.89406188538212" lon="116.34349421174329">
        <ele>0.0</ele>
        <time>2026-08-26T09:36:54.704000Z</time>
      </trkpt>
      <trkpt lat="39.8937878597246" lon="116.34351620040495">
        <ele>0.0</ele>
        <time>2026-08-26T09:37:06.704000Z</time>
      </trkpt>
      <trkpt lat="39.89351184460355" lon="116.34353220186954">
        <ele>0.0</ele>
        <time>2026-08-26T09:37:18.704000Z</time>
      </trkpt>
      <trkpt lat="39.89317385145805" lon="116.34353723416953">
        <ele>0.0</ele>
        <time>2026-08-26T09:37:33.704000Z</time>
      </trkpt>
      <trkpt lat="39.89289980676942" lon="116.34357019986636">
        <ele>0.0</ele>
        <time>2026-08-26T09:37:45.704000Z</time>
      </trkpt>
      <trkpt lat="39.89261876590943" lon="116.34360117064811">
        <ele>0.0</ele>
        <time>2026-08-26T09:37:57.704000Z</time>
      </trkpt>
      <trkpt lat="39.892336778925845" lon="116.34360120631467">
        <ele>0.0</ele>
        <time>2026-08-26T09:38:09.804000Z</time>
      </trkpt>
      <trkpt lat="39.89206174651468" lon="116.3436271867974">
        <ele>0.0</ele>
        <time>2026-08-26T09:38:21.804000Z</time>
      </trkpt>
      <trkpt lat="39.89178471595879" lon="116.34365216963447">
        <ele>0.0</ele>
        <time>2026-08-26T09:38:33.904000Z</time>
      </trkpt>
      <trkpt lat="39.89150572541785" lon="116.3436542007456">
        <ele>0.0</ele>
        <time>2026-08-26T09:38:46.104000Z</time>
      </trkpt>
      <trkpt lat="39.891299767938" lon="116.34363526646612">
        <ele>0.0</ele>
        <time>2026-08-26T09:38:55.204000Z</time>
      </trkpt>
      <trkpt lat="39.89101976185809" lon="116.34364627891202">
        <ele>0.0</ele>
        <time>2026-08-26T09:39:07.504000Z</time>
      </trkpt>
      <trkpt lat="39.890723805120494" lon="116.34362935184078">
        <ele>0.0</ele>
        <time>2026-08-26T09:39:19.604000Z</time>
      </trkpt>
      <trkpt lat="39.89040379573478" lon="116.34364336307992">
        <ele>0.0</ele>
        <time>2026-08-26T09:39:34.604000Z</time>
      </trkpt>
      <trkpt lat="39.89004381426529" lon="116.34364241069541">
        <ele>0.0</ele>
        <time>2026-08-26T09:39:49.604000Z</time>
      </trkpt>
      <trkpt lat="39.88975087654183" lon="116.34361450621422">
        <ele>0.0</ele>
        <time>2026-08-26T09:40:01.604000Z</time>
      </trkpt>
      <trkpt lat="39.88947887885688" lon="116.34362052808233">
        <ele>0.0</ele>
        <time>2026-08-26T09:40:13.604000Z</time>
      </trkpt>
      <trkpt lat="39.889207914114714" lon="116.34360758950108">
        <ele>0.0</ele>
        <time>2026-08-26T09:40:25.604000Z</time>
      </trkpt>
      <trkpt lat="39.88892195356788" lon="116.34359265699692">
        <ele>0.0</ele>
        <time>2026-08-26T09:40:37.604000Z</time>
      </trkpt>
      <trkpt lat="39.88858895185753" lon="116.3436026782206">
        <ele>0.0</ele>
        <time>2026-08-26T09:40:52.604000Z</time>
      </trkpt>
      <trkpt lat="39.88827998028495" lon="116.34359473400384">
        <ele>0.0</ele>
        <time>2026-08-26T09:41:07.604000Z</time>
      </trkpt>
      <trkpt lat="39.888110963948556" lon="116.34360872613505">
        <ele>0.0</ele>
        <time>2026-08-26T09:41:16.604000Z</time>
      </trkpt>
      <trkpt lat="39.88785062157794" lon="116.34357413452022">
        <ele>0.0</ele>
        <time>2026-08-26T09:41:25.604000Z</time>
      </trkpt>
      <trkpt lat="39.88755102162313" lon="116.34359083454181">
        <ele>0.0</ele>
        <time>2026-08-26T09:41:37.604000Z</time>
      </trkpt>
      <trkpt lat="39.887272022668995" lon="116.34359785520041">
        <ele>0.0</ele>
        <time>2026-08-26T09:41:49.604000Z</time>
      </trkpt>
      <trkpt lat="39.88699903212771" lon="116.34359988554343">
        <ele>0.0</ele>
        <time>2026-08-26T09:42:01.704000Z</time>
      </trkpt>
      <trkpt lat="39.88664406632543" lon="116.34358995131787">
        <ele>0.0</ele>
        <time>2026-08-26T09:42:16.704000Z</time>
      </trkpt>
      <trkpt lat="39.88635410093559" lon="116.34357801305254">
        <ele>0.0</ele>
        <time>2026-08-26T09:42:28.804000Z</time>
      </trkpt>
      <trkpt lat="39.88618206572134" lon="116.34360298258304">
        <ele>0.0</ele>
        <time>2026-08-26T09:42:37.804000Z</time>
      </trkpt>
      <trkpt lat="39.885892205097015" lon="116.34359048047736">
        <ele>0.0</ele>
        <time>2026-08-26T09:42:50.004000Z</time>
      </trkpt>
      <trkpt lat="39.885600168105675" lon="116.34356014599261">
        <ele>0.0</ele>
        <time>2026-08-26T09:43:02.304000Z</time>
      </trkpt>
      <trkpt lat="39.88526115131145" lon="116.34357914916178">
        <ele>0.0</ele>
        <time>2026-08-26T09:43:17.504000Z</time>
      </trkpt>
      <trkpt lat="39.88496714975411" lon="116.34358816753458">
        <ele>0.0</ele>
        <time>2026-08-26T09:43:29.704000Z</time>
      </trkpt>
      <trkpt lat="39.88468217903331" lon="116.34357922236747">
        <ele>0.0</ele>
        <time>2026-08-26T09:43:41.704000Z</time>
      </trkpt>
      <trkpt lat="39.88434918980582" lon="116.34358225820283">
        <ele>0.0</ele>
        <time>2026-08-26T09:43:56.704000Z</time>
      </trkpt>
      <trkpt lat="39.884010214782194" lon="116.343577311507">
        <ele>0.0</ele>
        <time>2026-08-26T09:44:11.704000Z</time>
      </trkpt>
      <trkpt lat="39.883732222959" lon="116.34358034038753">
        <ele>0.0</ele>
        <time>2026-08-26T09:44:23.804000Z</time>
      </trkpt>
      <trkpt lat="39.88345226076527" lon="116.34356640503266">
        <ele>0.0</ele>
        <time>2026-08-26T09:44:35.804000Z</time>
      </trkpt>
      <trkpt lat="39.88311722659895" lon="116.34359538680961">
        <ele>0.0</ele>
        <time>2026-08-26T09:44:51.004000Z</time>
      </trkpt>
      <trkpt lat="39.882834240287266" lon="116.34359542258763">
        <ele>0.0</ele>
        <time>2026-08-26T09:45:03.204000Z</time>
      </trkpt>
      <trkpt lat="39.88255827622252" lon="116.34358248463239">
        <ele>0.0</ele>
        <time>2026-08-26T09:45:15.504000Z</time>
      </trkpt>
      <trkpt lat="39.882285261691415" lon="116.34359848572781">
        <ele>0.0</ele>
        <time>2026-08-26T09:45:27.704000Z</time>
      </trkpt>
      <trkpt lat="39.881990293379914" lon="116.34358854390673">
        <ele>0.0</ele>
        <time>2026-08-26T09:45:39.604000Z</time>
      </trkpt>
      <trkpt lat="39.881720309987045" lon="116.34358658221676">
        <ele>0.0</ele>
        <time>2026-08-26T09:45:51.604000Z</time>
      </trkpt>
      <trkpt lat="39.8814442921897" lon="116.34360457951531">
        <ele>0.0</ele>
        <time>2026-08-26T09:46:03.704000Z</time>
      </trkpt>
      <trkpt lat="39.88117524978281" lon="116.34363654670682">
        <ele>0.0</ele>
        <time>2026-08-26T09:46:15.704000Z</time>
      </trkpt>
      <trkpt lat="39.88085226036047" lon="116.34363958127595">
        <ele>0.0</ele>
        <time>2026-08-26T09:46:30.704000Z</time>
      </trkpt>
      <trkpt lat="39.88052119850327" lon="116.34368452920012">
        <ele>0.0</ele>
        <time>2026-08-26T09:46:45.704000Z</time>
      </trkpt>
      <trkpt lat="39.880237182946715" lon="116.34370152963186">
        <ele>0.0</ele>
        <time>2026-08-26T09:46:57.704000Z</time>
      </trkpt>
      <trkpt lat="39.88004013887218" lon="116.34373248987086">
        <ele>0.0</ele>
        <time>2026-08-26T09:47:06.704000Z</time>
      </trkpt>
      <trkpt lat="39.879725171690986" lon="116.34372255054753">
        <ele>0.0</ele>
        <time>2026-08-26T09:47:21.704000Z</time>
      </trkpt>
      <trkpt lat="39.87950214799909" lon="116.34374253702472">
        <ele>0.0</ele>
        <time>2026-08-26T09:47:30.704000Z</time>
      </trkpt>
      <trkpt lat="39.87921815159812" lon="116.34374856041278">
        <ele>0.0</ele>
        <time>2026-08-26T09:47:42.704000Z</time>
      </trkpt>
      <trkpt lat="39.87888912451693" lon="116.34377354987565">
        <ele>0.0</ele>
        <time>2026-08-26T09:47:57.804000Z</time>
      </trkpt>
      <trkpt lat="39.87860911064118" lon="116.3437895519162">
        <ele>0.0</ele>
        <time>2026-08-26T09:48:09.904000Z</time>
      </trkpt>
      <trkpt lat="39.878290076206326" lon="116.34381853180045">
        <ele>0.0</ele>
        <time>2026-08-26T09:48:25.104000Z</time>
      </trkpt>
      <trkpt lat="39.87796103538347" lon="116.3438515046334">
        <ele>0.0</ele>
        <time>2026-08-26T09:48:40.404000Z</time>
      </trkpt>
      <trkpt lat="39.87760999397156" lon="116.3438854781873">
        <ele>0.0</ele>
        <time>2026-08-26T09:48:55.604000Z</time>
      </trkpt>
      <trkpt lat="39.87728897707279" lon="116.34390447920072">
        <ele>0.0</ele>
        <time>2026-08-26T09:49:10.604000Z</time>
      </trkpt>
      <trkpt lat="39.877220973540446" lon="116.34390847946821">
        <ele>0.0</ele>
        <time>2026-08-26T09:49:13.604000Z</time>
      </trkpt>
      <trkpt lat="39.877158032064855" lon="116.34387655406339">
        <ele>0.0</ele>
        <time>2026-08-26T09:49:16.604000Z</time>
      </trkpt>
      <trkpt lat="39.87684000466849" lon="116.3439015422008">
        <ele>0.0</ele>
        <time>2026-08-26T09:49:31.604000Z</time>
      </trkpt>
      <trkpt lat="39.87653099070129" lon="116.34391854586629">
        <ele>0.0</ele>
        <time>2026-08-26T09:49:46.604000Z</time>
      </trkpt>
      <trkpt lat="39.87622293692966" lon="116.34395850154603">
        <ele>0.0</ele>
        <time>2026-08-26T09:50:04.604000Z</time>
      </trkpt>
      <trkpt lat="39.876159933169845" lon="116.34396250118586">
        <ele>0.0</ele>
        <time>2026-08-26T09:50:07.604000Z</time>
      </trkpt>
      <trkpt lat="39.876077876759695" lon="116.34399743873627">
        <ele>0.0</ele>
        <time>2026-08-26T09:50:10.604000Z</time>
      </trkpt>
      <trkpt lat="39.87589388348377" lon="116.34396043698119">
        <ele>0.0</ele>
        <time>2026-08-26T09:50:16.604000Z</time>
      </trkpt>
      <trkpt lat="39.875564904258766" lon="116.34399650565793">
        <ele>0.0</ele>
        <time>2026-08-26T09:50:31.704000Z</time>
      </trkpt>
      <trkpt lat="39.8753688674486" lon="116.34402347427776">
        <ele>0.0</ele>
        <time>2026-08-26T09:50:40.704000Z</time>
      </trkpt>
      <trkpt lat="39.87530782731447" lon="116.34404843000736">
        <ele>0.0</ele>
        <time>2026-08-26T09:50:43.704000Z</time>
      </trkpt>
      <trkpt lat="39.87499179832326" lon="116.34407441590241">
        <ele>0.0</ele>
        <time>2026-08-26T09:50:58.704000Z</time>
      </trkpt>
      <trkpt lat="39.874858789489416" lon="116.34408341400804">
        <ele>0.0</ele>
        <time>2026-08-26T09:51:04.704000Z</time>
      </trkpt>
      <trkpt lat="39.87471683985436" lon="116.34405848391785">
        <ele>0.0</ele>
        <time>2026-08-26T09:51:10.704000Z</time>
      </trkpt>
      <trkpt lat="39.874391757832925" lon="116.34411540654165">
        <ele>0.0</ele>
        <time>2026-08-26T09:51:25.704000Z</time>
      </trkpt>
      <trkpt lat="39.87405274738357" lon="116.34413141615066">
        <ele>0.0</ele>
        <time>2026-08-26T09:51:40.704000Z</time>
      </trkpt>
      <trkpt lat="39.873717733314756" lon="116.34414942110548">
        <ele>0.0</ele>
        <time>2026-08-26T09:51:55.804000Z</time>
      </trkpt>
      <trkpt lat="39.873440690442735" lon="116.34418238759224">
        <ele>0.0</ele>
        <time>2026-08-26T09:52:08.004000Z</time>
      </trkpt>
      <trkpt lat="39.8731046488937" lon="116.34421635948343">
        <ele>0.0</ele>
        <time>2026-08-26T09:52:23.204000Z</time>
      </trkpt>
      <trkpt lat="39.87282160641411" lon="116.344249326775">
        <ele>0.0</ele>
        <time>2026-08-26T09:52:35.404000Z</time>
      </trkpt>
      <trkpt lat="39.872529542025866" lon="116.34429526826693">
        <ele>0.0</ele>
        <time>2026-08-26T09:52:47.604000Z</time>
      </trkpt>
      <trkpt lat="39.87224753405387" lon="116.34430827695168">
        <ele>0.0</ele>
        <time>2026-08-26T09:52:59.604000Z</time>
      </trkpt>
      <trkpt lat="39.87197250162349" lon="116.344335255733">
        <ele>0.0</ele>
        <time>2026-08-26T09:53:11.704000Z</time>
      </trkpt>
      <trkpt lat="39.87177242748103" lon="116.34438417946562">
        <ele>0.0</ele>
        <time>2026-08-26T09:53:20.804000Z</time>
      </trkpt>
      <trkpt lat="39.871488447247195" lon="116.3443812215747">
        <ele>0.0</ele>
        <time>2026-08-26T09:53:32.904000Z</time>
      </trkpt>
      <trkpt lat="39.87121039096198" lon="116.34442217178068">
        <ele>0.0</ele>
        <time>2026-08-26T09:53:45.004000Z</time>
      </trkpt>
      <trkpt lat="39.870940339478146" lon="116.34446012722186">
        <ele>0.0</ele>
        <time>2026-08-26T09:53:57.204000Z</time>
      </trkpt>
      <trkpt lat="39.870615289163446" lon="116.34449908757557">
        <ele>0.0</ele>
        <time>2026-08-26T09:54:12.504000Z</time>
      </trkpt>
      <trkpt lat="39.8703322573666" lon="116.34452606747736">
        <ele>0.0</ele>
        <time>2026-08-26T09:54:24.604000Z</time>
      </trkpt>
      <trkpt lat="39.86999518371197" lon="116.34457900045358">
        <ele>0.0</ele>
        <time>2026-08-26T09:54:39.704000Z</time>
      </trkpt>
      <trkpt lat="39.8696451400221" lon="116.34461497026652">
        <ele>0.0</ele>
        <time>2026-08-26T09:54:54.704000Z</time>
      </trkpt>
      <trkpt lat="39.86937410773575" lon="116.34464194871863">
        <ele>0.0</ele>
        <time>2026-08-26T09:55:06.704000Z</time>
      </trkpt>
      <trkpt lat="39.86910304972754" lon="116.34468389620342">
        <ele>0.0</ele>
        <time>2026-08-26T09:55:18.704000Z</time>
      </trkpt>
      <trkpt lat="39.86882198028134" lon="116.34473283053931">
        <ele>0.0</ele>
        <time>2026-08-26T09:55:30.704000Z</time>
      </trkpt>
      <trkpt lat="39.86848889818517" lon="116.34479075293048">
        <ele>0.0</ele>
        <time>2026-08-26T09:55:45.704000Z</time>
      </trkpt>
      <trkpt lat="39.86822885178301" lon="116.34482571359577">
        <ele>0.0</ele>
        <time>2026-08-26T09:55:57.804000Z</time>
      </trkpt>
      <trkpt lat="39.86803467004872" lon="116.34493750727204">
        <ele>0.0</ele>
        <time>2026-08-26T09:56:06.804000Z</time>
      </trkpt>
      <trkpt lat="39.86789534888384" lon="116.34512912974341">
        <ele>0.0</ele>
        <time>2026-08-26T09:56:15.904000Z</time>
      </trkpt>
      <trkpt lat="39.86784307328627" lon="116.34529180152644">
        <ele>0.0</ele>
        <time>2026-08-26T09:56:21.904000Z</time>
      </trkpt>
      <trkpt lat="39.86782059065387" lon="116.3455752223898">
        <ele>0.0</ele>
        <time>2026-08-26T09:56:31.004000Z</time>
      </trkpt>
      <trkpt lat="39.86786798039594" lon="116.34593248533548">
        <ele>0.0</ele>
        <time>2026-08-26T09:56:43.304000Z</time>
      </trkpt>
      <trkpt lat="39.86788556660214" lon="116.3461759865003">
        <ele>0.0</ele>
        <time>2026-08-26T09:56:52.504000Z</time>
      </trkpt>
      <trkpt lat="39.86790443724015" lon="116.34625182970875">
        <ele>0.0</ele>
        <time>2026-08-26T09:56:55.504000Z</time>
      </trkpt>
      <trkpt lat="39.86811735517327" lon="116.34629371751636">
        <ele>0.0</ele>
        <time>2026-08-26T09:57:04.604000Z</time>
      </trkpt>
      <trkpt lat="39.86816470140055" lon="116.34648866865201">
        <ele>0.0</ele>
        <time>2026-08-26T09:57:10.604000Z</time>
      </trkpt>
      <trkpt lat="39.86818136279987" lon="116.34688051987567">
        <ele>0.0</ele>
        <time>2026-08-26T09:57:22.604000Z</time>
      </trkpt>
      <trkpt lat="39.86821147506205" lon="116.34726873192302">
        <ele>0.0</ele>
        <time>2026-08-26T09:57:34.604000Z</time>
      </trkpt>
      <trkpt lat="39.86822908190947" lon="116.34764497639426">
        <ele>0.0</ele>
        <time>2026-08-26T09:57:46.604000Z</time>
      </trkpt>
      <trkpt lat="39.86822693257787" lon="116.34773479695005">
        <ele>0.0</ele>
        <time>2026-08-26T09:57:49.604000Z</time>
      </trkpt>
      <trkpt lat="39.8681776881004" lon="116.34788350608136">
        <ele>0.0</ele>
        <time>2026-08-26T09:57:55.704000Z</time>
      </trkpt>
      <trkpt lat="39.86811365004854" lon="116.34790846438554">
        <ele>0.0</ele>
        <time>2026-08-26T09:57:58.704000Z</time>
      </trkpt>
      <trkpt lat="39.86781068416777" lon="116.34789752461276">
        <ele>0.0</ele>
        <time>2026-08-26T09:58:10.704000Z</time>
      </trkpt>
      <trkpt lat="39.867597670521036" lon="116.34791252168073">
        <ele>0.0</ele>
        <time>2026-08-26T09:58:19.704000Z</time>
      </trkpt>
      <trkpt lat="39.867530697230535" lon="116.34789855803331">
        <ele>0.0</ele>
        <time>2026-08-26T09:58:22.704000Z</time>
      </trkpt>
      <trkpt lat="39.86749382179342" lon="116.34782471015255">
        <ele>0.0</ele>
        <time>2026-08-26T09:58:25.704000Z</time>
      </trkpt>
      <trkpt lat="39.86750743082979" lon="116.34745844169471">
        <ele>0.0</ele>
        <time>2026-08-26T09:58:37.704000Z</time>
      </trkpt>
      <trkpt lat="39.86749502549606" lon="116.3471031576409">
        <ele>0.0</ele>
        <time>2026-08-26T09:58:49.704000Z</time>
      </trkpt>
      <trkpt lat="39.86748572659474" lon="116.34668600143658">
        <ele>0.0</ele>
        <time>2026-08-26T09:59:04.704000Z</time>
      </trkpt>
      <trkpt lat="39.867447419061484" lon="116.34627683672662">
        <ele>0.0</ele>
        <time>2026-08-26T09:59:19.704000Z</time>
      </trkpt>
      <trkpt lat="39.867448114338764" lon="116.34586667297435">
        <ele>0.0</ele>
        <time>2026-08-26T09:59:34.804000Z</time>
      </trkpt>
      <trkpt lat="39.867426827531105" lon="116.34544853219333">
        <ele>0.0</ele>
        <time>2026-08-26T09:59:49.804000Z</time>
      </trkpt>
      <trkpt lat="39.86748053655515" lon="116.34503238169847">
        <ele>0.0</ele>
        <time>2026-08-26T10:00:04.904000Z</time>
      </trkpt>
      <trkpt lat="39.867564233373884" lon="116.34462421465496">
        <ele>0.0</ele>
        <time>2026-08-26T10:00:20.304000Z</time>
      </trkpt>
      <trkpt lat="39.86761550235736" lon="116.34446653499872">
        <ele>0.0</ele>
        <time>2026-08-26T10:00:26.404000Z</time>
      </trkpt>
      <trkpt lat="39.86766062565554" lon="116.34439368047563">
        <ele>0.0</ele>
        <time>2026-08-26T10:00:29.504000Z</time>
      </trkpt>
      <trkpt lat="39.867965278366036" lon="116.34428750113084">
        <ele>0.0</ele>
        <time>2026-08-26T10:00:44.604000Z</time>
      </trkpt>
      <trkpt lat="39.86804627457878" lon="116.34430602362559">
        <ele>0.0</ele>
        <time>2026-08-26T10:00:47.604000Z</time>
      </trkpt>
      <trkpt lat="39.868128118022376" lon="116.34430439502053">
        <ele>0.0</ele>
        <time>2026-08-26T10:00:50.604000Z</time>
      </trkpt>
      <trkpt lat="39.86827775867496" lon="116.34429780147111">
        <ele>0.0</ele>
        <time>2026-08-26T10:00:56.604000Z</time>
      </trkpt>
      <trkpt lat="39.86834082951193" lon="116.34425488269194">
        <ele>0.0</ele>
        <time>2026-08-26T10:00:59.604000Z</time>
      </trkpt>
      <trkpt lat="39.868390947650184" lon="116.34418502163636">
        <ele>0.0</ele>
        <time>2026-08-26T10:01:02.604000Z</time>
      </trkpt>
      <trkpt lat="39.86846000790112" lon="116.34414808974051">
        <ele>0.0</ele>
        <time>2026-08-26T10:01:05.604000Z</time>
      </trkpt>
      <trkpt lat="39.86849711821321" lon="116.34408322009388">
        <ele>0.0</ele>
        <time>2026-08-26T10:01:08.604000Z</time>
      </trkpt>
      <trkpt lat="39.86843020984196" lon="116.3440323345669">
        <ele>0.0</ele>
        <time>2026-08-26T10:01:11.604000Z</time>
      </trkpt>
      <trkpt lat="39.8682651407247" lon="116.34407726187756">
        <ele>0.0</ele>
        <time>2026-08-26T10:01:17.604000Z</time>
      </trkpt>
      <trkpt lat="39.868210048616945" lon="116.34413215456006">
        <ele>0.0</ele>
        <time>2026-08-26T10:01:20.604000Z</time>
      </trkpt>
      <trkpt lat="39.86812081517467" lon="116.34426987937752">
        <ele>0.0</ele>
        <time>2026-08-26T10:01:26.704000Z</time>
      </trkpt>
      <trkpt lat="39.86806477673504" lon="116.3442938366809">
        <ele>0.0</ele>
        <time>2026-08-26T10:01:29.704000Z</time>
      </trkpt>
      <trkpt lat="39.86778977048557" lon="116.34430584654874">
        <ele>0.0</ele>
        <time>2026-08-26T10:01:41.704000Z</time>
      </trkpt>
      <trkpt lat="39.867660739349745" lon="116.34432781724065">
        <ele>0.0</ele>
        <time>2026-08-26T10:01:47.704000Z</time>
      </trkpt>
      <trkpt lat="39.86759866680512" lon="116.3443717338883">
        <ele>0.0</ele>
        <time>2026-08-26T10:01:50.704000Z</time>
      </trkpt>
      <trkpt lat="39.86755354347973" lon="116.34444458837756">
        <ele>0.0</ele>
        <time>2026-08-26T10:01:53.704000Z</time>
      </trkpt>
      <trkpt lat="39.8674628491542" lon="116.34485075885159">
        <ele>0.0</ele>
        <time>2026-08-26T10:02:08.704000Z</time>
      </trkpt>
      <trkpt lat="39.867407152521565" lon="116.34525892436524">
        <ele>0.0</ele>
        <time>2026-08-26T10:02:23.704000Z</time>
      </trkpt>
      <trkpt lat="39.86739853122376" lon="116.3456231775557">
        <ele>0.0</ele>
        <time>2026-08-26T10:02:35.704000Z</time>
      </trkpt>
      <trkpt lat="39.86740793343833" lon="116.34597445791593">
        <ele>0.0</ele>
        <time>2026-08-26T10:02:47.704000Z</time>
      </trkpt>
      <trkpt lat="39.8674441949062" lon="116.34640956732052">
        <ele>0.0</ele>
        <time>2026-08-26T10:03:02.804000Z</time>
      </trkpt>
      <trkpt lat="39.867461045777766" lon="116.3464973868904">
        <ele>0.0</ele>
        <time>2026-08-26T10:03:05.804000Z</time>
      </trkpt>
      <trkpt lat="39.86744447864052" lon="116.34683470582215">
        <ele>0.0</ele>
        <time>2026-08-26T10:03:17.904000Z</time>
      </trkpt>
      <trkpt lat="39.8674767458279" lon="116.34727082245395">
        <ele>0.0</ele>
        <time>2026-08-26T10:03:33.004000Z</time>
      </trkpt>
      <trkpt lat="39.86749813026255" lon="116.34763908082698">
        <ele>0.0</ele>
        <time>2026-08-26T10:03:45.104000Z</time>
      </trkpt>
      <trkpt lat="39.86750083137172" lon="116.3478187212277">
        <ele>0.0</ele>
        <time>2026-08-26T10:03:51.304000Z</time>
      </trkpt>
      <trkpt lat="39.8675246975462" lon="116.34789855879214">
        <ele>0.0</ele>
        <time>2026-08-26T10:03:54.304000Z</time>
      </trkpt>
      <trkpt lat="39.86758261336382" lon="116.34794745390123">
        <ele>0.0</ele>
        <time>2026-08-26T10:03:57.404000Z</time>
      </trkpt>
      <trkpt lat="39.86780167470336" lon="116.3479035138021">
        <ele>0.0</ele>
        <time>2026-08-26T10:04:06.504000Z</time>
      </trkpt>
      <trkpt lat="39.86809665590818" lon="116.34790547250961">
        <ele>0.0</ele>
        <time>2026-08-26T10:04:18.604000Z</time>
      </trkpt>
      <trkpt lat="39.868224695576735" lon="116.347877512089">
        <ele>0.0</ele>
        <time>2026-08-26T10:04:24.604000Z</time>
      </trkpt>
      <trkpt lat="39.868243852053574" lon="116.34778269904194">
        <ele>0.0</ele>
        <time>2026-08-26T10:04:27.604000Z</time>
      </trkpt>
      <trkpt lat="39.86822156993799" lon="116.34735256377408">
        <ele>0.0</ele>
        <time>2026-08-26T10:04:42.604000Z</time>
      </trkpt>
      <trkpt lat="39.86822214314131" lon="116.34699335110697">
        <ele>0.0</ele>
        <time>2026-08-26T10:04:54.604000Z</time>
      </trkpt>
      <trkpt lat="39.86819477170476" lon="116.346637010828">
        <ele>0.0</ele>
        <time>2026-08-26T10:05:06.704000Z</time>
      </trkpt>
      <trkpt lat="39.86818223368688" lon="116.34636356728149">
        <ele>0.0</ele>
        <time>2026-08-26T10:05:15.704000Z</time>
      </trkpt>
      <trkpt lat="39.8681603799213" lon="116.34627774455691">
        <ele>0.0</ele>
        <time>2026-08-26T10:05:18.704000Z</time>
      </trkpt>
      <trkpt lat="39.86810443687667" lon="116.34624581660793">
        <ele>0.0</ele>
        <time>2026-08-26T10:05:21.704000Z</time>
      </trkpt>
      <trkpt lat="39.867956451394534" lon="116.34624184344163">
        <ele>0.0</ele>
        <time>2026-08-26T10:05:27.704000Z</time>
      </trkpt>
      <trkpt lat="39.86790555541415" lon="116.34618197177845">
        <ele>0.0</ele>
        <time>2026-08-26T10:05:30.704000Z</time>
      </trkpt>
      <trkpt lat="39.86786228937675" lon="116.34575085735429">
        <ele>0.0</ele>
        <time>2026-08-26T10:05:45.704000Z</time>
      </trkpt>
      <trkpt lat="39.86785787812554" lon="116.3454055658299">
        <ele>0.0</ele>
        <time>2026-08-26T10:05:57.704000Z</time>
      </trkpt>
      <trkpt lat="39.867924296099446" lon="116.34515906441682">
        <ele>0.0</ele>
        <time>2026-08-26T10:06:06.704000Z</time>
      </trkpt>
      <trkpt lat="39.86806961342375" lon="116.34496943694364">
        <ele>0.0</ele>
        <time>2026-08-26T10:06:15.704000Z</time>
      </trkpt>
      <trkpt lat="39.86818774938394" lon="116.34488659301739">
        <ele>0.0</ele>
        <time>2026-08-26T10:06:21.704000Z</time>
      </trkpt>
      <trkpt lat="39.868508272533475" lon="116.34480041358329">
        <ele>0.0</ele>
        <time>2026-08-26T10:06:36.704000Z</time>
      </trkpt>
      <trkpt lat="39.86868023204125" lon="116.34489626134624">
        <ele>0.0</ele>
        <time>2026-08-26T10:06:48.804000Z</time>
      </trkpt>
      <trkpt lat="39.86890603136546" lon="116.34486553313228">
        <ele>0.0</ele>
        <time>2026-08-26T10:07:01.004000Z</time>
      </trkpt>
      <trkpt lat="39.869162307796955" lon="116.344832385795">
        <ele>0.0</ele>
        <time>2026-08-26T10:07:13.304000Z</time>
      </trkpt>
      <trkpt lat="39.86942961689915" lon="116.34479845800583">
        <ele>0.0</ele>
        <time>2026-08-26T10:07:25.504000Z</time>
      </trkpt>
      <trkpt lat="39.86971484748492" lon="116.34476254458195">
        <ele>0.0</ele>
        <time>2026-08-26T10:07:37.604000Z</time>
      </trkpt>
      <trkpt lat="39.86999452498571" lon="116.34472743780549">
        <ele>0.0</ele>
        <time>2026-08-26T10:07:49.604000Z</time>
      </trkpt>
      <trkpt lat="39.870270960415105" lon="116.34469278489584">
        <ele>0.0</ele>
        <time>2026-08-26T10:08:01.604000Z</time>
      </trkpt>
      <trkpt lat="39.87054363378897" lon="116.34465884528969">
        <ele>0.0</ele>
        <time>2026-08-26T10:08:13.604000Z</time>
      </trkpt>
      <trkpt lat="39.87082659265903" lon="116.34462431132417">
        <ele>0.0</ele>
        <time>2026-08-26T10:08:25.604000Z</time>
      </trkpt>
      <trkpt lat="39.871320287195196" lon="116.34447903986543">
        <ele>0.0</ele>
        <time>2026-08-26T10:08:37.604000Z</time>
      </trkpt>
      <trkpt lat="39.87167238883612" lon="116.34444325047787">
        <ele>0.0</ele>
        <time>2026-08-26T10:08:52.604000Z</time>
      </trkpt>
      <trkpt lat="39.87201810038051" lon="116.34440128373478">
        <ele>0.0</ele>
        <time>2026-08-26T10:09:07.604000Z</time>
      </trkpt>
      <trkpt lat="39.872305892063586" lon="116.34435592910931">
        <ele>0.0</ele>
        <time>2026-08-26T10:09:19.604000Z</time>
      </trkpt>
      <trkpt lat="39.87264072269937" lon="116.34431223623267">
        <ele>0.0</ele>
        <time>2026-08-26T10:09:34.604000Z</time>
      </trkpt>
      <trkpt lat="39.87291053290123" lon="116.34428923255547">
        <ele>0.0</ele>
        <time>2026-08-26T10:09:46.604000Z</time>
      </trkpt>
      <trkpt lat="39.87318231380247" lon="116.34426092682182">
        <ele>0.0</ele>
        <time>2026-08-26T10:09:58.604000Z</time>
      </trkpt>
      <trkpt lat="39.87334205464963" lon="116.34434062879808">
        <ele>0.0</ele>
        <time>2026-08-26T10:10:10.604000Z</time>
      </trkpt>
      <trkpt lat="39.873578776732515" lon="116.34432342500445">
        <ele>0.0</ele>
        <time>2026-08-26T10:10:22.604000Z</time>
      </trkpt>
      <trkpt lat="39.8738404567394" lon="116.34430445259189">
        <ele>0.0</ele>
        <time>2026-08-26T10:10:34.604000Z</time>
      </trkpt>
      <trkpt lat="39.87413544140593" lon="116.3442835906994">
        <ele>0.0</ele>
        <time>2026-08-26T10:10:49.704000Z</time>
      </trkpt>
      <trkpt lat="39.87445343452894" lon="116.34426179290773">
        <ele>0.0</ele>
        <time>2026-08-26T10:11:04.704000Z</time>
      </trkpt>
      <trkpt lat="39.874771249250486" lon="116.34424026866304">
        <ele>0.0</ele>
        <time>2026-08-26T10:11:19.704000Z</time>
      </trkpt>
      <trkpt lat="39.875066064458466" lon="116.34422039135247">
        <ele>0.0</ele>
        <time>2026-08-26T10:11:31.704000Z</time>
      </trkpt>
      <trkpt lat="39.8752804182119" lon="116.34420645773697">
        <ele>0.0</ele>
        <time>2026-08-26T10:11:37.704000Z</time>
      </trkpt>
      <trkpt lat="39.8754084837226" lon="116.3441983165996">
        <ele>0.0</ele>
        <time>2026-08-26T10:11:40.704000Z</time>
      </trkpt>
      <trkpt lat="39.875809800332874" lon="116.34404936447707">
        <ele>0.0</ele>
        <time>2026-08-26T10:11:55.704000Z</time>
      </trkpt>
      <trkpt lat="39.876082833291235" lon="116.34402238610967">
        <ele>0.0</ele>
        <time>2026-08-26T10:12:07.704000Z</time>
      </trkpt>
      <trkpt lat="39.87640485518379" lon="116.34400039116363">
        <ele>0.0</ele>
        <time>2026-08-26T10:12:25.804000Z</time>
      </trkpt>
      <trkpt lat="39.87660777588299" lon="116.34404028232096">
        <ele>0.0</ele>
        <time>2026-08-26T10:12:31.904000Z</time>
      </trkpt>
      <trkpt lat="39.8768904958756" lon="116.34401333066684">
        <ele>0.0</ele>
        <time>2026-08-26T10:12:44.004000Z</time>
      </trkpt>
      <trkpt lat="39.87717993578905" lon="116.34393143677207">
        <ele>0.0</ele>
        <time>2026-08-26T10:12:59.304000Z</time>
      </trkpt>
      <trkpt lat="39.87750387121156" lon="116.34395933754483">
        <ele>0.0</ele>
        <time>2026-08-26T10:13:14.604000Z</time>
      </trkpt>
      <trkpt lat="39.877787951180785" lon="116.3439319814003">
        <ele>0.0</ele>
        <time>2026-08-26T10:13:26.604000Z</time>
      </trkpt>
      <trkpt lat="39.87807309602928" lon="116.34391013457201">
        <ele>0.0</ele>
        <time>2026-08-26T10:13:38.604000Z</time>
      </trkpt>
      <trkpt lat="39.87821315687523" lon="116.3439078732833">
        <ele>0.0</ele>
        <time>2026-08-26T10:13:44.604000Z</time>
      </trkpt>
      <trkpt lat="39.87848822605994" lon="116.34388369510368">
        <ele>0.0</ele>
        <time>2026-08-26T10:13:56.604000Z</time>
      </trkpt>
      <trkpt lat="39.878765011476645" lon="116.34385280911877">
        <ele>0.0</ele>
        <time>2026-08-26T10:14:08.604000Z</time>
      </trkpt>
      <trkpt lat="39.879103975333926" lon="116.34385335598346">
        <ele>0.0</ele>
        <time>2026-08-26T10:14:23.604000Z</time>
      </trkpt>
      <trkpt lat="39.8793779774031" lon="116.34384434009564">
        <ele>0.0</ele>
        <time>2026-08-26T10:14:35.604000Z</time>
      </trkpt>
      <trkpt lat="39.87970204458177" lon="116.34379639916062">
        <ele>0.0</ele>
        <time>2026-08-26T10:14:50.604000Z</time>
      </trkpt>
      <trkpt lat="39.87998005863379" lon="116.34378039736939">
        <ele>0.0</ele>
        <time>2026-08-26T10:15:02.704000Z</time>
      </trkpt>
      <trkpt lat="39.88025409023623" lon="116.34375441693967">
        <ele>0.0</ele>
        <time>2026-08-26T10:15:14.704000Z</time>
      </trkpt>
      <trkpt lat="39.8805090777348" lon="116.34375438470393">
        <ele>0.0</ele>
        <time>2026-08-26T10:15:26.704000Z</time>
      </trkpt>
      <trkpt lat="39.88080710127807" lon="116.34373239291116">
        <ele>0.0</ele>
        <time>2026-08-26T10:15:38.704000Z</time>
      </trkpt>
      <trkpt lat="39.88113412516989" lon="116.34370939954823">
        <ele>0.0</ele>
        <time>2026-08-26T10:15:53.704000Z</time>
      </trkpt>
      <trkpt lat="39.88145413730003" lon="116.34369339247517">
        <ele>0.0</ele>
        <time>2026-08-26T10:16:08.704000Z</time>
      </trkpt>
      <trkpt lat="39.88173372179101" lon="116.34366164003104">
        <ele>0.0</ele>
        <time>2026-08-26T10:16:20.704000Z</time>
      </trkpt>
      <trkpt lat="39.882046205620135" lon="116.3436374345093">
        <ele>0.0</ele>
        <time>2026-08-26T10:16:35.704000Z</time>
      </trkpt>
      <trkpt lat="39.88236726799422" lon="116.34366186311148">
        <ele>0.0</ele>
        <time>2026-08-26T10:16:47.704000Z</time>
      </trkpt>
      <trkpt lat="39.882650127735985" lon="116.34366529970445">
        <ele>0.0</ele>
        <time>2026-08-26T10:16:59.704000Z</time>
      </trkpt>
      <trkpt lat="39.88293111413145" lon="116.34366526417895">
        <ele>0.0</ele>
        <time>2026-08-26T10:17:11.804000Z</time>
      </trkpt>
      <trkpt lat="39.88326413272972" lon="116.34364526382468">
        <ele>0.0</ele>
        <time>2026-08-26T10:17:26.904000Z</time>
      </trkpt>
      <trkpt lat="39.88356115309813" lon="116.3436252680298">
        <ele>0.0</ele>
        <time>2026-08-26T10:17:39.104000Z</time>
      </trkpt>
      <trkpt lat="39.88387610668809" lon="116.34364319062523">
        <ele>0.0</ele>
        <time>2026-08-26T10:17:54.504000Z</time>
      </trkpt>
      <trkpt lat="39.8841501039153" lon="116.34363716850882">
        <ele>0.0</ele>
        <time>2026-08-26T10:18:06.604000Z</time>
      </trkpt>
      <trkpt lat="39.88444875184529" lon="116.34364029148831">
        <ele>0.0</ele>
        <time>2026-08-26T10:18:18.604000Z</time>
      </trkpt>
      <trkpt lat="39.88478600193759" lon="116.34363819774087">
        <ele>0.0</ele>
        <time>2026-08-26T10:18:33.604000Z</time>
      </trkpt>
      <trkpt lat="39.88506422271063" lon="116.34363776123917">
        <ele>0.0</ele>
        <time>2026-08-26T10:18:45.604000Z</time>
      </trkpt>
      <trkpt lat="39.88533436710889" lon="116.34362919714424">
        <ele>0.0</ele>
        <time>2026-08-26T10:18:57.604000Z</time>
      </trkpt>
      <trkpt lat="39.885608613817084" lon="116.34362435015004">
        <ele>0.0</ele>
        <time>2026-08-26T10:19:09.604000Z</time>
      </trkpt>
      <trkpt lat="39.88593339318392" lon="116.3436136190818">
        <ele>0.0</ele>
        <time>2026-08-26T10:19:24.704000Z</time>
      </trkpt>
      <trkpt lat="39.88625298425707" lon="116.34364787964606">
        <ele>0.0</ele>
        <time>2026-08-26T10:19:39.704000Z</time>
      </trkpt>
      <trkpt lat="39.88630297146989" lon="116.34365386079901">
        <ele>0.0</ele>
        <time>2026-08-26T10:19:42.704000Z</time>
      </trkpt>
      <trkpt lat="39.88637801821889" lon="116.34362491185924">
        <ele>0.0</ele>
        <time>2026-08-26T10:19:45.704000Z</time>
      </trkpt>
      <trkpt lat="39.8866699991411" lon="116.34362786867341">
        <ele>0.0</ele>
        <time>2026-08-26T10:19:57.704000Z</time>
      </trkpt>
      <trkpt lat="39.8870109725557" lon="116.3436338130277">
        <ele>0.0</ele>
        <time>2026-08-26T10:20:12.704000Z</time>
      </trkpt>
      <trkpt lat="39.887282956203514" lon="116.34363577445804">
        <ele>0.0</ele>
        <time>2026-08-26T10:20:24.704000Z</time>
      </trkpt>
      <trkpt lat="39.887559943102495" lon="116.34363573943136">
        <ele>0.0</ele>
        <time>2026-08-26T10:20:36.804000Z</time>
      </trkpt>
      <trkpt lat="39.887839935083065" lon="116.34363271028846">
        <ele>0.0</ele>
        <time>2026-08-26T10:20:48.904000Z</time>
      </trkpt>
      <trkpt lat="39.888145908505734" lon="116.343639656979">
        <ele>0.0</ele>
        <time>2026-08-26T10:21:04.104000Z</time>
      </trkpt>
      <trkpt lat="39.88834887638997" lon="116.34365260416949">
        <ele>0.0</ele>
        <time>2026-08-26T10:21:13.204000Z</time>
      </trkpt>
      <trkpt lat="39.88842292842836" lon="116.34362066162214">
        <ele>0.0</ele>
        <time>2026-08-26T10:21:16.204000Z</time>
      </trkpt>
      <trkpt lat="39.88870989757816" lon="116.34363060444869">
        <ele>0.0</ele>
        <time>2026-08-26T10:21:28.504000Z</time>
      </trkpt>
      <trkpt lat="39.889014855494175" lon="116.34364653247417">
        <ele>0.0</ele>
        <time>2026-08-26T10:21:40.704000Z</time>
      </trkpt>
      <trkpt lat="39.88929281123182" lon="116.34366445974388">
        <ele>0.0</ele>
        <time>2026-08-26T10:21:52.704000Z</time>
      </trkpt>
      <trkpt lat="39.88962278537168" lon="116.34367040548791">
        <ele>0.0</ele>
        <time>2026-08-26T10:22:07.704000Z</time>
      </trkpt>
      <trkpt lat="39.88991575779668" lon="116.3436783517371">
        <ele>0.0</ele>
        <time>2026-08-26T10:22:19.704000Z</time>
      </trkpt>
      <trkpt lat="39.890237727154926" lon="116.34368729223256">
        <ele>0.0</ele>
        <time>2026-08-26T10:22:34.704000Z</time>
      </trkpt>
      <trkpt lat="39.890527727693936" lon="116.3436925186103">
        <ele>0.0</ele>
        <time>2026-08-26T10:22:46.704000Z</time>
      </trkpt>
      <trkpt lat="39.89080067664866" lon="116.34370119181648">
        <ele>0.0</ele>
        <time>2026-08-26T10:22:58.804000Z</time>
      </trkpt>
      <trkpt lat="39.89109070431965" lon="116.34369444173956">
        <ele>0.0</ele>
        <time>2026-08-26T10:23:10.904000Z</time>
      </trkpt>
      <trkpt lat="39.891420614903275" lon="116.34372007376182">
        <ele>0.0</ele>
        <time>2026-08-26T10:23:26.104000Z</time>
      </trkpt>
      <trkpt lat="39.891701610545205" lon="116.34371504865342">
        <ele>0.0</ele>
        <time>2026-08-26T10:23:38.404000Z</time>
      </trkpt>
      <trkpt lat="39.892012658573094" lon="116.34367908443996">
        <ele>0.0</ele>
        <time>2026-08-26T10:23:50.604000Z</time>
      </trkpt>
      <trkpt lat="39.89229365078608" lon="116.34367605516098">
        <ele>0.0</ele>
        <time>2026-08-26T10:24:02.704000Z</time>
      </trkpt>
      <trkpt lat="39.892636664440026" lon="116.34365904726288">
        <ele>0.0</ele>
        <time>2026-08-26T10:24:17.704000Z</time>
      </trkpt>
      <trkpt lat="39.892908749070415" lon="116.34360312979194">
        <ele>0.0</ele>
        <time>2026-08-26T10:24:29.704000Z</time>
      </trkpt>
      <trkpt lat="39.89319977907035" lon="116.34357814520867">
        <ele>0.0</ele>
        <time>2026-08-26T10:24:41.704000Z</time>
      </trkpt>
      <trkpt lat="39.89352774316198" lon="116.34359007865424">
        <ele>0.0</ele>
        <time>2026-08-26T10:24:56.804000Z</time>
      </trkpt>
      <trkpt lat="39.893826748533016" lon="116.34357906381514">
        <ele>0.0</ele>
        <time>2026-08-26T10:25:08.904000Z</time>
      </trkpt>
      <trkpt lat="39.89410074812555" lon="116.34357204378296">
        <ele>0.0</ele>
        <time>2026-08-26T10:25:21.204000Z</time>
      </trkpt>
      <trkpt lat="39.89442976084566" lon="116.34355603560064">
        <ele>0.0</ele>
        <time>2026-08-26T10:25:36.404000Z</time>
      </trkpt>
      <trkpt lat="39.894637761754765" lon="116.34355002182954">
        <ele>0.0</ele>
        <time>2026-08-26T10:25:45.504000Z</time>
      </trkpt>
      <trkpt lat="39.89493345834848" lon="116.34350204641672">
        <ele>0.0</ele>
        <time>2026-08-26T10:25:57.604000Z</time>
      </trkpt>
      <trkpt lat="39.895207926761806" lon="116.3434645657002">
        <ele>0.0</ele>
        <time>2026-08-26T10:26:09.604000Z</time>
      </trkpt>
      <trkpt lat="39.89548886191588" lon="116.34347008143504">
        <ele>0.0</ele>
        <time>2026-08-26T10:26:21.604000Z</time>
      </trkpt>
      <trkpt lat="39.89578385718569" lon="116.34346505457769">
        <ele>0.0</ele>
        <time>2026-08-26T10:26:33.704000Z</time>
      </trkpt>
      <trkpt lat="39.89605889162228" lon="116.34343807627116">
        <ele>0.0</ele>
        <time>2026-08-26T10:26:45.704000Z</time>
      </trkpt>
      <trkpt lat="39.89630990109424" lon="116.343426069628">
        <ele>0.0</ele>
        <time>2026-08-26T10:26:57.704000Z</time>
      </trkpt>
      <trkpt lat="39.896362877829" lon="116.34343803781734">
        <ele>0.0</ele>
        <time>2026-08-26T10:27:00.704000Z</time>
      </trkpt>
    </trkseg>
  </trk>
</gpx>