<?xml version="1.0" encoding="UTF-8"?>
<gpx xmlns="http://www.topografix.com/GPX/1/1" xmlns:gpxtpx="http://www.garmin.com/xmlschemas/TrackPointExtension/v1" xmlns:xsi="http://www.w3.org/2001/XMLSchema-instance" xsi:schemaLocation="http://www.topografix.com/GPX/1/1 http://www.topografix.com/GPX/1/1/gpx.xsd" version="1.1" creator="gpx.py -- https://github.com/tkrajina/gpxpy">
  <trk>
    <name>gpx from keep</name>
    <type>Run</type>
    <trkseg>
      <trkpt lat="40.99197404130991" lon="117.94648794293035">
        <time>2026-08-19T23:15:45.439000Z</time>
      </trkpt>
      <trkpt lat="40.99216975061902" lon="117.94654478416906">
        <time>2026-08-19T23:15:54.539000Z</time>
      </trkpt>
      <trkpt lat="40.99248241232191" lon="117.94657766535683">
        <time>2026-08-19T23:16:06.639000Z</time>
      </trkpt>
      <trkpt lat="40.99282408189937" lon="117.94659557749726">
        <time>2026-08-19T23:16:21.639000Z</time>
      </trkpt>
      <trkpt lat="40.99316672235217" lon="117.94662645922833">
        <time>2026-08-19T23:16:36.639000Z</time>
      </trkpt>
      <trkpt lat="40.99344747649219" lon="117.94662941445594">
        <time>2026-08-19T23:16:48.639000Z</time>
      </trkpt>
      <trkpt lat="40.99372118439101" lon="117.946656314734">
        <time>2026-08-19T23:17:00.639000Z</time>
      </trkpt>
      <trkpt lat="40.994002889808634" lon="117.94668121856338">
        <time>2026-08-19T23:17:12.639000Z</time>
      </trkpt>
      <trkpt lat="40.99432655726161" lon="117.94670711438367">
        <time>2026-08-19T23:17:27.639000Z</time>
      </trkpt>
      <trkpt lat="40.994597291617005" lon="117.94672304062587">
        <time>2026-08-19T23:17:39.639000Z</time>
      </trkpt>
      <trkpt lat="40.99487302824532" lon="117.94673597318233">
        <time>2026-08-19T23:17:51.739000Z</time>
      </trkpt>
      <trkpt lat="40.99514975530491" lon="117.94675289626157">
        <time>2026-08-19T23:18:03.839000Z</time>
      </trkpt>
      <trkpt lat="40.99549143572343" lon="117.94676581992229">
        <time>2026-08-19T23:18:18.939000Z</time>
      </trkpt>
      <trkpt lat="40.995818135456894" lon="117.94677575259635">
        <time>2026-08-19T23:18:34.139000Z</time>
      </trkpt>
      <trkpt lat="40.99609884383959" lon="117.94679965875477">
        <time>2026-08-19T23:18:46.439000Z</time>
      </trkpt>
      <trkpt lat="40.99637855524068" lon="117.9468225673578">
        <time>2026-08-19T23:18:58.639000Z</time>
      </trkpt>
      <trkpt lat="40.99668127104646" lon="117.94683449855694">
        <time>2026-08-19T23:19:10.639000Z</time>
      </trkpt>
      <trkpt lat="40.99682512660759" lon="117.94684445581143">
        <time>2026-08-19T23:19:16.639000Z</time>
      </trkpt>
      <trkpt lat="40.99711082632879" lon="117.9468703565418">
        <time>2026-08-19T23:19:28.639000Z</time>
      </trkpt>
      <trkpt lat="40.997176763580974" lon="117.94687334064673">
        <time>2026-08-19T23:19:31.639000Z</time>
      </trkpt>
      <trkpt lat="40.9973077153353" lon="117.94684439084367">
        <time>2026-08-19T23:19:37.639000Z</time>
      </trkpt>
      <trkpt lat="40.997620333120466" lon="117.94689722476956">
        <time>2026-08-19T23:19:52.639000Z</time>
      </trkpt>
      <trkpt lat="40.99795792297276" lon="117.9469530481768">
        <time>2026-08-19T23:20:07.739000Z</time>
      </trkpt>
      <trkpt lat="40.99822557013667" lon="117.94700987851292">
        <time>2026-08-19T23:20:19.839000Z</time>
      </trkpt>
      <trkpt lat="40.998489168033764" lon="117.94709065287768">
        <time>2026-08-19T23:20:32.039000Z</time>
      </trkpt>
      <trkpt lat="40.998752739387854" lon="117.94718339871318">
        <time>2026-08-19T23:20:44.339000Z</time>
      </trkpt>
      <trkpt lat="40.99901027600789" lon="117.94729410252988">
        <time>2026-08-19T23:20:56.639000Z</time>
      </trkpt>
      <trkpt lat="40.99928871726427" lon="117.94743972023726">
        <time>2026-08-19T23:21:08.639000Z</time>
      </trkpt>
      <trkpt lat="40.999542194536666" lon="117.94757835695546">
        <time>2026-08-19T23:21:20.639000Z</time>
      </trkpt>
      <trkpt lat="40.99983552867576" lon="117.94776587091101">
        <time>2026-08-19T23:21:35.739000Z</time>
      </trkpt>
      <trkpt lat="41.00008495013412" lon="117.94793044412087">
        <time>2026-08-19T23:21:47.839000Z</time>
      </trkpt>
      <trkpt lat="41.000390298533866" lon="117.94810598226007">
        <time>2026-08-19T23:22:02.939000Z</time>
      </trkpt>
      <trkpt lat="41.00063877917727" lon="117.94824361794441">
        <time>2026-08-19T23:22:15.039000Z</time>
      </trkpt>
      <trkpt lat="41.00094411455464" lon="117.94842414161249">
        <time>2026-08-19T23:22:30.439000Z</time>
      </trkpt>
      <trkpt lat="41.001204516288986" lon="117.94859170130673">
        <time>2026-08-19T23:22:42.639000Z</time>
      </trkpt>
      <trkpt lat="41.00145397812514" lon="117.94873631696075">
        <time>2026-08-19T23:22:54.639000Z</time>
      </trkpt>
      <trkpt lat="41.00164968095567" lon="117.94879415004323">
        <time>2026-08-19T23:23:03.639000Z</time>
      </trkpt>
      <trkpt lat="41.001853538798905" lon="117.9487801565185">
        <time>2026-08-19T23:23:12.639000Z</time>
      </trkpt>
      <trkpt lat="41.00202261508922" lon="117.94868237108118">
        <time>2026-08-19T23:23:21.639000Z</time>
      </trkpt>
      <trkpt lat="41.00225796847369" lon="117.94843593571946">
        <time>2026-08-19T23:23:33.639000Z</time>
      </trkpt>
      <trkpt lat="41.00248430074241" lon="117.94820147013223">
        <time>2026-08-19T23:23:45.639000Z</time>
      </trkpt>
      <trkpt lat="41.00274274597263" lon="117.9479031505694">
        <time>2026-08-19T23:24:00.639000Z</time>
      </trkpt>
      <trkpt lat="41.002961065359976" lon="117.94767566392828">
        <time>2026-08-19T23:24:12.639000Z</time>
      </trkpt>
      <trkpt lat="41.0031774353507" lon="117.94742522964798">
        <time>2026-08-19T23:24:24.639000Z</time>
      </trkpt>
      <trkpt lat="41.0033967655479" lon="117.94719075451835">
        <time>2026-08-19T23:24:36.639000Z</time>
      </trkpt>
      <trkpt lat="41.003621076491925" lon="117.94696226219902">
        <time>2026-08-19T23:24:48.639000Z</time>
      </trkpt>
      <trkpt lat="41.00378138345239" lon="117.94675971547065">
        <time>2026-08-19T23:24:57.639000Z</time>
      </trkpt>
      <trkpt lat="41.00389901637195" lon="117.94642348386039">
        <time>2026-08-19T23:25:09.639000Z</time>
      </trkpt>
      <trkpt lat="41.004015637594186" lon="117.94609123804946">
        <time>2026-08-19T23:25:21.639000Z</time>
      </trkpt>
      <trkpt lat="41.004165374778516" lon="117.94569014061064">
        <time>2026-08-19T23:25:36.639000Z</time>
      </trkpt>
      <trkpt lat="41.00427002537946" lon="117.94534491480576">
        <time>2026-08-19T23:25:48.639000Z</time>
      </trkpt>
      <trkpt lat="41.0043957957242" lon="117.94493283161681">
        <time>2026-08-19T23:26:03.739000Z</time>
      </trkpt>
      <trkpt lat="41.00444511315321" lon="117.94476320704447">
        <time>2026-08-19T23:26:09.739000Z</time>
      </trkpt>
      <trkpt lat="41.00458966594081" lon="117.94444290537311">
        <time>2026-08-19T23:26:21.839000Z</time>
      </trkpt>
      <trkpt lat="41.00470942190084" lon="117.9440337990886">
        <time>2026-08-19T23:26:36.939000Z</time>
      </trkpt>
      <trkpt lat="41.00483915505982" lon="117.94362867484716">
        <time>2026-08-19T23:26:52.139000Z</time>
      </trkpt>
      <trkpt lat="41.004974846362806" lon="117.94323850948386">
        <time>2026-08-19T23:27:07.439000Z</time>
      </trkpt>
      <trkpt lat="41.005090461371765" lon="117.94289124695273">
        <time>2026-08-19T23:27:19.539000Z</time>
      </trkpt>
      <trkpt lat="41.00523016920245" lon="117.94248609941789">
        <time>2026-08-19T23:27:34.639000Z</time>
      </trkpt>
      <trkpt lat="41.005373835399936" lon="117.94209690960884">
        <time>2026-08-19T23:27:49.639000Z</time>
      </trkpt>
      <trkpt lat="41.00543509106058" lon="117.94194422480426">
        <time>2026-08-19T23:27:55.639000Z</time>
      </trkpt>
      <trkpt lat="41.00544225760238" lon="117.94185840514625">
        <time>2026-08-19T23:27:58.639000Z</time>
      </trkpt>
      <trkpt lat="41.00539241632235" lon="117.94180053392486">
        <time>2026-08-19T23:28:01.639000Z</time>
      </trkpt>
      <trkpt lat="41.00511095613804" lon="117.94165088673822">
        <time>2026-08-19T23:28:13.739000Z</time>
      </trkpt>
      <trkpt lat="41.00505306735904" lon="117.94161995947961">
        <time>2026-08-19T23:28:16.739000Z</time>
      </trkpt>
      <trkpt lat="41.00529689807525" lon="117.94182741728459">
        <time>2026-08-19T23:28:31.939000Z</time>
      </trkpt>
      <trkpt lat="41.00540717508661" lon="117.94191429184565">
        <time>2026-08-19T23:28:38.039000Z</time>
      </trkpt>
      <trkpt lat="41.005387322431176" lon="117.9418494314883">
        <time>2026-08-19T23:28:41.039000Z</time>
      </trkpt>
      <trkpt lat="41.00534347202396" lon="117.94179355522996">
        <time>2026-08-19T23:28:44.139000Z</time>
      </trkpt>
      <trkpt lat="41.00539248437094" lon="117.94176660540157">
        <time>2026-08-19T23:28:47.239000Z</time>
      </trkpt>
      <trkpt lat="41.00546659734136" lon="117.94167878019728">
        <time>2026-08-19T23:28:50.339000Z</time>
      </trkpt>
      <trkpt lat="41.00550572584177" lon="117.94159794467112">
        <time>2026-08-19T23:28:53.339000Z</time>
      </trkpt>
      <trkpt lat="41.005600335749946" lon="117.94125165549929">
        <time>2026-08-19T23:29:05.539000Z</time>
      </trkpt>
      <trkpt lat="41.00569698868977" lon="117.9408804116949">
        <time>2026-08-19T23:29:17.539000Z</time>
      </trkpt>
      <trkpt lat="41.00576362289969" lon="117.94052912436365">
        <time>2026-08-19T23:29:29.539000Z</time>
      </trkpt>
      <trkpt lat="41.00584922659182" lon="117.94018281829553">
        <time>2026-08-19T23:29:41.639000Z</time>
      </trkpt>
      <trkpt lat="41.00590065003902" lon="117.93994229784666">
        <time>2026-08-19T23:29:50.739000Z</time>
      </trkpt>
      <trkpt lat="41.00593727620467" lon="117.93960197634536">
        <time>2026-08-19T23:30:02.739000Z</time>
      </trkpt>
      <trkpt lat="41.006015002165746" lon="117.93918878788453">
        <time>2026-08-19T23:30:17.839000Z</time>
      </trkpt>
      <trkpt lat="41.0060557945995" lon="117.93875363884982">
        <time>2026-08-19T23:30:32.939000Z</time>
      </trkpt>
      <trkpt lat="41.00609457397133" lon="117.93832247285383">
        <time>2026-08-19T23:30:48.239000Z</time>
      </trkpt>
      <trkpt lat="41.00614031980915" lon="117.93790227553083">
        <time>2026-08-19T23:31:03.439000Z</time>
      </trkpt>
      <trkpt lat="41.00617796996632" lon="117.9375339720366">
        <time>2026-08-19T23:31:15.639000Z</time>
      </trkpt>
      <trkpt lat="41.006220730996716" lon="117.93709978447262">
        <time>2026-08-19T23:31:30.639000Z</time>
      </trkpt>
      <trkpt lat="41.00628559406835" lon="117.93659471535396">
        <time>2026-08-19T23:31:48.639000Z</time>
      </trkpt>
      <trkpt lat="41.006321330751355" lon="117.93616849325636">
        <time>2026-08-19T23:32:03.739000Z</time>
      </trkpt>
      <trkpt lat="41.00636606144408" lon="117.93573726957327">
        <time>2026-08-19T23:32:18.939000Z</time>
      </trkpt>
      <trkpt lat="41.00641079701883" lon="117.93529904869027">
        <time>2026-08-19T23:32:34.139000Z</time>
      </trkpt>
      <trkpt lat="41.00645951979788" lon="117.93486181551884">
        <time>2026-08-19T23:32:49.339000Z</time>
      </trkpt>
      <trkpt lat="41.00649913603581" lon="117.93448646612565">
        <time>2026-08-19T23:33:01.539000Z</time>
      </trkpt>
      <trkpt lat="41.0065478394542" lon="117.93405220921107">
        <time>2026-08-19T23:33:16.539000Z</time>
      </trkpt>
      <trkpt lat="41.00660150742026" lon="117.93363191804328">
        <time>2026-08-19T23:33:31.539000Z</time>
      </trkpt>
      <trkpt lat="41.006636189397135" lon="117.9332086250839">
        <time>2026-08-19T23:33:46.539000Z</time>
      </trkpt>
      <trkpt lat="41.00669382140736" lon="117.9327992964975">
        <time>2026-08-19T23:34:01.539000Z</time>
      </trkpt>
      <trkpt lat="41.00675644232694" lon="117.93238995831416">
        <time>2026-08-19T23:34:16.639000Z</time>
      </trkpt>
      <trkpt lat="41.00681803458002" lon="117.93199458887811">
        <time>2026-08-19T23:34:31.639000Z</time>
      </trkpt>
      <trkpt lat="41.006878619658515" lon="117.9316002096097">
        <time>2026-08-19T23:34:46.639000Z</time>
      </trkpt>
      <trkpt lat="41.00695221263899" lon="117.93118984518114">
        <time>2026-08-19T23:35:01.639000Z</time>
      </trkpt>
      <trkpt lat="41.0069955632457" lon="117.93094521979513">
        <time>2026-08-19T23:35:10.639000Z</time>
      </trkpt>
      <trkpt lat="41.00706814906549" lon="117.93053284402043">
        <time>2026-08-19T23:35:25.639000Z</time>
      </trkpt>
      <trkpt lat="41.007150708521216" lon="117.93012744716482">
        <time>2026-08-19T23:35:40.639000Z</time>
      </trkpt>
      <trkpt lat="41.00723127197017" lon="117.9297160505059">
        <time>2026-08-19T23:35:55.639000Z</time>
      </trkpt>
      <trkpt lat="41.00732779061342" lon="117.92932061914364">
        <time>2026-08-19T23:36:10.639000Z</time>
      </trkpt>
      <trkpt lat="41.00741032653165" lon="117.92891719257972">
        <time>2026-08-19T23:36:25.639000Z</time>
      </trkpt>
      <trkpt lat="41.007497846927926" lon="117.92851675216491">
        <time>2026-08-19T23:36:40.639000Z</time>
      </trkpt>
      <trkpt lat="41.00759520030193" lon="117.9282201565641">
        <time>2026-08-19T23:36:52.639000Z</time>
      </trkpt>
      <trkpt lat="41.00761957146278" lon="117.92795152720558">
        <time>2026-08-19T23:37:01.639000Z</time>
      </trkpt>
      <trkpt lat="41.00757047810762" lon="117.92804440497135">
        <time>2026-08-19T23:38:05.239000Z</time>
      </trkpt>
      <trkpt lat="41.00767394425242" lon="117.92766191854201">
        <time>2026-08-19T23:38:20.439000Z</time>
      </trkpt>
      <trkpt lat="41.0077723686234" lon="117.92730738699031">
        <time>2026-08-19T23:38:32.439000Z</time>
      </trkpt>
      <trkpt lat="41.00789475175016" lon="117.92696383064182">
        <time>2026-08-19T23:38:44.539000Z</time>
      </trkpt>
      <trkpt lat="41.00799015420296" lon="117.92661927265097">
        <time>2026-08-19T23:38:56.639000Z</time>
      </trkpt>
      <trkpt lat="41.00811462882408" lon="117.92620079940674">
        <time>2026-08-19T23:39:11.639000Z</time>
      </trkpt>
      <trkpt lat="41.00821999791704" lon="117.92586621273176">
        <time>2026-08-19T23:39:23.639000Z</time>
      </trkpt>
      <trkpt lat="41.00835044049129" lon="117.92545770861155">
        <time>2026-08-19T23:39:38.639000Z</time>
      </trkpt>
      <trkpt lat="41.00847188221533" lon="117.92505019510405">
        <time>2026-08-19T23:39:53.739000Z</time>
      </trkpt>
      <trkpt lat="41.0085822226257" lon="117.92472157892571">
        <time>2026-08-19T23:40:05.939000Z</time>
      </trkpt>
      <trkpt lat="41.00870662166239" lon="117.92433502333824">
        <time>2026-08-19T23:40:20.939000Z</time>
      </trkpt>
      <trkpt lat="41.00883401679394" lon="117.92394446353791">
        <time>2026-08-19T23:40:36.239000Z</time>
      </trkpt>
      <trkpt lat="41.00896341874235" lon="117.92354190846146">
        <time>2026-08-19T23:40:51.539000Z</time>
      </trkpt>
      <trkpt lat="41.00908185407209" lon="117.92311437346073">
        <time>2026-08-19T23:41:06.539000Z</time>
      </trkpt>
      <trkpt lat="41.009194163959215" lon="117.92278671989206">
        <time>2026-08-19T23:41:18.539000Z</time>
      </trkpt>
      <trkpt lat="41.00928858989705" lon="117.92237215583677">
        <time>2026-08-19T23:41:33.539000Z</time>
      </trkpt>
      <trkpt lat="41.00936304081769" lon="117.92194459823509">
        <time>2026-08-19T23:41:48.539000Z</time>
      </trkpt>
      <trkpt lat="41.00942749692334" lon="117.92151303559828">
        <time>2026-08-19T23:42:03.639000Z</time>
      </trkpt>
      <trkpt lat="41.00947387584687" lon="117.92115439189932">
        <time>2026-08-19T23:42:15.639000Z</time>
      </trkpt>
      <trkpt lat="41.009528335713284" lon="117.92071381981583">
        <time>2026-08-19T23:42:30.639000Z</time>
      </trkpt>
      <trkpt lat="41.009563712500274" lon="117.92035416207962">
        <time>2026-08-19T23:42:42.639000Z</time>
      </trkpt>
      <trkpt lat="41.00960515796411" lon="117.91992256309908">
        <time>2026-08-19T23:42:57.639000Z</time>
      </trkpt>
      <trkpt lat="41.00964851430138" lon="117.91956388698685">
        <time>2026-08-19T23:43:09.639000Z</time>
      </trkpt>
      <trkpt lat="41.00969193231123" lon="117.91914225922446">
        <time>2026-08-19T23:43:24.739000Z</time>
      </trkpt>
      <trkpt lat="41.00973932750132" lon="117.91873161119253">
        <time>2026-08-19T23:43:39.839000Z</time>
      </trkpt>
      <trkpt lat="41.009790719028956" lon="117.9183139587113">
        <time>2026-08-19T23:43:55.039000Z</time>
      </trkpt>
      <trkpt lat="41.00984110062057" lon="117.91789929381522">
        <time>2026-08-19T23:44:10.339000Z</time>
      </trkpt>
      <trkpt lat="41.00990141828481" lon="117.91753257973058">
        <time>2026-08-19T23:44:22.539000Z</time>
      </trkpt>
      <trkpt lat="41.00997176258394" lon="117.91712388873835">
        <time>2026-08-19T23:44:37.539000Z</time>
      </trkpt>
      <trkpt lat="41.010041094527196" lon="117.9167211837039">
        <time>2026-08-19T23:44:52.539000Z</time>
      </trkpt>
      <trkpt lat="41.01010934833956" lon="117.91639441449432">
        <time>2026-08-19T23:45:04.539000Z</time>
      </trkpt>
      <trkpt lat="41.0101756530133" lon="117.91600968012311">
        <time>2026-08-19T23:45:19.539000Z</time>
      </trkpt>
      <trkpt lat="41.01027300110728" lon="117.91554098981631">
        <time>2026-08-19T23:45:37.539000Z</time>
      </trkpt>
      <trkpt lat="41.01033423380537" lon="117.91522519182848">
        <time>2026-08-19T23:45:49.539000Z</time>
      </trkpt>
      <trkpt lat="41.01021896789102" lon="117.91562793815515">
        <time>2026-08-19T23:46:07.539000Z</time>
      </trkpt>
      <trkpt lat="41.0101477092906" lon="117.91597470839304">
        <time>2026-08-19T23:46:19.539000Z</time>
      </trkpt>
      <trkpt lat="41.01007943616584" lon="117.9163284661727">
        <time>2026-08-19T23:46:31.639000Z</time>
      </trkpt>
      <trkpt lat="41.01000715797671" lon="117.91668521496895">
        <time>2026-08-19T23:46:43.639000Z</time>
      </trkpt>
      <trkpt lat="41.00996084810312" lon="117.9170459498247">
        <time>2026-08-19T23:46:55.639000Z</time>
      </trkpt>
      <trkpt lat="41.009883570672464" lon="117.91739469064824">
        <time>2026-08-19T23:47:07.639000Z</time>
      </trkpt>
      <trkpt lat="41.00981526407443" lon="117.9177594103487">
        <time>2026-08-19T23:47:19.639000Z</time>
      </trkpt>
      <trkpt lat="41.00977292331395" lon="117.91813011389506">
        <time>2026-08-19T23:47:31.639000Z</time>
      </trkpt>
      <trkpt lat="41.009734581358906" lon="117.91849281570336">
        <time>2026-08-19T23:47:43.639000Z</time>
      </trkpt>
      <trkpt lat="41.009686161746615" lon="117.91893144517046">
        <time>2026-08-19T23:47:58.639000Z</time>
      </trkpt>
      <trkpt lat="41.009645784947686" lon="117.91931611077156">
        <time>2026-08-19T23:48:10.639000Z</time>
      </trkpt>
      <trkpt lat="41.00959842284182" lon="117.91968678157424">
        <time>2026-08-19T23:48:22.639000Z</time>
      </trkpt>
      <trkpt lat="41.00955605484303" lon="117.92005344752309">
        <time>2026-08-19T23:48:34.739000Z</time>
      </trkpt>
      <trkpt lat="41.00950967868786" lon="117.92042510147223">
        <time>2026-08-19T23:48:46.739000Z</time>
      </trkpt>
      <trkpt lat="41.00947329022175" lon="117.92079474809071">
        <time>2026-08-19T23:48:58.739000Z</time>
      </trkpt>
      <trkpt lat="41.009433908702874" lon="117.92115539625564">
        <time>2026-08-19T23:49:10.839000Z</time>
      </trkpt>
      <trkpt lat="41.0093985192379" lon="117.9215150374414">
        <time>2026-08-19T23:49:23.039000Z</time>
      </trkpt>
      <trkpt lat="41.00933305441312" lon="117.92195459180351">
        <time>2026-08-19T23:49:38.439000Z</time>
      </trkpt>
      <trkpt lat="41.00926469609919" lon="117.92230123480537">
        <time>2026-08-19T23:49:50.539000Z</time>
      </trkpt>
      <trkpt lat="41.00918029477569" lon="117.92268982748209">
        <time>2026-08-19T23:50:02.539000Z</time>
      </trkpt>
      <trkpt lat="41.00908694658555" lon="117.92303645929474">
        <time>2026-08-19T23:50:14.539000Z</time>
      </trkpt>
      <trkpt lat="41.00896863197035" lon="117.92336910338528">
        <time>2026-08-19T23:50:26.539000Z</time>
      </trkpt>
      <trkpt lat="41.00884720081594" lon="117.92379163835432">
        <time>2026-08-19T23:50:41.639000Z</time>
      </trkpt>
      <trkpt lat="41.008735862901915" lon="117.92412926141262">
        <time>2026-08-19T23:50:53.739000Z</time>
      </trkpt>
      <trkpt lat="41.0086014380044" lon="117.92454478828253">
        <time>2026-08-19T23:51:08.739000Z</time>
      </trkpt>
      <trkpt lat="41.00849008380932" lon="117.92488639212601">
        <time>2026-08-19T23:51:20.939000Z</time>
      </trkpt>
      <trkpt lat="41.00838672711047" lon="117.92522099693626">
        <time>2026-08-19T23:51:33.239000Z</time>
      </trkpt>
      <trkpt lat="41.00827737069203" lon="117.92555559625391">
        <time>2026-08-19T23:51:45.539000Z</time>
      </trkpt>
      <trkpt lat="41.008168971815515" lon="117.92591715490313">
        <time>2026-08-19T23:51:57.539000Z</time>
      </trkpt>
      <trkpt lat="41.00804251226397" lon="117.92632964280516">
        <time>2026-08-19T23:52:12.539000Z</time>
      </trkpt>
      <trkpt lat="41.007939136228146" lon="117.92666322185684">
        <time>2026-08-19T23:52:24.539000Z</time>
      </trkpt>
      <trkpt lat="41.00783173628561" lon="117.92701277396117">
        <time>2026-08-19T23:52:36.539000Z</time>
      </trkpt>
      <trkpt lat="41.007740311828094" lon="117.92736631172421">
        <time>2026-08-19T23:52:48.539000Z</time>
      </trkpt>
      <trkpt lat="41.00764689527762" lon="117.92771185377207">
        <time>2026-08-19T23:53:00.539000Z</time>
      </trkpt>
      <trkpt lat="41.007572450229276" lon="117.92806237971904">
        <time>2026-08-19T23:53:12.539000Z</time>
      </trkpt>
      <trkpt lat="41.00755118508997" lon="117.92825611212551">
        <time>2026-08-19T23:53:18.539000Z</time>
      </trkpt>
      <trkpt lat="41.00744577163649" lon="117.92859764445664">
        <time>2026-08-19T23:53:30.539000Z</time>
      </trkpt>
      <trkpt lat="41.00740753885486" lon="117.92877639484914">
        <time>2026-08-19T23:53:36.539000Z</time>
      </trkpt>
      <trkpt lat="41.0073822832232" lon="117.9289621316776">
        <time>2026-08-19T23:53:42.539000Z</time>
      </trkpt>
      <trkpt lat="41.00728385064803" lon="117.92930564689999">
        <time>2026-08-19T23:53:54.639000Z</time>
      </trkpt>
      <trkpt lat="41.007205373285636" lon="117.92966413083819">
        <time>2026-08-19T23:54:06.639000Z</time>
      </trkpt>
      <trkpt lat="41.00713689740738" lon="117.93001262137173">
        <time>2026-08-19T23:54:18.639000Z</time>
      </trkpt>
      <trkpt lat="41.00705739323552" lon="117.9303820749493">
        <time>2026-08-19T23:54:30.639000Z</time>
      </trkpt>
      <trkpt lat="41.00697978757167" lon="117.9308114286153">
        <time>2026-08-19T23:54:45.639000Z</time>
      </trkpt>
      <trkpt lat="41.00690715889428" lon="117.93124776069268">
        <time>2026-08-19T23:55:00.739000Z</time>
      </trkpt>
      <trkpt lat="41.00684265028069" lon="117.93160021443708">
        <time>2026-08-19T23:55:12.839000Z</time>
      </trkpt>
      <trkpt lat="41.006786129741556" lon="117.93195266042365">
        <time>2026-08-19T23:55:24.939000Z</time>
      </trkpt>
      <trkpt lat="41.00673259991371" lon="117.93230609772344">
        <time>2026-08-19T23:55:37.239000Z</time>
      </trkpt>
      <trkpt lat="41.006682052539766" lon="117.93266551810926">
        <time>2026-08-19T23:55:49.439000Z</time>
      </trkpt>
      <trkpt lat="41.006625448508" lon="117.93305887602901">
        <time>2026-08-19T23:56:01.539000Z</time>
      </trkpt>
      <trkpt lat="41.00657987746275" lon="117.93342327294664">
        <time>2026-08-19T23:56:13.639000Z</time>
      </trkpt>
      <trkpt lat="41.006541291690915" lon="117.9337896584945">
        <time>2026-08-19T23:56:25.639000Z</time>
      </trkpt>
      <trkpt lat="41.00649572179934" lon="117.93414705334446">
        <time>2026-08-19T23:56:37.639000Z</time>
      </trkpt>
      <trkpt lat="41.00645014331723" lon="117.93450643800074">
        <time>2026-08-19T23:56:49.639000Z</time>
      </trkpt>
      <trkpt lat="41.00641754338201" lon="117.93486880887463">
        <time>2026-08-19T23:57:01.639000Z</time>
      </trkpt>
      <trkpt lat="41.00638095033765" lon="117.93522618228644">
        <time>2026-08-19T23:57:13.639000Z</time>
      </trkpt>
      <trkpt lat="41.0063453442919" lon="117.93558754174379">
        <time>2026-08-19T23:57:25.639000Z</time>
      </trkpt>
      <trkpt lat="41.00632070058003" lon="117.93596186940543">
        <time>2026-08-19T23:57:37.639000Z</time>
      </trkpt>
      <trkpt lat="41.00627208607745" lon="117.93632820768336">
        <time>2026-08-19T23:57:49.639000Z</time>
      </trkpt>
      <trkpt lat="41.006243458300276" lon="117.93668954560583">
        <time>2026-08-19T23:58:01.639000Z</time>
      </trkpt>
      <trkpt lat="41.00620181458996" lon="117.93706285616247">
        <time>2026-08-19T23:58:13.639000Z</time>
      </trkpt>
      <trkpt lat="41.00616617133384" lon="117.93743017010732">
        <time>2026-08-19T23:58:25.639000Z</time>
      </trkpt>
      <trkpt lat="41.00612454456914" lon="117.93778849512938">
        <time>2026-08-19T23:58:37.639000Z</time>
      </trkpt>
      <trkpt lat="41.00608885923693" lon="117.93817276282505">
        <time>2026-08-19T23:58:49.639000Z</time>
      </trkpt>
      <trkpt lat="41.00603409972957" lon="117.93860193811169">
        <time>2026-08-19T23:59:04.739000Z</time>
      </trkpt>
      <trkpt lat="41.005989400504326" lon="117.93899118143827">
        <time>2026-08-19T23:59:16.739000Z</time>
      </trkpt>
      <trkpt lat="41.00594970077115" lon="117.93937542643171">
        <time>2026-08-19T23:59:28.839000Z</time>
      </trkpt>
      <trkpt lat="41.005898026789474" lon="117.93974868771315">
        <time>2026-08-19T23:59:41.039000Z</time>
      </trkpt>
      <trkpt lat="41.00582537313462" lon="117.94011795298823">
        <time>2026-08-19T23:59:53.339000Z</time>
      </trkpt>
      <trkpt lat="41.00573562521687" lon="117.94054010566896">
        <time>2026-08-20T00:00:08.539000Z</time>
      </trkpt>
      <trkpt lat="41.00565494961667" lon="117.94091833908318">
        <time>2026-08-20T00:00:20.539000Z</time>
      </trkpt>
      <trkpt lat="41.005571340603126" lon="117.94126163862856">
        <time>2026-08-20T00:00:32.539000Z</time>
      </trkpt>
      <trkpt lat="41.005464597045325" lon="117.94167977836882">
        <time>2026-08-20T00:00:47.539000Z</time>
      </trkpt>
      <trkpt lat="41.00538066451493" lon="117.9416817854621">
        <time>2026-08-20T00:00:53.539000Z</time>
      </trkpt>
      <trkpt lat="41.00512327684005" lon="117.94148523236859">
        <time>2026-08-20T00:01:05.539000Z</time>
      </trkpt>
      <trkpt lat="41.00502150882071" lon="117.9414123983556">
        <time>2026-08-20T00:01:11.539000Z</time>
      </trkpt>
      <trkpt lat="41.005302906526815" lon="117.94159398032227">
        <time>2026-08-20T00:01:29.539000Z</time>
      </trkpt>
      <trkpt lat="41.00536975774264" lon="117.94163987498587">
        <time>2026-08-20T00:01:32.539000Z</time>
      </trkpt>
      <trkpt lat="41.00541260132625" lon="117.94169974340204">
        <time>2026-08-20T00:01:35.539000Z</time>
      </trkpt>
      <trkpt lat="41.00542621708798" lon="117.9418853504204">
        <time>2026-08-20T00:01:41.539000Z</time>
      </trkpt>
      <trkpt lat="41.005299670654544" lon="117.94220967998699">
        <time>2026-08-20T00:01:53.539000Z</time>
      </trkpt>
      <trkpt lat="41.00517608938265" lon="117.94254797415122">
        <time>2026-08-20T00:02:05.539000Z</time>
      </trkpt>
      <trkpt lat="41.00505952245737" lon="117.94287428775355">
        <time>2026-08-20T00:02:17.539000Z</time>
      </trkpt>
      <trkpt lat="41.004928990245006" lon="117.94318762636875">
        <time>2026-08-20T00:02:29.539000Z</time>
      </trkpt>
      <trkpt lat="41.00489464906658" lon="117.94336723968105">
        <time>2026-08-20T00:02:35.539000Z</time>
      </trkpt>
      <trkpt lat="41.004739984551385" lon="117.94375141840248">
        <time>2026-08-20T00:02:50.539000Z</time>
      </trkpt>
      <trkpt lat="41.004637393541245" lon="117.94407671372797">
        <time>2026-08-20T00:03:02.639000Z</time>
      </trkpt>
      <trkpt lat="41.004622007422164" lon="117.94426729254167">
        <time>2026-08-20T00:03:08.639000Z</time>
      </trkpt>
      <trkpt lat="41.00453778149938" lon="117.94440898810277">
        <time>2026-08-20T00:03:14.639000Z</time>
      </trkpt>
      <trkpt lat="41.00450445049444" lon="117.94457961108216">
        <time>2026-08-20T00:03:20.639000Z</time>
      </trkpt>
      <trkpt lat="41.00436286822065" lon="117.94491188331733">
        <time>2026-08-20T00:03:32.639000Z</time>
      </trkpt>
      <trkpt lat="41.00426622885171" lon="117.94525112852779">
        <time>2026-08-20T00:03:44.639000Z</time>
      </trkpt>
      <trkpt lat="41.00416261061966" lon="117.94558138990497">
        <time>2026-08-20T00:03:56.639000Z</time>
      </trkpt>
      <trkpt lat="41.00403185449129" lon="117.9459844821829">
        <time>2026-08-20T00:04:11.639000Z</time>
      </trkpt>
      <trkpt lat="41.003908937408234" lon="117.94631065202041">
        <time>2026-08-20T00:04:23.639000Z</time>
      </trkpt>
      <trkpt lat="41.003753485712295" lon="117.9467238032461">
        <time>2026-08-20T00:04:38.739000Z</time>
      </trkpt>
      <trkpt lat="41.00372635831749" lon="117.94679264581217">
        <time>2026-08-20T00:04:41.739000Z</time>
      </trkpt>
      <trkpt lat="41.00351604335608" lon="117.94701814502368">
        <time>2026-08-20T00:04:53.839000Z</time>
      </trkpt>
      <trkpt lat="41.00328773537973" lon="117.94724663731029">
        <time>2026-08-20T00:05:05.939000Z</time>
      </trkpt>
      <trkpt lat="41.00304155151696" lon="117.94753409253399">
        <time>2026-08-20T00:05:21.339000Z</time>
      </trkpt>
      <trkpt lat="41.00281009248089" lon="117.94778431423138">
        <time>2026-08-20T00:05:33.639000Z</time>
      </trkpt>
      <trkpt lat="41.002586423539235" lon="117.94801749409942">
        <time>2026-08-20T00:05:45.639000Z</time>
      </trkpt>
      <trkpt lat="41.00237211005882" lon="117.94826126796902">
        <time>2026-08-20T00:05:57.639000Z</time>
      </trkpt>
      <trkpt lat="41.002159919878785" lon="117.9484948067229">
        <time>2026-08-20T00:06:09.639000Z</time>
      </trkpt>
      <trkpt lat="41.00199672248749" lon="117.94864446648751">
        <time>2026-08-20T00:06:18.639000Z</time>
      </trkpt>
      <trkpt lat="41.00174471022494" lon="117.94874525599266">
        <time>2026-08-20T00:06:30.639000Z</time>
      </trkpt>
      <trkpt lat="41.00150096507512" lon="117.9487243396921">
        <time>2026-08-20T00:06:42.639000Z</time>
      </trkpt>
      <trkpt lat="41.00120360453464" lon="117.94855279561">
        <time>2026-08-20T00:06:57.639000Z</time>
      </trkpt>
      <trkpt lat="41.00089226386821" lon="117.9483772617434">
        <time>2026-08-20T00:07:12.639000Z</time>
      </trkpt>
      <trkpt lat="41.00064983669432" lon="117.94821368844941">
        <time>2026-08-20T00:07:24.739000Z</time>
      </trkpt>
      <trkpt lat="41.00039537658758" lon="117.94806907013924">
        <time>2026-08-20T00:07:36.839000Z</time>
      </trkpt>
      <trkpt lat="41.000136943591286" lon="117.9479134776852">
        <time>2026-08-20T00:07:48.939000Z</time>
      </trkpt>
      <trkpt lat="40.99987251931358" lon="117.94775588972091">
        <time>2026-08-20T00:08:01.239000Z</time>
      </trkpt>
      <trkpt lat="40.999622069029755" lon="117.94760428453661">
        <time>2026-08-20T00:08:13.439000Z</time>
      </trkpt>
      <trkpt lat="40.99935166363057" lon="117.94743971176096">
        <time>2026-08-20T00:08:25.539000Z</time>
      </trkpt>
      <trkpt lat="40.999162074062326" lon="117.94732700423876">
        <time>2026-08-20T00:08:34.539000Z</time>
      </trkpt>
      <trkpt lat="40.99889457899877" lon="117.94720133724583">
        <time>2026-08-20T00:08:46.539000Z</time>
      </trkpt>
      <trkpt lat="40.99862406185891" lon="117.94708664411215">
        <time>2026-08-20T00:08:58.539000Z</time>
      </trkpt>
      <trkpt lat="40.998359456048114" lon="117.94700986048693">
        <time>2026-08-20T00:09:10.539000Z</time>
      </trkpt>
      <trkpt lat="40.9980918460378" lon="117.94693606997252">
        <time>2026-08-20T00:09:22.639000Z</time>
      </trkpt>
      <trkpt lat="40.997766248115646" lon="117.94687924724836">
        <time>2026-08-20T00:09:37.639000Z</time>
      </trkpt>
      <trkpt lat="40.9974875446115" lon="117.94685234792703">
        <time>2026-08-20T00:09:49.639000Z</time>
      </trkpt>
      <trkpt lat="40.99715781905146" lon="117.94685538530062">
        <time>2026-08-20T00:10:04.639000Z</time>
      </trkpt>
      <trkpt lat="40.99688111165235" lon="117.9468294833422">
        <time>2026-08-20T00:10:16.639000Z</time>
      </trkpt>
      <trkpt lat="40.99661039476447" lon="117.94680557587333">
        <time>2026-08-20T00:10:28.839000Z</time>
      </trkpt>
      <trkpt lat="40.99633568998786" lon="117.94677767825551">
        <time>2026-08-20T00:10:40.939000Z</time>
      </trkpt>
      <trkpt lat="40.99600206375511" lon="117.94673681886988">
        <time>2026-08-20T00:10:56.239000Z</time>
      </trkpt>
      <trkpt lat="40.995694400090045" lon="117.94670293959108">
        <time>2026-08-20T00:11:08.539000Z</time>
      </trkpt>
      <trkpt lat="40.9954176664614" lon="117.94668900948211">
        <time>2026-08-20T00:11:20.639000Z</time>
      </trkpt>
      <trkpt lat="40.99509197456038" lon="117.94667508595369">
        <time>2026-08-20T00:11:35.639000Z</time>
      </trkpt>
      <trkpt lat="40.99487031370999" lon="117.94660627648616">
        <time>2026-08-20T00:11:44.639000Z</time>
      </trkpt>
      <trkpt lat="40.99459355396411" lon="117.94660431839287">
        <time>2026-08-20T00:11:56.639000Z</time>
      </trkpt>
      <trkpt lat="40.99425487963033" lon="117.946587403535">
        <time>2026-08-20T00:12:11.639000Z</time>
      </trkpt>
      <trkpt lat="40.993975176769155" lon="117.94656050398076">
        <time>2026-08-20T00:12:23.639000Z</time>
      </trkpt>
      <trkpt lat="40.99390621598297" lon="117.94656949233324">
        <time>2026-08-20T00:12:26.639000Z</time>
      </trkpt>
      <trkpt lat="40.99390621598297" lon="117.94656949233324">
        <time>2026-08-20T00:12:29.439000Z</time>
      </trkpt>
    </trkseg>
  </trk>
</gpx>