<?xml version="1.0" encoding="UTF-8"?>
<gpx xmlns="http://www.topografix.com/GPX/1/1" xmlns:gpxtpx="http://www.garmin.com/xmlschemas/TrackPointExtension/v1" xmlns:xsi="http://www.w3.org/2001/XMLSchema-instance" xsi:schemaLocation="http://www.topografix.com/GPX/1/1 http://www.topografix.com/GPX/1/1/gpx.xsd" version="1.1" creator="gpx.py -- https://github.com/tkrajina/gpxpy">
  <trk>
    <name>gpx from keep</name>
    <type>Run</type>
    <trkseg>
      <trkpt lat="39.86805457723731" lon="116.46700758381311">
        <time>2026-07-17T23:37:13.195000Z</time>
      </trkpt>
      <trkpt lat="39.86800559061488" lon="116.46701160382537">
        <time>2026-07-17T23:37:13.195000Z</time>
      </trkpt>
      <trkpt lat="39.867953739189296" lon="116.46706579761441">
        <time>2026-07-17T23:37:13.195000Z</time>
      </trkpt>
      <trkpt lat="39.86780889002098" lon="116.4671189996689">
        <time>2026-07-17T23:37:13.195000Z</time>
      </trkpt>
      <trkpt lat="39.86755372784674" lon="116.46705380614172">
        <time>2026-07-17T23:37:13.195000Z</time>
      </trkpt>
      <trkpt lat="39.867460532934714" lon="116.46697956121731">
        <time>2026-07-17T23:37:13.195000Z</time>
      </trkpt>
      <trkpt lat="39.867449250192" lon="116.4668741987715">
        <time>2026-07-17T23:37:13.195000Z</time>
      </trkpt>
      <trkpt lat="39.867487598742386" lon="116.46663235991723">
        <time>2026-07-17T23:37:13.195000Z</time>
      </trkpt>
      <trkpt lat="39.86753360439181" lon="116.46663536452101">
        <time>2026-07-17T23:37:13.195000Z</time>
      </trkpt>
      <trkpt lat="39.86755938503853" lon="116.46655408130503">
        <time>2026-07-17T23:37:13.195000Z</time>
      </trkpt>
      <trkpt lat="39.867550888138204" lon="116.46636844356007">
        <time>2026-07-17T23:37:13.195000Z</time>
      </trkpt>
      <trkpt lat="39.86746872059197" lon="116.4663042330848">
        <time>2026-07-17T23:37:13.195000Z</time>
      </trkpt>
      <trkpt lat="39.867206562644505" lon="116.46624004529411">
        <time>2026-07-17T23:37:13.195000Z</time>
      </trkpt>
      <trkpt lat="39.86690369407509" lon="116.46628323152788">
        <time>2026-07-17T23:37:13.195000Z</time>
      </trkpt>
      <trkpt lat="39.86674764328636" lon="116.46626117524411">
        <time>2026-07-17T23:37:13.195000Z</time>
      </trkpt>
      <trkpt lat="39.86667466862618" lon="116.46626921197802">
        <time>2026-07-17T23:37:13.195000Z</time>
      </trkpt>
      <trkpt lat="39.86663889069831" lon="116.46635149927882">
        <time>2026-07-17T23:37:13.195000Z</time>
      </trkpt>
      <trkpt lat="39.86666043256979" lon="116.4665541940345">
        <time>2026-07-17T23:37:13.195000Z</time>
      </trkpt>
      <trkpt lat="39.86661238618255" lon="116.46690842148988">
        <time>2026-07-17T23:37:13.195000Z</time>
      </trkpt>
      <trkpt lat="39.866590862516325" lon="116.46708503440188">
        <time>2026-07-17T23:37:13.195000Z</time>
      </trkpt>
      <trkpt lat="39.86660655405843" lon="116.46734192146326">
        <time>2026-07-17T23:37:14.295000Z</time>
      </trkpt>
      <trkpt lat="39.86659402611724" lon="116.46751652826599">
        <time>2026-07-17T23:37:13.195000Z</time>
      </trkpt>
      <trkpt lat="39.86660519048242" lon="116.4679470223979">
        <time>2026-07-17T23:37:13.195000Z</time>
      </trkpt>
      <trkpt lat="39.86658535213739" lon="116.46837451457252">
        <time>2026-07-17T23:37:13.195000Z</time>
      </trkpt>
      <trkpt lat="39.86656355594452" lon="116.46881606069805">
        <time>2026-07-17T23:37:13.195000Z</time>
      </trkpt>
      <trkpt lat="39.866582278421376" lon="116.46908098667203">
        <time>2026-07-17T23:37:13.195000Z</time>
      </trkpt>
      <trkpt lat="39.86657447669951" lon="116.46951852447576">
        <time>2026-07-17T23:37:13.195000Z</time>
      </trkpt>
      <trkpt lat="39.866584404608524" lon="116.46985671420856">
        <time>2026-07-17T23:37:13.195000Z</time>
      </trkpt>
      <trkpt lat="39.86657332754098" lon="116.47019189860328">
        <time>2026-07-17T23:37:13.195000Z</time>
      </trkpt>
      <trkpt lat="39.86654974371568" lon="116.47034243369042">
        <time>2026-07-17T23:37:13.195000Z</time>
      </trkpt>
      <trkpt lat="39.8666006387095" lon="116.470667578492">
        <time>2026-07-17T23:37:13.195000Z</time>
      </trkpt>
      <trkpt lat="39.866611510002464" lon="116.47098269505027">
        <time>2026-07-17T23:37:13.195000Z</time>
      </trkpt>
      <trkpt lat="39.86662573445489" lon="116.47106398200975">
        <time>2026-07-17T23:37:13.195000Z</time>
      </trkpt>
      <trkpt lat="39.86677187691341" lon="116.47111815629158">
        <time>2026-07-17T23:37:13.195000Z</time>
      </trkpt>
      <trkpt lat="39.866698872436295" lon="116.4711151547294">
        <time>2026-07-17T23:37:13.195000Z</time>
      </trkpt>
      <trkpt lat="39.86668016285812" lon="116.47121952813222">
        <time>2026-07-17T23:37:13.195000Z</time>
      </trkpt>
      <trkpt lat="39.86663429894003" lon="116.47126770521257">
        <time>2026-07-17T23:37:13.195000Z</time>
      </trkpt>
      <trkpt lat="39.86660152630849" lon="116.47134899856565">
        <time>2026-07-17T23:37:13.195000Z</time>
      </trkpt>
      <trkpt lat="39.8666240604193" lon="116.47154168195443">
        <time>2026-07-17T23:37:13.195000Z</time>
      </trkpt>
      <trkpt lat="39.86660426274792" lon="116.47197322416568">
        <time>2026-07-17T23:37:13.195000Z</time>
      </trkpt>
      <trkpt lat="39.86658951578955" lon="116.47242183081525">
        <time>2026-07-17T23:37:13.195000Z</time>
      </trkpt>
      <trkpt lat="39.86655745546389" lon="116.47275703668205">
        <time>2026-07-17T23:37:13.195000Z</time>
      </trkpt>
      <trkpt lat="39.866570417204386" lon="116.47310026808982">
        <time>2026-07-17T23:37:13.195000Z</time>
      </trkpt>
      <trkpt lat="39.86654161748938" lon="116.47352680726854">
        <time>2026-07-17T23:37:13.195000Z</time>
      </trkpt>
      <trkpt lat="39.86654707775738" lon="116.47369039648125">
        <time>2026-07-17T23:37:13.195000Z</time>
      </trkpt>
      <trkpt lat="39.866506078833815" lon="116.47404468090006">
        <time>2026-07-17T23:37:13.195000Z</time>
      </trkpt>
      <trkpt lat="39.86652832272607" lon="116.47448527244042">
        <time>2026-07-17T23:37:13.195000Z</time>
      </trkpt>
      <trkpt lat="39.86652639165686" lon="116.47486264110597">
        <time>2026-07-17T23:37:13.195000Z</time>
      </trkpt>
      <trkpt lat="39.86653388377599" lon="116.47503627067354">
        <time>2026-07-17T23:37:13.195000Z</time>
      </trkpt>
      <trkpt lat="39.866493106397655" lon="116.47546583797744">
        <time>2026-07-17T23:37:13.195000Z</time>
      </trkpt>
      <trkpt lat="39.86650465418211" lon="116.47565853840942">
        <time>2026-07-17T23:37:13.195000Z</time>
      </trkpt>
      <trkpt lat="39.86654086662796" lon="116.47573380823293">
        <time>2026-07-17T23:37:13.195000Z</time>
      </trkpt>
      <trkpt lat="39.86654154454293" lon="116.47597167573777">
        <time>2026-07-17T23:37:13.195000Z</time>
      </trkpt>
      <trkpt lat="39.866501958967454" lon="116.47611620830388">
        <time>2026-07-17T23:37:13.195000Z</time>
      </trkpt>
      <trkpt lat="39.866484997734545" lon="116.47647953837631">
        <time>2026-07-17T23:37:13.195000Z</time>
      </trkpt>
      <trkpt lat="39.86648920688805" lon="116.4769020850184">
        <time>2026-07-17T23:37:13.195000Z</time>
      </trkpt>
      <trkpt lat="39.86648424614484" lon="116.47726441463163">
        <time>2026-07-17T23:37:13.195000Z</time>
      </trkpt>
      <trkpt lat="39.866495450820594" lon="116.47768395468259">
        <time>2026-07-17T23:37:13.195000Z</time>
      </trkpt>
      <trkpt lat="39.86647172330536" lon="116.4781255831752">
        <time>2026-07-17T23:37:13.195000Z</time>
      </trkpt>
      <trkpt lat="39.86645294009379" lon="116.47854713990705">
        <time>2026-07-17T23:37:13.195000Z</time>
      </trkpt>
      <trkpt lat="39.866467079000635" lon="116.4789415949646">
        <time>2026-07-17T23:37:13.195000Z</time>
      </trkpt>
      <trkpt lat="39.866455308410124" lon="116.47936616693711">
        <time>2026-07-17T23:37:13.195000Z</time>
      </trkpt>
      <trkpt lat="39.86645034740754" lon="116.47972449495623">
        <time>2026-07-17T23:37:13.195000Z</time>
      </trkpt>
      <trkpt lat="39.86646354149183" lon="116.48013601990141">
        <time>2026-07-17T23:37:13.195000Z</time>
      </trkpt>
      <trkpt lat="39.86644501217421" lon="116.48029762228454">
        <time>2026-07-17T23:37:13.195000Z</time>
      </trkpt>
      <trkpt lat="39.86635606067492" lon="116.48031268930085">
        <time>2026-07-17T23:37:13.195000Z</time>
      </trkpt>
      <trkpt lat="39.86631317970103" lon="116.48035284379382">
        <time>2026-07-17T23:37:13.195000Z</time>
      </trkpt>
      <trkpt lat="39.8663264585428" lon="116.48079247662038">
        <time>2026-07-17T23:37:13.195000Z</time>
      </trkpt>
      <trkpt lat="39.86632276087034" lon="116.48123914012515">
        <time>2026-07-17T23:37:13.195000Z</time>
      </trkpt>
      <trkpt lat="39.86632182171949" lon="116.4816024948504">
        <time>2026-07-17T23:37:13.195000Z</time>
      </trkpt>
      <trkpt lat="39.86628705817988" lon="116.48168279874994">
        <time>2026-07-17T23:37:13.195000Z</time>
      </trkpt>
      <trkpt lat="39.86622621981472" lon="116.48173700858094">
        <time>2026-07-17T23:37:13.195000Z</time>
      </trkpt>
      <trkpt lat="39.866149241510875" lon="116.48174304064801">
        <time>2026-07-17T23:37:13.195000Z</time>
      </trkpt>
      <trkpt lat="39.86586407775863" lon="116.481681847717">
        <time>2026-07-17T23:37:13.195000Z</time>
      </trkpt>
      <trkpt lat="39.865595963011906" lon="116.4816377163602">
        <time>2026-07-17T23:37:13.195000Z</time>
      </trkpt>
      <trkpt lat="39.86531781952186" lon="116.48158354883728">
        <time>2026-07-17T23:37:13.195000Z</time>
      </trkpt>
      <trkpt lat="39.86503665572681" lon="116.48152235552351">
        <time>2026-07-17T23:37:13.195000Z</time>
      </trkpt>
      <trkpt lat="39.86476156494203" lon="116.48148625506141">
        <time>2026-07-17T23:37:13.195000Z</time>
      </trkpt>
      <trkpt lat="39.86448242752158" lon="116.48143409524477">
        <time>2026-07-17T23:37:13.195000Z</time>
      </trkpt>
      <trkpt lat="39.86436729305433" lon="116.48138592998777">
        <time>2026-07-17T23:37:13.195000Z</time>
      </trkpt>
      <trkpt lat="39.864093196464395" lon="116.48134782197944">
        <time>2026-07-17T23:37:13.195000Z</time>
      </trkpt>
      <trkpt lat="39.86378705770328" lon="116.48129466187504">
        <time>2026-07-17T23:37:13.195000Z</time>
      </trkpt>
      <trkpt lat="39.86351295827049" lon="116.48125555016985">
        <time>2026-07-17T23:37:13.195000Z</time>
      </trkpt>
      <trkpt lat="39.86319383495934" lon="116.48120741044045">
        <time>2026-07-17T23:37:13.195000Z</time>
      </trkpt>
      <trkpt lat="39.86286667115407" lon="116.48114521940082">
        <time>2026-07-17T23:37:13.195000Z</time>
      </trkpt>
      <trkpt lat="39.86257947598424" lon="116.48107298605032">
        <time>2026-07-17T23:37:13.195000Z</time>
      </trkpt>
      <trkpt lat="39.86224939149789" lon="116.4810378963792">
        <time>2026-07-17T23:37:13.195000Z</time>
      </trkpt>
      <trkpt lat="39.86193331507362" lon="116.48100581618817">
        <time>2026-07-17T23:37:13.195000Z</time>
      </trkpt>
      <trkpt lat="39.861663183522346" lon="116.48095566303029">
        <time>2026-07-17T23:37:13.195000Z</time>
      </trkpt>
      <trkpt lat="39.86138807276853" lon="116.48091253667396">
        <time>2026-07-17T23:37:13.195000Z</time>
      </trkpt>
      <trkpt lat="39.86109893358202" lon="116.48085937473915">
        <time>2026-07-17T23:37:13.195000Z</time>
      </trkpt>
      <trkpt lat="39.86081671805504" lon="116.4807801148892">
        <time>2026-07-17T23:37:13.195000Z</time>
      </trkpt>
      <trkpt lat="39.86047654964988" lon="116.48071591833845">
        <time>2026-07-17T23:37:13.195000Z</time>
      </trkpt>
      <trkpt lat="39.86032157278929" lon="116.48072095632092">
        <time>2026-07-17T23:37:13.195000Z</time>
      </trkpt>
      <trkpt lat="39.860191816729504" lon="116.4808022749259">
        <time>2026-07-17T23:37:13.195000Z</time>
      </trkpt>
      <trkpt lat="39.85990963640894" lon="116.4807350599305">
        <time>2026-07-17T23:37:13.195000Z</time>
      </trkpt>
      <trkpt lat="39.85969253732185" lon="116.48069694512982">
        <time>2026-07-17T23:37:13.195000Z</time>
      </trkpt>
      <trkpt lat="39.859628403509475" lon="116.48064977769106">
        <time>2026-07-17T23:37:13.195000Z</time>
      </trkpt>
      <trkpt lat="39.85958918070024" lon="116.48057249522971">
        <time>2026-07-17T23:37:13.195000Z</time>
      </trkpt>
      <trkpt lat="39.859577185829416" lon="116.48023022508275">
        <time>2026-07-17T23:37:13.195000Z</time>
      </trkpt>
      <trkpt lat="39.85954170072026" lon="116.4800626072869">
        <time>2026-07-17T23:37:13.195000Z</time>
      </trkpt>
      <trkpt lat="39.85954526622058" lon="116.47991305199864">
        <time>2026-07-17T23:37:13.195000Z</time>
      </trkpt>
      <trkpt lat="39.8595059450206" lon="116.47980164375367">
        <time>2026-07-17T23:37:13.195000Z</time>
      </trkpt>
      <trkpt lat="39.85944586856545" lon="116.47942927157622">
        <time>2026-07-17T23:37:13.195000Z</time>
      </trkpt>
      <trkpt lat="39.859366884826365" lon="116.47908801871313">
        <time>2026-07-17T23:37:13.195000Z</time>
      </trkpt>
      <trkpt lat="39.85936638842569" lon="116.47891638432252">
        <time>2026-07-17T23:37:13.195000Z</time>
      </trkpt>
      <trkpt lat="39.85931615607192" lon="116.4784888118623">
        <time>2026-07-17T23:37:13.295000Z</time>
      </trkpt>
      <trkpt lat="39.85926493186326" lon="116.47806324960978">
        <time>2026-07-17T23:37:13.295000Z</time>
      </trkpt>
      <trkpt lat="39.85926572443516" lon="116.47764370575025">
        <time>2026-07-17T23:37:13.295000Z</time>
      </trkpt>
      <trkpt lat="39.85926320824852" lon="116.47746404581406">
        <time>2026-07-17T23:37:13.295000Z</time>
      </trkpt>
      <trkpt lat="39.85923801649301" lon="116.47739680195596">
        <time>2026-07-17T23:37:13.295000Z</time>
      </trkpt>
      <trkpt lat="39.85923577166347" lon="116.47731148897822">
        <time>2026-07-17T23:37:13.295000Z</time>
      </trkpt>
      <trkpt lat="39.85928255441894" lon="116.47688792963193">
        <time>2026-07-17T23:37:13.295000Z</time>
      </trkpt>
      <trkpt lat="39.859333787223726" lon="116.47662094551238">
        <time>2026-07-17T23:37:13.295000Z</time>
      </trkpt>
      <trkpt lat="39.85942179535095" lon="116.47627567185717">
        <time>2026-07-17T23:37:13.295000Z</time>
      </trkpt>
      <trkpt lat="39.8595155817055" lon="116.475852113941">
        <time>2026-07-17T23:37:13.295000Z</time>
      </trkpt>
      <trkpt lat="39.859593568549506" lon="116.47549781320386">
        <time>2026-07-17T23:37:13.295000Z</time>
      </trkpt>
      <trkpt lat="39.85965655525285" lon="116.47514251291855">
        <time>2026-07-17T23:37:13.295000Z</time>
      </trkpt>
      <trkpt lat="39.85974058823221" lon="116.47480327054872">
        <time>2026-07-17T23:37:13.295000Z</time>
      </trkpt>
      <trkpt lat="39.85980740252911" lon="116.47438574896859">
        <time>2026-07-17T23:37:13.295000Z</time>
      </trkpt>
      <trkpt lat="39.85986034211686" lon="116.4740113883308">
        <time>2026-07-17T23:37:13.295000Z</time>
      </trkpt>
      <trkpt lat="39.85996920741078" lon="116.47361092930463">
        <time>2026-07-17T23:37:13.295000Z</time>
      </trkpt>
      <trkpt lat="39.86006927037069" lon="116.4732797237121">
        <time>2026-07-17T23:37:13.295000Z</time>
      </trkpt>
      <trkpt lat="39.860133500404096" lon="116.47300673393623">
        <time>2026-07-17T23:37:13.295000Z</time>
      </trkpt>
      <trkpt lat="39.860186490651806" lon="116.47264743746213">
        <time>2026-07-17T23:37:13.295000Z</time>
      </trkpt>
      <trkpt lat="39.86029837617344" lon="116.47225100339904">
        <time>2026-07-17T23:37:13.295000Z</time>
      </trkpt>
      <trkpt lat="39.86037742841317" lon="116.47191278456157">
        <time>2026-07-17T23:37:13.295000Z</time>
      </trkpt>
      <trkpt lat="39.860481495259364" lon="116.47157958291402">
        <time>2026-07-17T23:37:13.295000Z</time>
      </trkpt>
      <trkpt lat="39.86053008258477" lon="116.47143205130983">
        <time>2026-07-17T23:37:13.295000Z</time>
      </trkpt>
      <trkpt lat="39.860619790609505" lon="116.47132867214219">
        <time>2026-07-17T23:37:13.295000Z</time>
      </trkpt>
      <trkpt lat="39.86065255764113" lon="116.47124537171436">
        <time>2026-07-17T23:37:13.295000Z</time>
      </trkpt>
      <trkpt lat="39.86064728236421" lon="116.47114601912281">
        <time>2026-07-17T23:37:13.295000Z</time>
      </trkpt>
      <trkpt lat="39.86049863435287" lon="116.47090919651198">
        <time>2026-07-17T23:37:13.295000Z</time>
      </trkpt>
      <trkpt lat="39.860571670195945" lon="116.47056195633382">
        <time>2026-07-17T23:37:13.295000Z</time>
      </trkpt>
      <trkpt lat="39.860669764997084" lon="116.4702357902189">
        <time>2026-07-17T23:37:13.295000Z</time>
      </trkpt>
      <trkpt lat="39.860686056748044" lon="116.4699788810294">
        <time>2026-07-17T23:37:13.295000Z</time>
      </trkpt>
      <trkpt lat="39.86067282288982" lon="116.46989358182216">
        <time>2026-07-17T23:37:13.295000Z</time>
      </trkpt>
      <trkpt lat="39.86072487759417" lon="116.46955036648794">
        <time>2026-07-17T23:37:13.295000Z</time>
      </trkpt>
      <trkpt lat="39.86072036899802" lon="116.46936471431793">
        <time>2026-07-17T23:37:13.295000Z</time>
      </trkpt>
      <trkpt lat="39.860809222391865" lon="116.4689472384252">
        <time>2026-07-17T23:37:13.295000Z</time>
      </trkpt>
      <trkpt lat="39.860846538612506" lon="116.46869735901817">
        <time>2026-07-17T23:37:13.295000Z</time>
      </trkpt>
      <trkpt lat="39.86089309319706" lon="116.46853478490155">
        <time>2026-07-17T23:37:13.295000Z</time>
      </trkpt>
      <trkpt lat="39.86093590433751" lon="116.46809825681567">
        <time>2026-07-17T23:37:13.295000Z</time>
      </trkpt>
      <trkpt lat="39.861009785553556" lon="116.4676868167108">
        <time>2026-07-17T23:37:13.295000Z</time>
      </trkpt>
      <trkpt lat="39.86106434579069" lon="116.46752524917628">
        <time>2026-07-17T23:37:13.295000Z</time>
      </trkpt>
      <trkpt lat="39.861095393770874" lon="116.46717302521346">
        <time>2026-07-17T23:37:13.295000Z</time>
      </trkpt>
      <trkpt lat="39.861122938339655" lon="116.46700443892925">
        <time>2026-07-17T23:37:13.295000Z</time>
      </trkpt>
      <trkpt lat="39.861132492590194" lon="116.4668388660283">
        <time>2026-07-17T23:37:13.295000Z</time>
      </trkpt>
      <trkpt lat="39.86124560578642" lon="116.4665107209626">
        <time>2026-07-17T23:37:13.295000Z</time>
      </trkpt>
      <trkpt lat="39.86130248040701" lon="116.46609127239579">
        <time>2026-07-17T23:37:27.595000Z</time>
      </trkpt>
      <trkpt lat="39.861339031118376" lon="116.46592369324739">
        <time>2026-07-17T23:37:27.595000Z</time>
      </trkpt>
      <trkpt lat="39.861392913103174" lon="116.46588053867143">
        <time>2026-07-17T23:37:27.695000Z</time>
      </trkpt>
      <trkpt lat="39.86169898737279" lon="116.4659146171653">
        <time>2026-07-17T23:37:27.795000Z</time>
      </trkpt>
      <trkpt lat="39.86189703813596" lon="116.46593767141081">
        <time>2026-07-17T23:37:27.895000Z</time>
      </trkpt>
      <trkpt lat="39.862050920023044" lon="116.46589651115164">
        <time>2026-07-17T23:37:27.995000Z</time>
      </trkpt>
      <trkpt lat="39.86232602014343" lon="116.4659396244923">
        <time>2026-07-17T23:37:28.095000Z</time>
      </trkpt>
      <trkpt lat="39.86264907220715" lon="116.46596567339616">
        <time>2026-07-17T23:37:28.195000Z</time>
      </trkpt>
      <trkpt lat="39.86292010035717" lon="116.46598169444246">
        <time>2026-07-17T23:37:28.395000Z</time>
      </trkpt>
      <trkpt lat="39.86323619306044" lon="116.46602279586148">
        <time>2026-07-17T23:37:28.495000Z</time>
      </trkpt>
      <trkpt lat="39.86356717786112" lon="116.46602375779486">
        <time>2026-07-17T23:37:28.695000Z</time>
      </trkpt>
      <trkpt lat="39.86386336822093" lon="116.466100985694">
        <time>2026-07-17T23:37:28.795000Z</time>
      </trkpt>
      <trkpt lat="39.864184224995476" lon="116.4660537836567">
        <time>2026-07-17T23:37:28.895000Z</time>
      </trkpt>
      <trkpt lat="39.86438924345305" lon="116.46606479580817">
        <time>2026-07-17T23:37:28.995000Z</time>
      </trkpt>
      <trkpt lat="39.86469518148585" lon="116.46604769892615">
        <time>2026-07-17T23:37:29.195000Z</time>
      </trkpt>
      <trkpt lat="39.8649712122502" lon="116.46606472282258">
        <time>2026-07-17T23:37:29.295000Z</time>
      </trkpt>
      <trkpt lat="39.865291270173614" lon="116.46609277907692">
        <time>2026-07-17T23:37:29.395000Z</time>
      </trkpt>
      <trkpt lat="39.865563252973416" lon="116.46609174152339">
        <time>2026-07-17T23:37:29.595000Z</time>
      </trkpt>
      <trkpt lat="39.8658973960211" lon="116.46615190624692">
        <time>2026-07-17T23:37:29.695000Z</time>
      </trkpt>
      <trkpt lat="39.86621944057302" lon="116.46617494509226">
        <time>2026-07-17T23:37:29.895000Z</time>
      </trkpt>
      <trkpt lat="39.866482533903174" lon="116.46621504993003">
        <time>2026-07-17T23:37:29.995000Z</time>
      </trkpt>
      <trkpt lat="39.86653774568236" lon="116.46629531880276">
        <time>2026-07-17T23:37:29.995000Z</time>
      </trkpt>
      <trkpt lat="39.86661376044461" lon="116.46630233341018">
        <time>2026-07-17T23:37:29.995000Z</time>
      </trkpt>
      <trkpt lat="39.86675457850958" lon="116.46623709163886">
        <time>2026-07-17T23:37:30.095000Z</time>
      </trkpt>
      <trkpt lat="39.8670584872941" lon="116.46620895701851">
        <time>2026-07-17T23:37:30.295000Z</time>
      </trkpt>
      <trkpt lat="39.86737946496791" lon="116.46620690986956">
        <time>2026-07-17T23:37:30.395000Z</time>
      </trkpt>
      <trkpt lat="39.86750052833905" lon="116.46623298429655">
        <time>2026-07-17T23:37:30.495000Z</time>
      </trkpt>
      <trkpt lat="39.86767749485837" lon="116.46622393108032">
        <time>2026-07-17T23:37:30.595000Z</time>
      </trkpt>
      <trkpt lat="39.86793472557125" lon="116.46631521257915">
        <time>2026-07-17T23:37:30.695000Z</time>
      </trkpt>
      <trkpt lat="39.86820760383265" lon="116.46627504041047">
        <time>2026-07-17T23:37:30.795000Z</time>
      </trkpt>
      <trkpt lat="39.86848645232219" lon="116.46622382961898">
        <time>2026-07-17T23:37:30.895000Z</time>
      </trkpt>
      <trkpt lat="39.868802387469366" lon="116.46620572795575">
        <time>2026-07-17T23:37:31.095000Z</time>
      </trkpt>
      <trkpt lat="39.86907240821781" lon="116.46621873889136">
        <time>2026-07-17T23:37:31.195000Z</time>
      </trkpt>
      <trkpt lat="39.869406388088336" lon="116.46621769355401">
        <time>2026-07-17T23:37:31.295000Z</time>
      </trkpt>
      <trkpt lat="39.869691405423545" lon="116.46622969916548">
        <time>2026-07-17T23:37:31.495000Z</time>
      </trkpt>
      <trkpt lat="39.869804450521826" lon="116.46624875048299">
        <time>2026-07-17T23:37:31.495000Z</time>
      </trkpt>
      <trkpt lat="39.869608417798624" lon="116.4662327199156">
        <time>2026-07-17T23:37:31.595000Z</time>
      </trkpt>
      <trkpt lat="39.86955948207317" lon="116.46625580534216">
        <time>2026-07-17T23:37:31.595000Z</time>
      </trkpt>
      <trkpt lat="39.869433504748066" lon="116.46626184182959">
        <time>2026-07-17T23:37:31.695000Z</time>
      </trkpt>
      <trkpt lat="39.86913133806757" lon="116.46619364534283">
        <time>2026-07-17T23:37:31.795000Z</time>
      </trkpt>
      <trkpt lat="39.86892823872555" lon="116.46615252955677">
        <time>2026-07-17T23:37:31.895000Z</time>
      </trkpt>
      <trkpt lat="39.8685442561595" lon="116.46615157427468">
        <time>2026-07-17T23:37:32.095000Z</time>
      </trkpt>
      <trkpt lat="39.86822125970649" lon="116.46614659756382">
        <time>2026-07-17T23:37:32.195000Z</time>
      </trkpt>
      <trkpt lat="39.86810220965755" lon="116.46612554016471">
        <time>2026-07-17T23:37:32.295000Z</time>
      </trkpt>
      <trkpt lat="39.867787601769834" lon="116.46626606205537">
        <time>2026-07-18T00:09:23.595000Z</time>
      </trkpt>
      <trkpt lat="39.867665651143504" lon="116.46628213251871">
        <time>2026-07-18T00:09:29.695000Z</time>
      </trkpt>
      <trkpt lat="39.86732550001239" lon="116.46621895799423">
        <time>2026-07-18T00:09:44.995000Z</time>
      </trkpt>
      <trkpt lat="39.8670304458547" lon="116.4661929053989">
        <time>2026-07-18T00:09:57.095000Z</time>
      </trkpt>
      <trkpt lat="39.86675946288253" lon="116.46619394283069">
        <time>2026-07-18T00:10:09.095000Z</time>
      </trkpt>
      <trkpt lat="39.866606425394416" lon="116.466176903449">
        <time>2026-07-18T00:10:15.095000Z</time>
      </trkpt>
      <trkpt lat="39.86647545379963" lon="116.46618494743868">
        <time>2026-07-18T00:10:21.095000Z</time>
      </trkpt>
      <trkpt lat="39.86636836561674" lon="116.46614984029088">
        <time>2026-07-18T00:10:27.195000Z</time>
      </trkpt>
      <trkpt lat="39.86609531309509" lon="116.46612478842925">
        <time>2026-07-18T00:10:39.195000Z</time>
      </trkpt>
      <trkpt lat="39.865911279994414" lon="116.46610875641063">
        <time>2026-07-18T00:10:48.195000Z</time>
      </trkpt>
      <trkpt lat="39.865734139349215" lon="116.46605258583446">
        <time>2026-07-18T00:10:57.195000Z</time>
      </trkpt>
      <trkpt lat="39.865432053661046" lon="116.46601449294677">
        <time>2026-07-18T00:11:09.195000Z</time>
      </trkpt>
      <trkpt lat="39.8652319599027" lon="116.4659753838674">
        <time>2026-07-18T00:11:18.195000Z</time>
      </trkpt>
      <trkpt lat="39.865088034546886" lon="116.46600048792274">
        <time>2026-07-18T00:11:24.195000Z</time>
      </trkpt>
      <trkpt lat="39.86475992090752" lon="116.4659513605215">
        <time>2026-07-18T00:11:39.195000Z</time>
      </trkpt>
      <trkpt lat="39.86449281210821" lon="116.46590523584909">
        <time>2026-07-18T00:11:51.195000Z</time>
      </trkpt>
      <trkpt lat="39.864208840743416" lon="116.46591028865384">
        <time>2026-07-18T00:12:03.195000Z</time>
      </trkpt>
      <trkpt lat="39.863979853062425" lon="116.46591031737252">
        <time>2026-07-18T00:12:15.295000Z</time>
      </trkpt>
      <trkpt lat="39.86388994890826" lon="116.46594444555589">
        <time>2026-07-18T00:12:18.295000Z</time>
      </trkpt>
      <trkpt lat="39.86384320048274" lon="116.46603777135718">
        <time>2026-07-18T00:12:21.295000Z</time>
      </trkpt>
      <trkpt lat="39.86381583483194" lon="116.46627458772787">
        <time>2026-07-18T00:12:27.295000Z</time>
      </trkpt>
      <trkpt lat="39.863768526153486" lon="116.46615819389218">
        <time>2026-07-18T00:12:33.395000Z</time>
      </trkpt>
      <trkpt lat="39.863778297760746" lon="116.46607289996419">
        <time>2026-07-18T00:12:36.395000Z</time>
      </trkpt>
      <trkpt lat="39.863738125783776" lon="116.46600768130288">
        <time>2026-07-18T00:12:39.495000Z</time>
      </trkpt>
      <trkpt lat="39.86359102927667" lon="116.465968565586">
        <time>2026-07-18T00:12:45.595000Z</time>
      </trkpt>
      <trkpt lat="39.86325102354306" lon="116.46595957727097">
        <time>2026-07-18T00:13:00.895000Z</time>
      </trkpt>
      <trkpt lat="39.86307386984994" lon="116.46589838974066">
        <time>2026-07-18T00:13:09.995000Z</time>
      </trkpt>
      <trkpt lat="39.86274580735195" lon="116.46586832776647">
        <time>2026-07-18T00:13:25.095000Z</time>
      </trkpt>
      <trkpt lat="39.862400796650725" lon="116.46585733323106">
        <time>2026-07-18T00:13:40.195000Z</time>
      </trkpt>
      <trkpt lat="39.86212283584104" lon="116.46586639901905">
        <time>2026-07-18T00:13:52.195000Z</time>
      </trkpt>
      <trkpt lat="39.86178279016466" lon="116.46584235918985">
        <time>2026-07-18T00:14:07.195000Z</time>
      </trkpt>
      <trkpt lat="39.861476806863976" lon="116.46584239756189">
        <time>2026-07-18T00:14:22.195000Z</time>
      </trkpt>
      <trkpt lat="39.8612808550222" lon="116.4658564702421">
        <time>2026-07-18T00:14:31.195000Z</time>
      </trkpt>
      <trkpt lat="39.86158599353909" lon="116.46591463133497">
        <time>2026-07-18T00:14:46.195000Z</time>
      </trkpt>
      <trkpt lat="39.86190504573024" lon="116.4659406807227">
        <time>2026-07-18T00:15:01.195000Z</time>
      </trkpt>
      <trkpt lat="39.86216495128216" lon="116.46591054497974">
        <time>2026-07-18T00:15:13.195000Z</time>
      </trkpt>
      <trkpt lat="39.862493051224725" lon="116.46595465512976">
        <time>2026-07-18T00:15:28.195000Z</time>
      </trkpt>
      <trkpt lat="39.86281709254959" lon="116.4659766901611">
        <time>2026-07-18T00:15:43.295000Z</time>
      </trkpt>
      <trkpt lat="39.8631381715755" lon="116.46601277374505">
        <time>2026-07-18T00:15:58.495000Z</time>
      </trkpt>
      <trkpt lat="39.863446221895174" lon="116.46603782114114">
        <time>2026-07-18T00:16:13.695000Z</time>
      </trkpt>
      <trkpt lat="39.863746358444075" lon="116.4660949797091">
        <time>2026-07-18T00:16:25.995000Z</time>
      </trkpt>
      <trkpt lat="39.86389637180414" lon="116.46610298844158">
        <time>2026-07-18T00:16:32.095000Z</time>
      </trkpt>
      <trkpt lat="39.86416622864262" lon="116.46605478935555">
        <time>2026-07-18T00:16:44.195000Z</time>
      </trkpt>
      <trkpt lat="39.864492227205375" lon="116.46606076912427">
        <time>2026-07-18T00:16:59.195000Z</time>
      </trkpt>
      <trkpt lat="39.864779187700556" lon="116.46605170215804">
        <time>2026-07-18T00:17:14.195000Z</time>
      </trkpt>
      <trkpt lat="39.865083227694356" lon="116.46607273631327">
        <time>2026-07-18T00:17:26.295000Z</time>
      </trkpt>
      <trkpt lat="39.86522133020175" lon="116.46611386015775">
        <time>2026-07-18T00:17:32.295000Z</time>
      </trkpt>
      <trkpt lat="39.86552925746731" lon="116.46609274922994">
        <time>2026-07-18T00:17:47.395000Z</time>
      </trkpt>
      <trkpt lat="39.86585739546946" lon="116.4661509078189">
        <time>2026-07-18T00:18:02.595000Z</time>
      </trkpt>
      <trkpt lat="39.86606139533849" lon="116.46615489601314">
        <time>2026-07-18T00:18:11.895000Z</time>
      </trkpt>
      <trkpt lat="39.866326536818676" lon="116.4662130626015">
        <time>2026-07-18T00:18:24.095000Z</time>
      </trkpt>
      <trkpt lat="39.866394527842516" lon="116.46621104718191">
        <time>2026-07-18T00:18:27.195000Z</time>
      </trkpt>
      <trkpt lat="39.86648359556106" lon="116.46623812907082">
        <time>2026-07-18T00:18:30.195000Z</time>
      </trkpt>
      <trkpt lat="39.866525816125815" lon="116.46632140996999">
        <time>2026-07-18T00:18:33.195000Z</time>
      </trkpt>
      <trkpt lat="39.86653510039965" lon="116.46642777457596">
        <time>2026-07-18T00:18:36.195000Z</time>
      </trkpt>
      <trkpt lat="39.866599298629254" lon="116.46650302550708">
        <time>2026-07-18T00:18:39.195000Z</time>
      </trkpt>
      <trkpt lat="39.866666214412895" lon="116.4664729135049">
        <time>2026-07-18T00:18:42.195000Z</time>
      </trkpt>
      <trkpt lat="39.86670591400647" lon="116.46636152537543">
        <time>2026-07-18T00:18:45.195000Z</time>
      </trkpt>
      <trkpt lat="39.86670464556479" lon="116.4662611806366">
        <time>2026-07-18T00:18:48.195000Z</time>
      </trkpt>
      <trkpt lat="39.86675249276073" lon="116.4662049816106">
        <time>2026-07-18T00:18:51.195000Z</time>
      </trkpt>
      <trkpt lat="39.86700053060493" lon="116.46622401598401">
        <time>2026-07-18T00:19:03.195000Z</time>
      </trkpt>
      <trkpt lat="39.86726242017989" lon="116.46618785907617">
        <time>2026-07-18T00:19:15.195000Z</time>
      </trkpt>
      <trkpt lat="39.86753450508053" lon="116.46622495246075">
        <time>2026-07-18T00:19:27.195000Z</time>
      </trkpt>
      <trkpt lat="39.8677064933302" lon="116.46622392744332">
        <time>2026-07-18T00:19:36.395000Z</time>
      </trkpt>
      <trkpt lat="39.86785761150394" lon="116.4662710705143">
        <time>2026-07-18T00:19:42.395000Z</time>
      </trkpt>
      <trkpt lat="39.86820963057019" lon="116.46628507463845">
        <time>2026-07-18T00:19:57.395000Z</time>
      </trkpt>
      <trkpt lat="39.86834358863745" lon="116.46627201301096">
        <time>2026-07-18T00:20:03.495000Z</time>
      </trkpt>
      <trkpt lat="39.868485471156376" lon="116.46623085386976">
        <time>2026-07-18T00:20:09.495000Z</time>
      </trkpt>
      <trkpt lat="39.86877751220284" lon="116.4662518896319">
        <time>2026-07-18T00:20:24.595000Z</time>
      </trkpt>
      <trkpt lat="39.869021424299554" lon="116.46622376251958">
        <time>2026-07-18T00:20:36.695000Z</time>
      </trkpt>
      <trkpt lat="39.869229426843035" lon="116.46622875366435">
        <time>2026-07-18T00:20:45.795000Z</time>
      </trkpt>
      <trkpt lat="39.86936334204412" lon="116.46619963691876">
        <time>2026-07-18T00:20:51.995000Z</time>
      </trkpt>
      <trkpt lat="39.86968146229576" lon="116.4662507728044">
        <time>2026-07-18T00:21:07.095000Z</time>
      </trkpt>
      <trkpt lat="39.86937830102623" lon="116.46618458335371">
        <time>2026-07-18T00:21:31.195000Z</time>
      </trkpt>
      <trkpt lat="39.869095229991075" lon="116.4661525086109">
        <time>2026-07-18T00:21:43.195000Z</time>
      </trkpt>
      <trkpt lat="39.868964279748106" lon="116.46616858015683">
        <time>2026-07-18T00:21:49.195000Z</time>
      </trkpt>
      <trkpt lat="39.86873021423503" lon="116.46613950961462">
        <time>2026-07-18T00:22:01.295000Z</time>
      </trkpt>
      <trkpt lat="39.86843832071681" lon="116.46617366335357">
        <time>2026-07-18T00:22:13.295000Z</time>
      </trkpt>
      <trkpt lat="39.86824127474415" lon="116.46615261572167">
        <time>2026-07-18T00:22:22.295000Z</time>
      </trkpt>
      <trkpt lat="39.86817530234586" lon="116.46616165500058">
        <time>2026-07-18T00:22:25.295000Z</time>
      </trkpt>
      <trkpt lat="39.867920707513306" lon="116.4663081901939">
        <time>2026-07-18T00:22:37.395000Z</time>
      </trkpt>
      <trkpt lat="39.86761671547121" lon="116.4663052179728">
        <time>2026-07-18T00:22:52.495000Z</time>
      </trkpt>
      <trkpt lat="39.86739960343997" lon="116.46625908658325">
        <time>2026-07-18T00:23:01.595000Z</time>
      </trkpt>
      <trkpt lat="39.86731750580072" lon="116.46622096588996">
        <time>2026-07-18T00:23:04.695000Z</time>
      </trkpt>
      <trkpt lat="39.867043488087425" lon="116.46620895889967">
        <time>2026-07-18T00:23:16.895000Z</time>
      </trkpt>
      <trkpt lat="39.86674754399919" lon="116.46622404771252">
        <time>2026-07-18T00:23:29.095000Z</time>
      </trkpt>
      <trkpt lat="39.86667457738219" lon="116.46623509477823">
        <time>2026-07-18T00:23:32.095000Z</time>
      </trkpt>
      <trkpt lat="39.86664676406463" lon="116.46630433616869">
        <time>2026-07-18T00:23:35.095000Z</time>
      </trkpt>
      <trkpt lat="39.866666542570506" lon="116.46659533496452">
        <time>2026-07-18T00:23:44.195000Z</time>
      </trkpt>
      <trkpt lat="39.86665670191629" lon="116.46665454018131">
        <time>2026-07-18T00:23:47.195000Z</time>
      </trkpt>
      <trkpt lat="39.86658783753" lon="116.46670371829605">
        <time>2026-07-18T00:23:50.195000Z</time>
      </trkpt>
      <trkpt lat="39.86658553879158" lon="116.46659233475258">
        <time>2026-07-18T00:23:53.195000Z</time>
      </trkpt>
      <trkpt lat="39.86654701914812" lon="116.46639766953079">
        <time>2026-07-18T00:23:59.195000Z</time>
      </trkpt>
      <trkpt lat="39.866541571018075" lon="116.46623009422476">
        <time>2026-07-18T00:24:05.195000Z</time>
      </trkpt>
      <trkpt lat="39.86649640977353" lon="116.46616888968477">
        <time>2026-07-18T00:24:08.195000Z</time>
      </trkpt>
      <trkpt lat="39.86642936505991" lon="116.46615083608516">
        <time>2026-07-18T00:24:11.195000Z</time>
      </trkpt>
      <trkpt lat="39.86613548526958" lon="116.46619000730378">
        <time>2026-07-18T00:24:23.195000Z</time>
      </trkpt>
      <trkpt lat="39.86581626360987" lon="116.46610074078019">
        <time>2026-07-18T00:24:38.195000Z</time>
      </trkpt>
      <trkpt lat="39.86552109980497" lon="116.46603354716112">
        <time>2026-07-18T00:24:50.195000Z</time>
      </trkpt>
      <trkpt lat="39.86518705067862" lon="116.46600850302947">
        <time>2026-07-18T00:25:05.195000Z</time>
      </trkpt>
      <trkpt lat="39.86490793975096" lon="116.4659613763504">
        <time>2026-07-18T00:25:17.195000Z</time>
      </trkpt>
      <trkpt lat="39.8646368900254" lon="116.46593732780607">
        <time>2026-07-18T00:25:29.195000Z</time>
      </trkpt>
      <trkpt lat="39.8643458976138" lon="116.46593435398519">
        <time>2026-07-18T00:25:41.195000Z</time>
      </trkpt>
      <trkpt lat="39.86401686980406" lon="116.46591733679682">
        <time>2026-07-18T00:25:56.195000Z</time>
      </trkpt>
      <trkpt lat="39.86373198954557" lon="116.46595650663507">
        <time>2026-07-18T00:26:08.195000Z</time>
      </trkpt>
      <trkpt lat="39.863419984963954" lon="116.46594851825076">
        <time>2026-07-18T00:26:23.195000Z</time>
      </trkpt>
      <trkpt lat="39.86311377137057" lon="116.4658622609991">
        <time>2026-07-18T00:26:38.195000Z</time>
      </trkpt>
      <trkpt lat="39.86297669052215" lon="116.46582916479603">
        <time>2026-07-18T00:26:44.195000Z</time>
      </trkpt>
      <trkpt lat="39.86265474808993" lon="116.46584425671084">
        <time>2026-07-18T00:26:59.195000Z</time>
      </trkpt>
      <trkpt lat="39.86232774444939" lon="116.46583627023229">
        <time>2026-07-18T00:27:14.195000Z</time>
      </trkpt>
      <trkpt lat="39.86204376792114" lon="116.46583931615329">
        <time>2026-07-18T00:27:26.295000Z</time>
      </trkpt>
      <trkpt lat="39.86171779905858" lon="116.4658443742123">
        <time>2026-07-18T00:27:41.295000Z</time>
      </trkpt>
      <trkpt lat="39.86138576904561" lon="116.46582635400546">
        <time>2026-07-18T00:27:56.295000Z</time>
      </trkpt>
      <trkpt lat="39.86131380239902" lon="116.46583740082356">
        <time>2026-07-18T00:27:59.395000Z</time>
      </trkpt>
      <trkpt lat="39.86125799272817" lon="116.46590764840134">
        <time>2026-07-18T00:28:02.395000Z</time>
      </trkpt>
      <trkpt lat="39.86122090057212" lon="116.46624681657981">
        <time>2026-07-18T00:28:11.495000Z</time>
      </trkpt>
      <trkpt lat="39.86114605798234" lon="116.46667730717652">
        <time>2026-07-18T00:28:26.695000Z</time>
      </trkpt>
      <trkpt lat="39.861141279148534" lon="116.46675959145634">
        <time>2026-07-18T00:28:29.795000Z</time>
      </trkpt>
      <trkpt lat="39.861064890219396" lon="116.46698538033642">
        <time>2026-07-18T00:28:38.795000Z</time>
      </trkpt>
      <trkpt lat="39.86100505906188" lon="116.46741788433785">
        <time>2026-07-18T00:28:54.095000Z</time>
      </trkpt>
      <trkpt lat="39.8609650269701" lon="116.46777512906793">
        <time>2026-07-18T00:29:06.095000Z</time>
      </trkpt>
      <trkpt lat="39.8608801471097" lon="116.46818657146426">
        <time>2026-07-18T00:29:21.195000Z</time>
      </trkpt>
      <trkpt lat="39.8608302086771" lon="116.46857593654288">
        <time>2026-07-18T00:29:33.195000Z</time>
      </trkpt>
      <trkpt lat="39.86079368651397" lon="116.46875055169916">
        <time>2026-07-18T00:29:42.195000Z</time>
      </trkpt>
      <trkpt lat="39.860876654499066" lon="116.468373222828">
        <time>2026-07-18T00:29:54.295000Z</time>
      </trkpt>
      <trkpt lat="39.860947710400204" lon="116.46802700725057">
        <time>2026-07-18T00:30:06.395000Z</time>
      </trkpt>
      <trkpt lat="39.860964391193974" lon="116.46790959662087">
        <time>2026-07-18T00:30:09.395000Z</time>
      </trkpt>
      <trkpt lat="39.86104745246821" lon="116.46756438705334">
        <time>2026-07-18T00:30:21.395000Z</time>
      </trkpt>
      <trkpt lat="39.86108154056167" lon="116.467227214445">
        <time>2026-07-18T00:30:33.495000Z</time>
      </trkpt>
      <trkpt lat="39.861133835154135" lon="116.46696630583489">
        <time>2026-07-18T00:30:42.695000Z</time>
      </trkpt>
      <trkpt lat="39.861148383875275" lon="116.46679872554954">
        <time>2026-07-18T00:30:48.895000Z</time>
      </trkpt>
      <trkpt lat="39.86123271408699" lon="116.46655086076092">
        <time>2026-07-18T00:30:57.995000Z</time>
      </trkpt>
      <trkpt lat="39.86131249862144" lon="116.46609829523968">
        <time>2026-07-18T00:31:13.095000Z</time>
      </trkpt>
      <trkpt lat="39.86134405493337" lon="116.46593272356267">
        <time>2026-07-18T00:31:19.095000Z</time>
      </trkpt>
      <trkpt lat="39.86139891812617" lon="116.46588254479256">
        <time>2026-07-18T00:31:22.195000Z</time>
      </trkpt>
      <trkpt lat="39.86171305887405" lon="116.46594170823694">
        <time>2026-07-18T00:31:37.195000Z</time>
      </trkpt>
      <trkpt lat="39.86205002980306" lon="116.46593765222521">
        <time>2026-07-18T00:31:52.195000Z</time>
      </trkpt>
      <trkpt lat="39.86232903871807" lon="116.46594664818547">
        <time>2026-07-18T00:32:04.195000Z</time>
      </trkpt>
      <trkpt lat="39.86265807975096" lon="116.46596868258503">
        <time>2026-07-18T00:32:19.195000Z</time>
      </trkpt>
      <trkpt lat="39.86293011320418" lon="116.4659867103866">
        <time>2026-07-18T00:32:31.195000Z</time>
      </trkpt>
      <trkpt lat="39.86324823795078" lon="116.46603985285233">
        <time>2026-07-18T00:32:46.195000Z</time>
      </trkpt>
      <trkpt lat="39.86352727914328" lon="116.4660608901365">
        <time>2026-07-18T00:32:58.195000Z</time>
      </trkpt>
      <trkpt lat="39.863674298008064" lon="116.46607090612162">
        <time>2026-07-18T00:33:04.195000Z</time>
      </trkpt>
      <trkpt lat="39.8637393534611" lon="116.46609297370159">
        <time>2026-07-18T00:33:07.195000Z</time>
      </trkpt>
      <trkpt lat="39.863861556004736" lon="116.4661712270096">
        <time>2026-07-18T00:33:13.195000Z</time>
      </trkpt>
      <trkpt lat="39.863922482998454" lon="116.46614512980659">
        <time>2026-07-18T00:33:16.195000Z</time>
      </trkpt>
      <trkpt lat="39.8640372248649" lon="116.46605079176625">
        <time>2026-07-18T00:33:22.195000Z</time>
      </trkpt>
      <trkpt lat="39.86434718408596" lon="116.46604172191896">
        <time>2026-07-18T00:33:37.195000Z</time>
      </trkpt>
      <trkpt lat="39.86454824295677" lon="116.4660677861948">
        <time>2026-07-18T00:33:46.195000Z</time>
      </trkpt>
      <trkpt lat="39.864874241559896" lon="116.46607376596526">
        <time>2026-07-18T00:34:01.195000Z</time>
      </trkpt>
      <trkpt lat="39.86521732505438" lon="116.46611185377292">
        <time>2026-07-18T00:34:16.195000Z</time>
      </trkpt>
      <trkpt lat="39.86554929392436" lon="116.46610679492227">
        <time>2026-07-18T00:34:31.195000Z</time>
      </trkpt>
      <trkpt lat="39.86589043393609" lon="116.46616595534782">
        <time>2026-07-18T00:34:46.295000Z</time>
      </trkpt>
      <trkpt lat="39.866217513099926" lon="116.46620203836666">
        <time>2026-07-18T00:35:01.395000Z</time>
      </trkpt>
      <trkpt lat="39.86641946750046" lon="116.46618896824269">
        <time>2026-07-18T00:35:10.395000Z</time>
      </trkpt>
    </trkseg>
  </trk>
</gpx>