<?xml version="1.0" encoding="UTF-8"?>
<gpx xmlns="http://www.topografix.com/GPX/1/1" xmlns:gpxtpx="http://www.garmin.com/xmlschemas/TrackPointExtension/v1" xmlns:xsi="http://www.w3.org/2001/XMLSchema-instance" xsi:schemaLocation="http://www.topografix.com/GPX/1/1 http://www.topografix.com/GPX/1/1/gpx.xsd" version="1.1" creator="gpx.py -- https://github.com/tkrajina/gpxpy">
  <trk>
    <name>gpx from keep</name>
    <type>Run</type>
    <trkseg>
      <trkpt lat="39.86784334272478" lon="116.46691629486712">
        <time>2026-08-15T23:16:18.691000Z</time>
      </trkpt>
      <trkpt lat="39.86782272987753" lon="116.4670597932269">
        <time>2026-08-15T23:16:24.791000Z</time>
      </trkpt>
      <trkpt lat="39.8677468581568" lon="116.4671059623336">
        <time>2026-08-15T23:16:27.791000Z</time>
      </trkpt>
      <trkpt lat="39.867558832939885" lon="116.46709294079949">
        <time>2026-08-15T23:16:33.891000Z</time>
      </trkpt>
      <trkpt lat="39.86750573307959" lon="116.46705481562792">
        <time>2026-08-15T23:16:36.891000Z</time>
      </trkpt>
      <trkpt lat="39.86749945260213" lon="116.46695045581362">
        <time>2026-08-15T23:16:39.891000Z</time>
      </trkpt>
      <trkpt lat="39.86760049050418" lon="116.46659421439176">
        <time>2026-08-15T23:16:49.191000Z</time>
      </trkpt>
      <trkpt lat="39.86759571120878" lon="116.46630321370941">
        <time>2026-08-15T23:16:58.191000Z</time>
      </trkpt>
      <trkpt lat="39.86748062600462" lon="116.46626911089916">
        <time>2026-08-15T23:17:04.191000Z</time>
      </trkpt>
      <trkpt lat="39.86715171585518" lon="116.46629624525205">
        <time>2026-08-15T23:17:16.191000Z</time>
      </trkpt>
      <trkpt lat="39.867027735835244" lon="116.4663012780441">
        <time>2026-08-15T23:17:22.191000Z</time>
      </trkpt>
      <trkpt lat="39.86694259538935" lon="116.46624710253006">
        <time>2026-08-15T23:17:25.191000Z</time>
      </trkpt>
      <trkpt lat="39.86673566539361" lon="116.46626920432826">
        <time>2026-08-15T23:17:34.191000Z</time>
      </trkpt>
      <trkpt lat="39.866672773425805" lon="116.46630834670222">
        <time>2026-08-15T23:17:37.191000Z</time>
      </trkpt>
      <trkpt lat="39.86664604614216" lon="116.46640969852962">
        <time>2026-08-15T23:17:40.191000Z</time>
      </trkpt>
      <trkpt lat="39.866663779634976" lon="116.46668363959046">
        <time>2026-08-15T23:17:49.191000Z</time>
      </trkpt>
      <trkpt lat="39.86660538115792" lon="116.46690641543859">
        <time>2026-08-15T23:17:58.191000Z</time>
      </trkpt>
      <trkpt lat="39.8666183856183" lon="116.46727970451191">
        <time>2026-08-15T23:18:10.191000Z</time>
      </trkpt>
      <trkpt lat="39.86659210213573" lon="116.4675446259738">
        <time>2026-08-15T23:18:19.191000Z</time>
      </trkpt>
      <trkpt lat="39.866593087779016" lon="116.46790889125404">
        <time>2026-08-15T23:18:31.191000Z</time>
      </trkpt>
      <trkpt lat="39.866588049222905" lon="116.4682631256374">
        <time>2026-08-15T23:18:43.291000Z</time>
      </trkpt>
      <trkpt lat="39.86652247556025" lon="116.46841867657496">
        <time>2026-08-15T23:18:49.291000Z</time>
      </trkpt>
      <trkpt lat="39.866513989557355" lon="116.46860733670759">
        <time>2026-08-15T23:18:55.291000Z</time>
      </trkpt>
      <trkpt lat="39.86655075105565" lon="116.46888731179675">
        <time>2026-08-15T23:19:04.291000Z</time>
      </trkpt>
      <trkpt lat="39.86654679909829" lon="116.46927065674808">
        <time>2026-08-15T23:19:16.391000Z</time>
      </trkpt>
      <trkpt lat="39.866553838435884" lon="116.46964998970216">
        <time>2026-08-15T23:19:28.491000Z</time>
      </trkpt>
      <trkpt lat="39.86653286272339" lon="116.47002230475752">
        <time>2026-08-15T23:19:40.691000Z</time>
      </trkpt>
      <trkpt lat="39.866543320838716" lon="116.47018889172328">
        <time>2026-08-15T23:19:46.891000Z</time>
      </trkpt>
      <trkpt lat="39.86653333451319" lon="116.47055619226458">
        <time>2026-08-15T23:19:58.991000Z</time>
      </trkpt>
      <trkpt lat="39.86649483852871" lon="116.47073784076194">
        <time>2026-08-15T23:20:04.991000Z</time>
      </trkpt>
      <trkpt lat="39.86645093844995" lon="116.47113425353547">
        <time>2026-08-15T23:20:17.091000Z</time>
      </trkpt>
      <trkpt lat="39.86644422548846" lon="116.47123762190982">
        <time>2026-08-15T23:20:20.091000Z</time>
      </trkpt>
      <trkpt lat="39.866459486480615" lon="116.47133195562435">
        <time>2026-08-15T23:20:23.091000Z</time>
      </trkpt>
      <trkpt lat="39.866511996624915" lon="116.47151660658344">
        <time>2026-08-15T23:20:29.091000Z</time>
      </trkpt>
      <trkpt lat="39.866513027067214" lon="116.47188692731608">
        <time>2026-08-15T23:20:41.091000Z</time>
      </trkpt>
      <trkpt lat="39.866527078869474" lon="116.47226427448871">
        <time>2026-08-15T23:20:53.091000Z</time>
      </trkpt>
      <trkpt lat="39.86651215435949" lon="116.47264865347114">
        <time>2026-08-15T23:21:05.091000Z</time>
      </trkpt>
      <trkpt lat="39.866509166990475" lon="116.4730099510375">
        <time>2026-08-15T23:21:17.191000Z</time>
      </trkpt>
      <trkpt lat="39.86649721051814" lon="116.47338128851193">
        <time>2026-08-15T23:21:29.191000Z</time>
      </trkpt>
      <trkpt lat="39.86650726647826" lon="116.4737566404617">
        <time>2026-08-15T23:21:41.191000Z</time>
      </trkpt>
      <trkpt lat="39.86651329944451" lon="116.47412296300072">
        <time>2026-08-15T23:21:53.191000Z</time>
      </trkpt>
      <trkpt lat="39.86652785442289" lon="116.4743196728345">
        <time>2026-08-15T23:21:59.191000Z</time>
      </trkpt>
      <trkpt lat="39.86649365975636" lon="116.47460370594003">
        <time>2026-08-15T23:22:08.191000Z</time>
      </trkpt>
      <trkpt lat="39.86650372874562" lon="116.4749810739331">
        <time>2026-08-15T23:22:20.191000Z</time>
      </trkpt>
      <trkpt lat="39.86649477240217" lon="116.47534841038775">
        <time>2026-08-15T23:22:32.291000Z</time>
      </trkpt>
      <trkpt lat="39.86648660370447" lon="116.47564047483601">
        <time>2026-08-15T23:22:41.391000Z</time>
      </trkpt>
      <trkpt lat="39.86644318923068" lon="116.47584522665251">
        <time>2026-08-15T23:22:47.491000Z</time>
      </trkpt>
      <trkpt lat="39.866457259317954" lon="116.47622059516958">
        <time>2026-08-15T23:22:59.691000Z</time>
      </trkpt>
      <trkpt lat="39.866459311973934" lon="116.47658894187332">
        <time>2026-08-15T23:23:11.891000Z</time>
      </trkpt>
      <trkpt lat="39.866450410273536" lon="116.47697234739653">
        <time>2026-08-15T23:23:24.091000Z</time>
      </trkpt>
      <trkpt lat="39.86643852805327" lon="116.47736177779679">
        <time>2026-08-15T23:23:36.191000Z</time>
      </trkpt>
      <trkpt lat="39.86643760976779" lon="116.4777381612386">
        <time>2026-08-15T23:23:48.191000Z</time>
      </trkpt>
      <trkpt lat="39.86646466005877" lon="116.47810350270966">
        <time>2026-08-15T23:24:00.191000Z</time>
      </trkpt>
      <trkpt lat="39.86645576322461" lon="116.47848591363505">
        <time>2026-08-15T23:24:12.191000Z</time>
      </trkpt>
      <trkpt lat="39.86643684555713" lon="116.47886029829249">
        <time>2026-08-15T23:24:24.191000Z</time>
      </trkpt>
      <trkpt lat="39.866443945671094" lon="116.47924070399515">
        <time>2026-08-15T23:24:36.291000Z</time>
      </trkpt>
      <trkpt lat="39.86643699297331" lon="116.47960204280417">
        <time>2026-08-15T23:24:48.291000Z</time>
      </trkpt>
      <trkpt lat="39.86646249818805" lon="116.47977668693262">
        <time>2026-08-15T23:24:54.391000Z</time>
      </trkpt>
      <trkpt lat="39.86645254790857" lon="116.48013802872461">
        <time>2026-08-15T23:25:06.491000Z</time>
      </trkpt>
      <trkpt lat="39.86636932851588" lon="116.4804050307132">
        <time>2026-08-15T23:25:15.591000Z</time>
      </trkpt>
      <trkpt lat="39.86634241968682" lon="116.48077942608371">
        <time>2026-08-15T23:25:27.791000Z</time>
      </trkpt>
      <trkpt lat="39.866342543138806" lon="116.48116486094165">
        <time>2026-08-15T23:25:39.891000Z</time>
      </trkpt>
      <trkpt lat="39.8663446152757" lon="116.48153222994902">
        <time>2026-08-15T23:25:52.091000Z</time>
      </trkpt>
      <trkpt lat="39.86633290616996" lon="116.48163160205361">
        <time>2026-08-15T23:25:55.091000Z</time>
      </trkpt>
      <trkpt lat="39.86628313171839" lon="116.4817078928691">
        <time>2026-08-15T23:25:58.091000Z</time>
      </trkpt>
      <trkpt lat="39.86619730349758" lon="116.4817651170675">
        <time>2026-08-15T23:26:01.091000Z</time>
      </trkpt>
      <trkpt lat="39.865886149912114" lon="116.48170693859538">
        <time>2026-08-15T23:26:13.191000Z</time>
      </trkpt>
      <trkpt lat="39.86560598300568" lon="116.48164474132325">
        <time>2026-08-15T23:26:25.191000Z</time>
      </trkpt>
      <trkpt lat="39.86531282858488" lon="116.48158656069087">
        <time>2026-08-15T23:26:37.191000Z</time>
      </trkpt>
      <trkpt lat="39.86502370918748" lon="116.48154042451519">
        <time>2026-08-15T23:26:49.191000Z</time>
      </trkpt>
      <trkpt lat="39.864724625546486" lon="116.48150633452117">
        <time>2026-08-15T23:27:01.191000Z</time>
      </trkpt>
      <trkpt lat="39.864459370151636" lon="116.48141402327923">
        <time>2026-08-15T23:27:13.291000Z</time>
      </trkpt>
      <trkpt lat="39.86417432101229" lon="116.48139197648635">
        <time>2026-08-15T23:27:25.391000Z</time>
      </trkpt>
      <trkpt lat="39.863882163888476" lon="116.48133279216573">
        <time>2026-08-15T23:27:37.591000Z</time>
      </trkpt>
      <trkpt lat="39.86360904387592" lon="116.48128665413792">
        <time>2026-08-15T23:27:49.791000Z</time>
      </trkpt>
      <trkpt lat="39.863335920980475" lon="116.48123951239687">
        <time>2026-08-15T23:28:01.991000Z</time>
      </trkpt>
      <trkpt lat="39.86302976185761" lon="116.48117932619274">
        <time>2026-08-15T23:28:14.191000Z</time>
      </trkpt>
      <trkpt lat="39.86273364909434" lon="116.4811351985946">
        <time>2026-08-15T23:28:26.191000Z</time>
      </trkpt>
      <trkpt lat="39.8624434892259" lon="116.4810750104742">
        <time>2026-08-15T23:28:38.291000Z</time>
      </trkpt>
      <trkpt lat="39.86216142554997" lon="116.48104794471561">
        <time>2026-08-15T23:28:50.291000Z</time>
      </trkpt>
      <trkpt lat="39.86189233779025" lon="116.48101284745339">
        <time>2026-08-15T23:29:02.491000Z</time>
      </trkpt>
      <trkpt lat="39.86160121908742" lon="116.48096671185212">
        <time>2026-08-15T23:29:14.691000Z</time>
      </trkpt>
      <trkpt lat="39.86132008233762" lon="116.48091455261932">
        <time>2026-08-15T23:29:26.991000Z</time>
      </trkpt>
      <trkpt lat="39.86108697225636" lon="116.48087242478587">
        <time>2026-08-15T23:29:36.091000Z</time>
      </trkpt>
      <trkpt lat="39.86082374982966" lon="116.48079115508746">
        <time>2026-08-15T23:29:48.091000Z</time>
      </trkpt>
      <trkpt lat="39.86055063911632" lon="116.48074802857205">
        <time>2026-08-15T23:30:00.091000Z</time>
      </trkpt>
      <trkpt lat="39.86031167272162" lon="116.48075508449199">
        <time>2026-08-15T23:30:09.091000Z</time>
      </trkpt>
      <trkpt lat="39.86017782334794" lon="116.48080428413847">
        <time>2026-08-15T23:30:15.091000Z</time>
      </trkpt>
      <trkpt lat="39.86010079835303" lon="116.48079425639655">
        <time>2026-08-15T23:30:18.091000Z</time>
      </trkpt>
      <trkpt lat="39.85981063894862" lon="116.48073406853588">
        <time>2026-08-15T23:30:30.091000Z</time>
      </trkpt>
      <trkpt lat="39.85967151217927" lon="116.48068791415477">
        <time>2026-08-15T23:30:36.091000Z</time>
      </trkpt>
      <trkpt lat="39.85961635449947" lon="116.48063271574546">
        <time>2026-08-15T23:30:39.091000Z</time>
      </trkpt>
      <trkpt lat="39.85958284808803" lon="116.48045807072951">
        <time>2026-08-15T23:30:45.091000Z</time>
      </trkpt>
      <trkpt lat="39.85955479038694" lon="116.48009372112921">
        <time>2026-08-15T23:30:57.091000Z</time>
      </trkpt>
      <trkpt lat="39.859488727558016" lon="116.47972636684055">
        <time>2026-08-15T23:31:09.091000Z</time>
      </trkpt>
      <trkpt lat="39.859414501049436" lon="116.47930180363782">
        <time>2026-08-15T23:31:24.091000Z</time>
      </trkpt>
      <trkpt lat="39.859359458461576" lon="116.47894047420762">
        <time>2026-08-15T23:31:36.291000Z</time>
      </trkpt>
      <trkpt lat="39.85929242103734" lon="116.4785801518396">
        <time>2026-08-15T23:31:48.391000Z</time>
      </trkpt>
      <trkpt lat="39.85924341317821" lon="116.47822986611071">
        <time>2026-08-15T23:32:00.491000Z</time>
      </trkpt>
      <trkpt lat="39.859241334966086" lon="116.47785548772255">
        <time>2026-08-15T23:32:12.591000Z</time>
      </trkpt>
      <trkpt lat="39.85925530095874" lon="116.47749616479732">
        <time>2026-08-15T23:32:24.791000Z</time>
      </trkpt>
      <trkpt lat="39.85926150522315" lon="116.47721914684112">
        <time>2026-08-15T23:32:33.991000Z</time>
      </trkpt>
      <trkpt lat="39.85931239464125" lon="116.47683272364975">
        <time>2026-08-15T23:32:46.091000Z</time>
      </trkpt>
      <trkpt lat="39.85934084714086" lon="116.47664202177688">
        <time>2026-08-15T23:32:52.091000Z</time>
      </trkpt>
      <trkpt lat="39.859418855717934" lon="116.47629674924812">
        <time>2026-08-15T23:33:04.091000Z</time>
      </trkpt>
      <trkpt lat="39.85949386617274" lon="116.47595147911098">
        <time>2026-08-15T23:33:16.191000Z</time>
      </trkpt>
      <trkpt lat="39.85957982920109" lon="116.47558914751524">
        <time>2026-08-15T23:33:28.091000Z</time>
      </trkpt>
      <trkpt lat="39.85964984924311" lon="116.47524588956489">
        <time>2026-08-15T23:33:40.191000Z</time>
      </trkpt>
      <trkpt lat="39.85973282197505" lon="116.4748855701819">
        <time>2026-08-15T23:33:52.191000Z</time>
      </trkpt>
      <trkpt lat="39.85979380928864" lon="116.47452927047331">
        <time>2026-08-15T23:34:04.091000Z</time>
      </trkpt>
      <trkpt lat="39.85982505259107" lon="116.47426229996772">
        <time>2026-08-15T23:34:13.191000Z</time>
      </trkpt>
      <trkpt lat="39.85987161911721" lon="116.47410974241069">
        <time>2026-08-15T23:34:19.191000Z</time>
      </trkpt>
      <trkpt lat="39.85994156225748" lon="116.47373638525005">
        <time>2026-08-15T23:34:31.291000Z</time>
      </trkpt>
      <trkpt lat="39.860029602616656" lon="116.47339715142493">
        <time>2026-08-15T23:34:43.291000Z</time>
      </trkpt>
      <trkpt lat="39.860120478598255" lon="116.47299870671236">
        <time>2026-08-15T23:34:58.391000Z</time>
      </trkpt>
      <trkpt lat="39.86020672024335" lon="116.4726572797612">
        <time>2026-08-15T23:35:10.491000Z</time>
      </trkpt>
      <trkpt lat="39.8602884944343" lon="116.4722931554742">
        <time>2026-08-15T23:35:22.591000Z</time>
      </trkpt>
      <trkpt lat="39.86039853353056" lon="116.47195091812081">
        <time>2026-08-15T23:35:34.891000Z</time>
      </trkpt>
      <trkpt lat="39.86046452409783" lon="116.4715896208045">
        <time>2026-08-15T23:35:47.091000Z</time>
      </trkpt>
      <trkpt lat="39.86050506723273" lon="116.47142603299987">
        <time>2026-08-15T23:35:53.091000Z</time>
      </trkpt>
      <trkpt lat="39.860614818742754" lon="116.47133870847671">
        <time>2026-08-15T23:35:59.091000Z</time>
      </trkpt>
      <trkpt lat="39.86066875449128" lon="116.47131662316345">
        <time>2026-08-15T23:36:02.091000Z</time>
      </trkpt>
      <trkpt lat="39.860784795482886" lon="116.47133366935132">
        <time>2026-08-15T23:36:08.091000Z</time>
      </trkpt>
      <trkpt lat="39.86102573212911" lon="116.47131557492393">
        <time>2026-08-15T23:36:20.091000Z</time>
      </trkpt>
      <trkpt lat="39.86106853761527" lon="116.47124632323056">
        <time>2026-08-15T23:36:23.091000Z</time>
      </trkpt>
      <trkpt lat="39.86104427172398" lon="116.47114998371275">
        <time>2026-08-15T23:36:26.091000Z</time>
      </trkpt>
      <trkpt lat="39.86098610242117" lon="116.47108776986806">
        <time>2026-08-15T23:36:29.091000Z</time>
      </trkpt>
      <trkpt lat="39.860682991114416" lon="116.47104164379621">
        <time>2026-08-15T23:36:41.091000Z</time>
      </trkpt>
      <trkpt lat="39.8605209861083" lon="116.47103664624636">
        <time>2026-08-15T23:36:47.091000Z</time>
      </trkpt>
      <trkpt lat="39.860472874764056" lon="116.47099550613483">
        <time>2026-08-15T23:36:50.091000Z</time>
      </trkpt>
      <trkpt lat="39.86045663943906" lon="116.4709102053294">
        <time>2026-08-15T23:36:53.091000Z</time>
      </trkpt>
      <trkpt lat="39.860552665696424" lon="116.47055995160461">
        <time>2026-08-15T23:37:05.091000Z</time>
      </trkpt>
      <trkpt lat="39.86059091592798" lon="116.47028898808757">
        <time>2026-08-15T23:37:14.091000Z</time>
      </trkpt>
      <trkpt lat="39.86066974581442" lon="116.46986548313635">
        <time>2026-08-15T23:37:29.091000Z</time>
      </trkpt>
      <trkpt lat="39.86073571464647" lon="116.46949115687275">
        <time>2026-08-15T23:37:41.091000Z</time>
      </trkpt>
      <trkpt lat="39.860769237150556" lon="116.46931754249879">
        <time>2026-08-15T23:37:47.091000Z</time>
      </trkpt>
      <trkpt lat="39.86082504891911" lon="116.46888401498153">
        <time>2026-08-15T23:38:02.091000Z</time>
      </trkpt>
      <trkpt lat="39.860905073416326" lon="116.46852775885988">
        <time>2026-08-15T23:38:14.091000Z</time>
      </trkpt>
      <trkpt lat="39.86094255811999" lon="116.46833909552053">
        <time>2026-08-15T23:38:20.091000Z</time>
      </trkpt>
      <trkpt lat="39.86093808943877" lon="116.46816649426434">
        <time>2026-08-15T23:38:26.091000Z</time>
      </trkpt>
      <trkpt lat="39.860986936139014" lon="116.4677420112687">
        <time>2026-08-15T23:38:41.091000Z</time>
      </trkpt>
      <trkpt lat="39.861067996023685" lon="116.46739579994568">
        <time>2026-08-15T23:38:53.091000Z</time>
      </trkpt>
      <trkpt lat="39.86108753211907" lon="116.46722420327566">
        <time>2026-08-15T23:38:59.091000Z</time>
      </trkpt>
      <trkpt lat="39.86116559596068" lon="116.4668779969439">
        <time>2026-08-15T23:39:11.091000Z</time>
      </trkpt>
      <trkpt lat="39.86126946465979" lon="116.46645853839848">
        <time>2026-08-15T23:39:26.091000Z</time>
      </trkpt>
      <trkpt lat="39.86132052498764" lon="116.46610832866426">
        <time>2026-08-15T23:39:38.091000Z</time>
      </trkpt>
      <trkpt lat="39.86134005247546" lon="116.4659317206261">
        <time>2026-08-15T23:39:44.091000Z</time>
      </trkpt>
      <trkpt lat="39.8613838814916" lon="116.46586849856116">
        <time>2026-08-15T23:39:47.091000Z</time>
      </trkpt>
      <trkpt lat="39.86145388836755" lon="116.46587250352927">
        <time>2026-08-15T23:39:50.091000Z</time>
      </trkpt>
      <trkpt lat="39.8615779993282" lon="116.46591663921352">
        <time>2026-08-15T23:39:56.091000Z</time>
      </trkpt>
      <trkpt lat="39.86185606178446" lon="116.46594570405937">
        <time>2026-08-15T23:40:08.091000Z</time>
      </trkpt>
      <trkpt lat="39.862141014143845" lon="116.46593362706103">
        <time>2026-08-15T23:40:20.191000Z</time>
      </trkpt>
      <trkpt lat="39.86247806274769" lon="116.46595867076616">
        <time>2026-08-15T23:40:35.191000Z</time>
      </trkpt>
      <trkpt lat="39.86275611995505" lon="116.46598572876626">
        <time>2026-08-15T23:40:47.191000Z</time>
      </trkpt>
      <trkpt lat="39.86290507707153" lon="116.46597266536851">
        <time>2026-08-15T23:40:53.291000Z</time>
      </trkpt>
      <trkpt lat="39.8631131247211" lon="116.465994714957">
        <time>2026-08-15T23:41:02.391000Z</time>
      </trkpt>
      <trkpt lat="39.863241241008176" lon="116.46604085717128">
        <time>2026-08-15T23:41:08.391000Z</time>
      </trkpt>
      <trkpt lat="39.86352094953437" lon="116.46606222944345">
        <time>2026-08-15T23:41:20.591000Z</time>
      </trkpt>
      <trkpt lat="39.86374831813608" lon="116.46607992782133">
        <time>2026-08-15T23:41:29.591000Z</time>
      </trkpt>
      <trkpt lat="39.863809438144926" lon="116.46612607854479">
        <time>2026-08-15T23:41:32.591000Z</time>
      </trkpt>
      <trkpt lat="39.863830675698104" lon="116.46621538249103">
        <time>2026-08-15T23:41:35.691000Z</time>
      </trkpt>
      <trkpt lat="39.86378116972011" lon="116.46639901981372">
        <time>2026-08-15T23:41:41.791000Z</time>
      </trkpt>
      <trkpt lat="39.86378615436113" lon="116.46676628410604">
        <time>2026-08-15T23:41:53.991000Z</time>
      </trkpt>
      <trkpt lat="39.863781634656746" lon="116.46694490113526">
        <time>2026-08-15T23:42:00.091000Z</time>
      </trkpt>
      <trkpt lat="39.86372072190222" lon="116.46734730058726">
        <time>2026-08-15T23:42:12.091000Z</time>
      </trkpt>
      <trkpt lat="39.86370693226333" lon="116.46779485521206">
        <time>2026-08-15T23:42:27.191000Z</time>
      </trkpt>
      <trkpt lat="39.863706459748805" lon="116.46798953233368">
        <time>2026-08-15T23:42:33.191000Z</time>
      </trkpt>
      <trkpt lat="39.86366145122223" lon="116.46835380739992">
        <time>2026-08-15T23:42:45.191000Z</time>
      </trkpt>
      <trkpt lat="39.86365947590997" lon="116.46873012249037">
        <time>2026-08-15T23:42:57.191000Z</time>
      </trkpt>
      <trkpt lat="39.86364046046913" lon="116.46909038685584">
        <time>2026-08-15T23:43:09.291000Z</time>
      </trkpt>
      <trkpt lat="39.86362445294142" lon="116.46945266102506">
        <time>2026-08-15T23:43:21.291000Z</time>
      </trkpt>
      <trkpt lat="39.863578457872585" lon="116.4698179526733">
        <time>2026-08-15T23:43:33.491000Z</time>
      </trkpt>
      <trkpt lat="39.86354147318653" lon="116.47018625694692">
        <time>2026-08-15T23:43:45.791000Z</time>
      </trkpt>
      <trkpt lat="39.8635174792934" lon="116.4705505484992">
        <time>2026-08-15T23:43:58.091000Z</time>
      </trkpt>
      <trkpt lat="39.86349152689257" lon="116.47092889317476">
        <time>2026-08-15T23:44:10.191000Z</time>
      </trkpt>
      <trkpt lat="39.86344804916008" lon="116.4711165651796">
        <time>2026-08-15T23:44:16.091000Z</time>
      </trkpt>
      <trkpt lat="39.863408251665106" lon="116.47118882701284">
        <time>2026-08-15T23:44:19.191000Z</time>
      </trkpt>
      <trkpt lat="39.86333627503846" lon="116.4711958609986">
        <time>2026-08-15T23:44:22.191000Z</time>
      </trkpt>
      <trkpt lat="39.863058209365285" lon="116.47116679232593">
        <time>2026-08-15T23:44:34.191000Z</time>
      </trkpt>
      <trkpt lat="39.86278723517787" lon="116.47117084050893">
        <time>2026-08-15T23:44:46.191000Z</time>
      </trkpt>
      <trkpt lat="39.86251025855683" lon="116.47117388587515">
        <time>2026-08-15T23:44:58.191000Z</time>
      </trkpt>
      <trkpt lat="39.86222927939485" lon="116.47117592817408">
        <time>2026-08-15T23:45:10.191000Z</time>
      </trkpt>
      <trkpt lat="39.862092189456504" lon="116.47114082046934">
        <time>2026-08-15T23:45:16.191000Z</time>
      </trkpt>
      <trkpt lat="39.86180524961295" lon="116.47115691345401">
        <time>2026-08-15T23:45:28.191000Z</time>
      </trkpt>
      <trkpt lat="39.861515184750964" lon="116.47112784630858">
        <time>2026-08-15T23:45:40.191000Z</time>
      </trkpt>
      <trkpt lat="39.861236099859035" lon="116.47109175284614">
        <time>2026-08-15T23:45:52.191000Z</time>
      </trkpt>
      <trkpt lat="39.86096196469107" lon="116.4710375946254">
        <time>2026-08-15T23:46:04.291000Z</time>
      </trkpt>
      <trkpt lat="39.860670927826135" lon="116.47101856332178">
        <time>2026-08-15T23:46:16.291000Z</time>
      </trkpt>
      <trkpt lat="39.86047684674853" lon="116.47098547000144">
        <time>2026-08-15T23:46:25.291000Z</time>
      </trkpt>
      <trkpt lat="39.86045363126977" lon="116.47090719502047">
        <time>2026-08-15T23:46:28.291000Z</time>
      </trkpt>
      <trkpt lat="39.86056068742995" lon="116.47056797903282">
        <time>2026-08-15T23:46:40.491000Z</time>
      </trkpt>
      <trkpt lat="39.860642675231205" lon="116.47020267658739">
        <time>2026-08-15T23:46:52.591000Z</time>
      </trkpt>
      <trkpt lat="39.860673422014116" lon="116.47011135017007">
        <time>2026-08-15T23:46:55.591000Z</time>
      </trkpt>
      <trkpt lat="39.86070821443827" lon="116.46967279947243">
        <time>2026-08-15T23:47:10.991000Z</time>
      </trkpt>
      <trkpt lat="39.860756443989395" lon="116.46939280854012">
        <time>2026-08-15T23:47:20.091000Z</time>
      </trkpt>
      <trkpt lat="39.86076786371526" lon="116.4691810634992">
        <time>2026-08-15T23:47:26.091000Z</time>
      </trkpt>
      <trkpt lat="39.860839927601205" lon="116.46883985850398">
        <time>2026-08-15T23:47:38.091000Z</time>
      </trkpt>
      <trkpt lat="39.8609149581514" lon="116.46848561040167">
        <time>2026-08-15T23:47:50.091000Z</time>
      </trkpt>
      <trkpt lat="39.8609404136779" lon="116.46828591026691">
        <time>2026-08-15T23:47:56.091000Z</time>
      </trkpt>
      <trkpt lat="39.860979452916474" lon="116.46793267501748">
        <time>2026-08-15T23:48:08.091000Z</time>
      </trkpt>
      <trkpt lat="39.86099278377037" lon="116.46768581535667">
        <time>2026-08-15T23:48:17.091000Z</time>
      </trkpt>
      <trkpt lat="39.86107480881778" lon="116.46732655922696">
        <time>2026-08-15T23:48:29.091000Z</time>
      </trkpt>
      <trkpt lat="39.861104325695436" lon="116.4671479373163">
        <time>2026-08-15T23:48:35.091000Z</time>
      </trkpt>
      <trkpt lat="39.8611834089165" lon="116.46680875577665">
        <time>2026-08-15T23:48:47.091000Z</time>
      </trkpt>
      <trkpt lat="39.86127147261499" lon="116.46646154850475">
        <time>2026-08-15T23:48:59.091000Z</time>
      </trkpt>
      <trkpt lat="39.861329545940066" lon="116.46611635507988">
        <time>2026-08-15T23:49:11.091000Z</time>
      </trkpt>
      <trkpt lat="39.86136006744195" lon="116.46593773874747">
        <time>2026-08-15T23:49:17.191000Z</time>
      </trkpt>
      <trkpt lat="39.861393896996404" lon="116.46587451792612">
        <time>2026-08-15T23:49:20.091000Z</time>
      </trkpt>
      <trkpt lat="39.86171605068017" lon="116.46593869754564">
        <time>2026-08-15T23:49:35.191000Z</time>
      </trkpt>
      <trkpt lat="39.86185511805813" lon="116.46596677639985">
        <time>2026-08-15T23:49:41.191000Z</time>
      </trkpt>
      <trkpt lat="39.86214302206493" lon="116.46593663712501">
        <time>2026-08-15T23:49:53.091000Z</time>
      </trkpt>
      <trkpt lat="39.86248704887347" lon="116.46595365244336">
        <time>2026-08-15T23:50:08.191000Z</time>
      </trkpt>
      <trkpt lat="39.86276508465814" lon="116.46597268292439">
        <time>2026-08-15T23:50:20.191000Z</time>
      </trkpt>
      <trkpt lat="39.863049149608685" lon="116.46600275050278">
        <time>2026-08-15T23:50:32.191000Z</time>
      </trkpt>
      <trkpt lat="39.86325255740748" lon="116.46606274768803">
        <time>2026-08-15T23:50:41.191000Z</time>
      </trkpt>
      <trkpt lat="39.86339889791269" lon="116.4660703309276">
        <time>2026-08-15T23:50:47.191000Z</time>
      </trkpt>
      <trkpt lat="39.863467851545835" lon="116.46606314995421">
        <time>2026-08-15T23:50:50.191000Z</time>
      </trkpt>
      <trkpt lat="39.8636880823522" lon="116.46607627803219">
        <time>2026-08-15T23:50:59.191000Z</time>
      </trkpt>
      <trkpt lat="39.86375788263524" lon="116.46609092856387">
        <time>2026-08-15T23:51:02.191000Z</time>
      </trkpt>
      <trkpt lat="39.86381128783242" lon="116.4661575919973">
        <time>2026-08-15T23:51:05.191000Z</time>
      </trkpt>
      <trkpt lat="39.86376454432217" lon="116.46653850186985">
        <time>2026-08-15T23:51:17.191000Z</time>
      </trkpt>
      <trkpt lat="39.86377853767926" lon="116.46690877677831">
        <time>2026-08-15T23:51:29.191000Z</time>
      </trkpt>
      <trkpt lat="39.8637275347729" lon="116.46727805994526">
        <time>2026-08-15T23:51:41.191000Z</time>
      </trkpt>
      <trkpt lat="39.86370949769907" lon="116.46763429721007">
        <time>2026-08-15T23:51:53.191000Z</time>
      </trkpt>
      <trkpt lat="39.863703223284894" lon="116.46790222899">
        <time>2026-08-15T23:52:02.191000Z</time>
      </trkpt>
      <trkpt lat="39.86366620276789" lon="116.46826248826315">
        <time>2026-08-15T23:52:14.191000Z</time>
      </trkpt>
      <trkpt lat="39.8636491810923" lon="116.46862174474853">
        <time>2026-08-15T23:52:26.191000Z</time>
      </trkpt>
      <trkpt lat="39.86364816664027" lon="116.46898300942736">
        <time>2026-08-15T23:52:38.191000Z</time>
      </trkpt>
      <trkpt lat="39.8636122006481" lon="116.46936033805407">
        <time>2026-08-15T23:52:50.191000Z</time>
      </trkpt>
      <trkpt lat="39.86358216823845" lon="116.46971258095734">
        <time>2026-08-15T23:53:02.291000Z</time>
      </trkpt>
      <trkpt lat="39.86355518503009" lon="116.47008188661998">
        <time>2026-08-15T23:53:14.391000Z</time>
      </trkpt>
      <trkpt lat="39.86352815734789" lon="116.47043413506574">
        <time>2026-08-15T23:53:26.591000Z</time>
      </trkpt>
      <trkpt lat="39.863506156715715" lon="116.47079541774107">
        <time>2026-08-15T23:53:38.791000Z</time>
      </trkpt>
      <trkpt lat="39.86346691462415" lon="116.47106839164752">
        <time>2026-08-15T23:53:47.891000Z</time>
      </trkpt>
      <trkpt lat="39.86344014696988" lon="116.47115169101306">
        <time>2026-08-15T23:53:50.991000Z</time>
      </trkpt>
      <trkpt lat="39.86339027212056" lon="116.47119585424088">
        <time>2026-08-15T23:53:53.991000Z</time>
      </trkpt>
      <trkpt lat="39.86307727234658" lon="116.47118987200294">
        <time>2026-08-15T23:54:06.091000Z</time>
      </trkpt>
      <trkpt lat="39.86279426541132" lon="116.47118187887585">
        <time>2026-08-15T23:54:18.091000Z</time>
      </trkpt>
      <trkpt lat="39.86251525550237" lon="116.471172881682">
        <time>2026-08-15T23:54:30.091000Z</time>
      </trkpt>
      <trkpt lat="39.862243317597" lon="116.47118997636932">
        <time>2026-08-15T23:54:42.191000Z</time>
      </trkpt>
      <trkpt lat="39.86196521863193" lon="116.4711488648963">
        <time>2026-08-15T23:54:54.291000Z</time>
      </trkpt>
      <trkpt lat="39.86173632294789" lon="116.47118201127162">
        <time>2026-08-15T23:55:03.391000Z</time>
      </trkpt>
      <trkpt lat="39.861457162881365" lon="116.47111882146984">
        <time>2026-08-15T23:55:15.591000Z</time>
      </trkpt>
      <trkpt lat="39.86117913357503" lon="116.4711027992016">
        <time>2026-08-15T23:55:27.891000Z</time>
      </trkpt>
      <trkpt lat="39.860892971253406" lon="116.47103860682428">
        <time>2026-08-15T23:55:40.091000Z</time>
      </trkpt>
      <trkpt lat="39.86058689351883" lon="116.47100452394065">
        <time>2026-08-15T23:55:52.091000Z</time>
      </trkpt>
      <trkpt lat="39.86051090047351" lon="116.4710055370147">
        <time>2026-08-15T23:55:55.091000Z</time>
      </trkpt>
      <trkpt lat="39.86044682060348" lon="116.47097543812498">
        <time>2026-08-15T23:55:58.191000Z</time>
      </trkpt>
      <trkpt lat="39.86044055976186" lon="116.47088110405797">
        <time>2026-08-15T23:56:01.191000Z</time>
      </trkpt>
      <trkpt lat="39.860515103148515" lon="116.4707175145549">
        <time>2026-08-15T23:56:07.191000Z</time>
      </trkpt>
      <trkpt lat="39.86059912302379" lon="116.47036425320603">
        <time>2026-08-15T23:56:19.191000Z</time>
      </trkpt>
      <trkpt lat="39.860661138182586" lon="116.47000798683551">
        <time>2026-08-15T23:56:31.191000Z</time>
      </trkpt>
      <trkpt lat="39.86067840895209" lon="116.4697430506001">
        <time>2026-08-15T23:56:40.191000Z</time>
      </trkpt>
      <trkpt lat="39.86074442265571" lon="116.46938478183222">
        <time>2026-08-15T23:56:52.191000Z</time>
      </trkpt>
      <trkpt lat="39.860817476882275" lon="116.46904056448732">
        <time>2026-08-15T23:57:04.291000Z</time>
      </trkpt>
      <trkpt lat="39.86085749698341" lon="116.46868230499935">
        <time>2026-08-15T23:57:16.491000Z</time>
      </trkpt>
      <trkpt lat="39.86092454273918" lon="116.46833307677144">
        <time>2026-08-15T23:57:28.591000Z</time>
      </trkpt>
      <trkpt lat="39.860936792657725" lon="116.468057113428">
        <time>2026-08-15T23:57:37.691000Z</time>
      </trkpt>
      <trkpt lat="39.86100068562696" lon="116.46764968893645">
        <time>2026-08-15T23:57:52.991000Z</time>
      </trkpt>
      <trkpt lat="39.86105985024413" lon="116.46734161323576">
        <time>2026-08-15T23:58:02.091000Z</time>
      </trkpt>
      <trkpt lat="39.861077381238765" lon="116.46716801011428">
        <time>2026-08-15T23:58:08.091000Z</time>
      </trkpt>
      <trkpt lat="39.86119920591973" lon="116.46673349422781">
        <time>2026-08-15T23:58:23.091000Z</time>
      </trkpt>
      <trkpt lat="39.86126853730281" lon="116.46648563174551">
        <time>2026-08-15T23:58:32.091000Z</time>
      </trkpt>
      <trkpt lat="39.86131357898419" lon="116.46612839840539">
        <time>2026-08-15T23:58:44.091000Z</time>
      </trkpt>
      <trkpt lat="39.8613401220735" lon="116.46595781002645">
        <time>2026-08-15T23:58:50.091000Z</time>
      </trkpt>
      <trkpt lat="39.861377927300325" lon="116.46588555773637">
        <time>2026-08-15T23:58:53.091000Z</time>
      </trkpt>
      <trkpt lat="39.861440894428284" lon="116.46587451203251">
        <time>2026-08-15T23:58:56.091000Z</time>
      </trkpt>
      <trkpt lat="39.86163001790047" lon="116.46592466019567">
        <time>2026-08-15T23:59:05.091000Z</time>
      </trkpt>
      <trkpt lat="39.86191202661209" lon="116.46593365577684">
        <time>2026-08-15T23:59:17.091000Z</time>
      </trkpt>
      <trkpt lat="39.862050938754024" lon="116.46590353521272">
        <time>2026-08-15T23:59:23.091000Z</time>
      </trkpt>
      <trkpt lat="39.86231904729237" lon="116.46594965975531">
        <time>2026-08-15T23:59:35.091000Z</time>
      </trkpt>
      <trkpt lat="39.86264708034769" lon="116.4659686839644">
        <time>2026-08-15T23:59:50.091000Z</time>
      </trkpt>
      <trkpt lat="39.86293210238491" lon="116.46598269637724">
        <time>2026-08-16T00:00:02.091000Z</time>
      </trkpt>
      <trkpt lat="39.86307311349594" lon="116.46598970277373">
        <time>2026-08-16T00:00:08.091000Z</time>
      </trkpt>
      <trkpt lat="39.86325422958964" lon="116.4660368417766">
        <time>2026-08-16T00:00:17.091000Z</time>
      </trkpt>
      <trkpt lat="39.86354193333426" lon="116.46605679852425">
        <time>2026-08-16T00:00:29.091000Z</time>
      </trkpt>
      <trkpt lat="39.86376757691154" lon="116.46608725894306">
        <time>2026-08-16T00:00:38.091000Z</time>
      </trkpt>
      <trkpt lat="39.863812539872164" lon="116.46616420904152">
        <time>2026-08-16T00:00:41.091000Z</time>
      </trkpt>
      <trkpt lat="39.863774559923044" lon="116.46654452134388">
        <time>2026-08-16T00:00:53.091000Z</time>
      </trkpt>
      <trkpt lat="39.86378156179975" lon="116.46691780758228">
        <time>2026-08-16T00:01:05.191000Z</time>
      </trkpt>
      <trkpt lat="39.86373657217119" lon="116.46729210745512">
        <time>2026-08-16T00:01:17.191000Z</time>
      </trkpt>
      <trkpt lat="39.86370156597038" lon="116.46765938529856">
        <time>2026-08-16T00:01:29.091000Z</time>
      </trkpt>
      <trkpt lat="39.86370129137248" lon="116.46792731649671">
        <time>2026-08-16T00:01:38.091000Z</time>
      </trkpt>
      <trkpt lat="39.86367328691766" lon="116.46829359586638">
        <time>2026-08-16T00:01:50.091000Z</time>
      </trkpt>
      <trkpt lat="39.86364526879659" lon="116.46865385751433">
        <time>2026-08-16T00:02:02.191000Z</time>
      </trkpt>
      <trkpt lat="39.863634551326" lon="116.46912350375752">
        <time>2026-08-16T00:02:17.291000Z</time>
      </trkpt>
      <trkpt lat="39.863605547486856" lon="116.46948678336989">
        <time>2026-08-16T00:02:29.391000Z</time>
      </trkpt>
      <trkpt lat="39.86356956591111" lon="116.46985709174623">
        <time>2026-08-16T00:02:41.391000Z</time>
      </trkpt>
      <trkpt lat="39.86353854246611" lon="116.47021134595947">
        <time>2026-08-16T00:02:53.491000Z</time>
      </trkpt>
      <trkpt lat="39.86351553483255" lon="116.47057061982485">
        <time>2026-08-16T00:03:05.691000Z</time>
      </trkpt>
      <trkpt lat="39.863502512406704" lon="116.47092387398796">
        <time>2026-08-16T00:03:17.991000Z</time>
      </trkpt>
      <trkpt lat="39.86349678509727" lon="116.47102222391835">
        <time>2026-08-16T00:03:20.991000Z</time>
      </trkpt>
      <trkpt lat="39.86346403438672" lon="116.47111154534628">
        <time>2026-08-16T00:03:24.091000Z</time>
      </trkpt>
      <trkpt lat="39.863410276606835" lon="116.47119785887405">
        <time>2026-08-16T00:03:27.091000Z</time>
      </trkpt>
      <trkpt lat="39.86312123656777" lon="116.47117782368404">
        <time>2026-08-16T00:03:39.091000Z</time>
      </trkpt>
      <trkpt lat="39.86277125274308" lon="116.47117686391607">
        <time>2026-08-16T00:03:54.191000Z</time>
      </trkpt>
      <trkpt lat="39.86256330855851" lon="116.47119294702868">
        <time>2026-08-16T00:04:03.191000Z</time>
      </trkpt>
      <trkpt lat="39.86243430443121" lon="116.47118894890019">
        <time>2026-08-16T00:04:09.191000Z</time>
      </trkpt>
      <trkpt lat="39.86236335839039" lon="116.47120702200887">
        <time>2026-08-16T00:04:12.191000Z</time>
      </trkpt>
      <trkpt lat="39.86208125683685" lon="116.47116490745339">
        <time>2026-08-16T00:04:24.191000Z</time>
      </trkpt>
      <trkpt lat="39.86180427749478" lon="116.47116694925082">
        <time>2026-08-16T00:04:36.291000Z</time>
      </trkpt>
      <trkpt lat="39.86147417308043" lon="116.47112283360748">
        <time>2026-08-16T00:04:51.491000Z</time>
      </trkpt>
      <trkpt lat="39.861189135809404" lon="116.47110380151607">
        <time>2026-08-16T00:05:03.791000Z</time>
      </trkpt>
      <trkpt lat="39.860913014646776" lon="116.47105466135446">
        <time>2026-08-16T00:05:15.991000Z</time>
      </trkpt>
      <trkpt lat="39.860616894651216" lon="116.47100552375014">
        <time>2026-08-16T00:05:28.091000Z</time>
      </trkpt>
      <trkpt lat="39.86048186037137" lon="116.47099048719188">
        <time>2026-08-16T00:05:34.091000Z</time>
      </trkpt>
      <trkpt lat="39.86042869376508" lon="116.47092927650569">
        <time>2026-08-16T00:05:37.091000Z</time>
      </trkpt>
      <trkpt lat="39.86044043201452" lon="116.47083494028334">
        <time>2026-08-16T00:05:40.091000Z</time>
      </trkpt>
      <trkpt lat="39.860554463314195" lon="116.47048669200288">
        <time>2026-08-16T00:05:52.091000Z</time>
      </trkpt>
      <trkpt lat="39.86064950070399" lon="116.47013945239604">
        <time>2026-08-16T00:06:04.091000Z</time>
      </trkpt>
      <trkpt lat="39.860678318017" lon="116.46970993396766">
        <time>2026-08-16T00:06:19.091000Z</time>
      </trkpt>
      <trkpt lat="39.86075136180009" lon="116.46936270338466">
        <time>2026-08-16T00:06:31.091000Z</time>
      </trkpt>
      <trkpt lat="39.860817389145154" lon="116.4690084519254">
        <time>2026-08-16T00:06:43.091000Z</time>
      </trkpt>
      <trkpt lat="39.86087141144329" lon="116.46865119447183">
        <time>2026-08-16T00:06:55.091000Z</time>
      </trkpt>
      <trkpt lat="39.86092343369797" lon="116.4682929368931">
        <time>2026-08-16T00:07:07.091000Z</time>
      </trkpt>
      <trkpt lat="39.860935961524774" lon="116.46811933021037">
        <time>2026-08-16T00:07:13.091000Z</time>
      </trkpt>
      <trkpt lat="39.86098601767083" lon="116.46777211597706">
        <time>2026-08-16T00:07:25.191000Z</time>
      </trkpt>
      <trkpt lat="39.861009497941964" lon="116.46758044751743">
        <time>2026-08-16T00:07:31.191000Z</time>
      </trkpt>
      <trkpt lat="39.86105505903222" lon="116.46741888154936">
        <time>2026-08-16T00:07:37.191000Z</time>
      </trkpt>
      <trkpt lat="39.86109208046434" lon="116.46705662311848">
        <time>2026-08-16T00:07:49.191000Z</time>
      </trkpt>
      <trkpt lat="39.86110883382345" lon="116.46696530550273">
        <time>2026-08-16T00:07:52.291000Z</time>
      </trkpt>
      <trkpt lat="39.86124092354934" lon="116.46662912930947">
        <time>2026-08-16T00:08:04.391000Z</time>
      </trkpt>
      <trkpt lat="39.86129496630386" lon="116.46627289692334">
        <time>2026-08-16T00:08:16.491000Z</time>
      </trkpt>
      <trkpt lat="39.861328253935966" lon="116.46600698006642">
        <time>2026-08-16T00:08:25.691000Z</time>
      </trkpt>
      <trkpt lat="39.8613520197024" lon="116.4659196778659">
        <time>2026-08-16T00:08:28.791000Z</time>
      </trkpt>
      <trkpt lat="39.8613998538668" lon="116.46585846219213">
        <time>2026-08-16T00:08:31.891000Z</time>
      </trkpt>
      <trkpt lat="39.86166400266344" lon="116.46591963874285">
        <time>2026-08-16T00:08:44.091000Z</time>
      </trkpt>
      <trkpt lat="39.861836985200206" lon="116.46591660673606">
        <time>2026-08-16T00:08:50.191000Z</time>
      </trkpt>
      <trkpt lat="39.861986025257835" lon="116.46593464993575">
        <time>2026-08-16T00:08:56.191000Z</time>
      </trkpt>
      <trkpt lat="39.862273031054805" lon="116.46594264145365">
        <time>2026-08-16T00:09:08.291000Z</time>
      </trkpt>
      <trkpt lat="39.86255505589015" lon="116.4659576576716">
        <time>2026-08-16T00:09:20.391000Z</time>
      </trkpt>
      <trkpt lat="39.862894064280326" lon="116.46596764955167">
        <time>2026-08-16T00:09:35.491000Z</time>
      </trkpt>
      <trkpt lat="39.863188198334456" lon="116.46602380532131">
        <time>2026-08-16T00:09:47.791000Z</time>
      </trkpt>
      <trkpt lat="39.86340525625792" lon="116.46604986757771">
        <time>2026-08-16T00:09:56.991000Z</time>
      </trkpt>
      <trkpt lat="39.863541222124674" lon="116.46603981611045">
        <time>2026-08-16T00:10:03.091000Z</time>
      </trkpt>
      <trkpt lat="39.863858333648096" lon="116.46608794156643">
        <time>2026-08-16T00:10:15.191000Z</time>
      </trkpt>
      <trkpt lat="39.86418229745134" lon="116.46608087683998">
        <time>2026-08-16T00:10:30.191000Z</time>
      </trkpt>
      <trkpt lat="39.86445427479852" lon="116.4660778324038">
        <time>2026-08-16T00:10:42.191000Z</time>
      </trkpt>
      <trkpt lat="39.86473919788187" lon="116.46605471749906">
        <time>2026-08-16T00:10:54.191000Z</time>
      </trkpt>
      <trkpt lat="39.86507622002982" lon="116.46606972686482">
        <time>2026-08-16T00:11:09.191000Z</time>
      </trkpt>
      <trkpt lat="39.86538034047245" lon="116.46612086432171">
        <time>2026-08-16T00:11:21.191000Z</time>
      </trkpt>
      <trkpt lat="39.86568134586055" lon="116.4661288541229">
        <time>2026-08-16T00:11:36.191000Z</time>
      </trkpt>
      <trkpt lat="39.86589334339297" lon="116.46615801684447">
        <time>2026-08-16T00:11:45.191000Z</time>
      </trkpt>
      <trkpt lat="39.86596204512103" lon="116.46617803164797">
        <time>2026-08-16T00:11:48.191000Z</time>
      </trkpt>
      <trkpt lat="39.86607351270786" lon="116.46619904608824">
        <time>2026-08-16T00:11:54.291000Z</time>
      </trkpt>
      <trkpt lat="39.86640844126289" lon="116.46617893517015">
        <time>2026-08-16T00:12:06.291000Z</time>
      </trkpt>
      <trkpt lat="39.86647947504543" lon="116.46619297449979">
        <time>2026-08-16T00:12:09.291000Z</time>
      </trkpt>
      <trkpt lat="39.866554607894976" lon="116.46624414084746">
        <time>2026-08-16T00:12:12.291000Z</time>
      </trkpt>
      <trkpt lat="39.866554607894976" lon="116.46624414084746">
        <time>2026-08-16T00:12:14.391000Z</time>
      </trkpt>
    </trkseg>
  </trk>
</gpx>