<?xml version="1.0" encoding="UTF-8"?>
<gpx xmlns="http://www.topografix.com/GPX/1/1" xmlns:gpxtpx="http://www.garmin.com/xmlschemas/TrackPointExtension/v1" xmlns:xsi="http://www.w3.org/2001/XMLSchema-instance" xsi:schemaLocation="http://www.topografix.com/GPX/1/1 http://www.topografix.com/GPX/1/1/gpx.xsd" version="1.1" creator="gpx.py -- https://github.com/tkrajina/gpxpy">
  <trk>
    <name>gpx from keep</name>
    <type>Run</type>
    <trkseg>
      <trkpt lat="39.867992240463145" lon="116.46688115493522">
        <time>2026-07-09T22:47:02.669000Z</time>
      </trkpt>
      <trkpt lat="39.86798444594367" lon="116.46695741926527">
        <time>2026-07-09T22:47:02.669000Z</time>
      </trkpt>
      <trkpt lat="39.86788973985622" lon="116.46706480216967">
        <time>2026-07-09T22:47:02.769000Z</time>
      </trkpt>
      <trkpt lat="39.86774789863884" lon="116.46712101425662">
        <time>2026-07-09T22:47:02.769000Z</time>
      </trkpt>
      <trkpt lat="39.867630931830334" lon="116.467131063627">
        <time>2026-07-09T22:47:02.769000Z</time>
      </trkpt>
      <trkpt lat="39.86753489365211" lon="116.4671150201403">
        <time>2026-07-09T22:47:02.869000Z</time>
      </trkpt>
      <trkpt lat="39.86748757740385" lon="116.46699661676446">
        <time>2026-07-09T22:47:02.869000Z</time>
      </trkpt>
      <trkpt lat="39.867504187957344" lon="116.4668521156823">
        <time>2026-07-09T22:47:02.869000Z</time>
      </trkpt>
      <trkpt lat="39.86756982331198" lon="116.46671764359658">
        <time>2026-07-09T22:47:02.969000Z</time>
      </trkpt>
      <trkpt lat="39.86762116393074" lon="116.46647279374939">
        <time>2026-07-09T22:47:02.969000Z</time>
      </trkpt>
      <trkpt lat="39.86762367214799" lon="116.46628916192196">
        <time>2026-07-09T22:47:03.069000Z</time>
      </trkpt>
      <trkpt lat="39.86750547709798" lon="116.46621391818933">
        <time>2026-07-09T22:47:03.069000Z</time>
      </trkpt>
      <trkpt lat="39.86734855782747" lon="116.4662410309326">
        <time>2026-07-09T22:47:03.169000Z</time>
      </trkpt>
      <trkpt lat="39.86702756405789" lon="116.46623705740232">
        <time>2026-07-09T22:47:03.269000Z</time>
      </trkpt>
      <trkpt lat="39.866732601142395" lon="116.4662451219719">
        <time>2026-07-09T22:47:03.369000Z</time>
      </trkpt>
      <trkpt lat="39.86666472821004" lon="116.46629128908383">
        <time>2026-07-09T22:47:03.469000Z</time>
      </trkpt>
      <trkpt lat="39.866635992934654" lon="116.46638963076356">
        <time>2026-07-09T22:47:03.469000Z</time>
      </trkpt>
      <trkpt lat="39.86663971358739" lon="116.46665855614422">
        <time>2026-07-09T22:47:03.569000Z</time>
      </trkpt>
      <trkpt lat="39.86659064104868" lon="116.46700275002455">
        <time>2026-07-09T22:47:03.669000Z</time>
      </trkpt>
      <trkpt lat="39.866531035948626" lon="116.46714826052816">
        <time>2026-07-09T22:47:03.769000Z</time>
      </trkpt>
      <trkpt lat="39.86656302233962" lon="116.46751452519119">
        <time>2026-07-09T22:47:03.869000Z</time>
      </trkpt>
      <trkpt lat="39.86655404362624" lon="116.4678918368112">
        <time>2026-07-09T22:47:03.969000Z</time>
      </trkpt>
      <trkpt lat="39.86655202932186" lon="116.4682551021561">
        <time>2026-07-09T22:47:04.069000Z</time>
      </trkpt>
      <trkpt lat="39.86654209742428" lon="116.46864747352623">
        <time>2026-07-09T22:47:04.169000Z</time>
      </trkpt>
      <trkpt lat="39.86653911067979" lon="116.46901877391292">
        <time>2026-07-09T22:47:04.369000Z</time>
      </trkpt>
      <trkpt lat="39.8665541339694" lon="116.46939308595323">
        <time>2026-07-09T22:47:04.469000Z</time>
      </trkpt>
      <trkpt lat="39.86656511611878" lon="116.46975134526055">
        <time>2026-07-09T22:47:04.569000Z</time>
      </trkpt>
      <trkpt lat="39.86651239436742" lon="116.47021498779327">
        <time>2026-07-09T22:47:04.769000Z</time>
      </trkpt>
      <trkpt lat="39.866481484187325" lon="116.47060938715923">
        <time>2026-07-09T22:47:04.869000Z</time>
      </trkpt>
      <trkpt lat="39.8664590263985" lon="116.47080508370098">
        <time>2026-07-09T22:47:04.869000Z</time>
      </trkpt>
      <trkpt lat="39.866454094124244" lon="116.47119045293566">
        <time>2026-07-09T22:47:05.069000Z</time>
      </trkpt>
      <trkpt lat="39.8664933520071" lon="116.47164406318856">
        <time>2026-07-09T22:47:05.169000Z</time>
      </trkpt>
      <trkpt lat="39.86650239126085" lon="116.47201739469126">
        <time>2026-07-09T22:47:05.269000Z</time>
      </trkpt>
      <trkpt lat="39.86649889542835" lon="116.47219804101678">
        <time>2026-07-09T22:47:05.369000Z</time>
      </trkpt>
      <trkpt lat="39.86653063394961" lon="116.47246298558957">
        <time>2026-07-09T22:47:05.469000Z</time>
      </trkpt>
      <trkpt lat="39.866505483523085" lon="116.47276607560048">
        <time>2026-07-09T22:47:05.569000Z</time>
      </trkpt>
      <trkpt lat="39.866507578318846" lon="116.47315647807574">
        <time>2026-07-09T22:47:05.669000Z</time>
      </trkpt>
      <trkpt lat="39.866482787265696" lon="116.47358602808468">
        <time>2026-07-09T22:47:05.769000Z</time>
      </trkpt>
      <trkpt lat="39.86648182808171" lon="116.4739553611618">
        <time>2026-07-09T22:47:05.969000Z</time>
      </trkpt>
      <trkpt lat="39.86649062948692" lon="116.47423938692833">
        <time>2026-07-09T22:47:06.069000Z</time>
      </trkpt>
      <trkpt lat="39.86652614113587" lon="116.47442104005464">
        <time>2026-07-09T22:47:06.069000Z</time>
      </trkpt>
      <trkpt lat="39.866502173879155" lon="116.47478536368195">
        <time>2026-07-09T22:47:06.169000Z</time>
      </trkpt>
      <trkpt lat="39.866494204983255" lon="116.47514868411278">
        <time>2026-07-09T22:47:06.369000Z</time>
      </trkpt>
      <trkpt lat="39.86646726195034" lon="116.47552003854241">
        <time>2026-07-09T22:47:06.469000Z</time>
      </trkpt>
      <trkpt lat="39.86644535504628" lon="116.47590343872511">
        <time>2026-07-09T22:47:06.569000Z</time>
      </trkpt>
      <trkpt lat="39.86642942704379" lon="116.47627881136472">
        <time>2026-07-09T22:47:06.669000Z</time>
      </trkpt>
      <trkpt lat="39.86643946522107" lon="116.47664213905992">
        <time>2026-07-09T22:47:06.769000Z</time>
      </trkpt>
      <trkpt lat="39.866425520914866" lon="116.47701049034193">
        <time>2026-07-09T22:47:06.969000Z</time>
      </trkpt>
      <trkpt lat="39.86645776339413" lon="116.47744407769281">
        <time>2026-07-09T22:47:07.069000Z</time>
      </trkpt>
      <trkpt lat="39.86644279428491" lon="116.47780239689982">
        <time>2026-07-09T22:47:07.169000Z</time>
      </trkpt>
      <trkpt lat="39.866449811235675" lon="116.47815569684975">
        <time>2026-07-09T22:47:07.369000Z</time>
      </trkpt>
      <trkpt lat="39.86642887183736" lon="116.47852305401751">
        <time>2026-07-09T22:47:07.469000Z</time>
      </trkpt>
      <trkpt lat="39.86642490712195" lon="116.47888137766591">
        <time>2026-07-09T22:47:07.569000Z</time>
      </trkpt>
      <trkpt lat="39.86642796105005" lon="116.47924572455943">
        <time>2026-07-09T22:47:07.669000Z</time>
      </trkpt>
      <trkpt lat="39.86642049927103" lon="116.47943141283221">
        <time>2026-07-09T22:47:07.769000Z</time>
      </trkpt>
      <trkpt lat="39.86643956056776" lon="116.47979776794476">
        <time>2026-07-09T22:47:07.869000Z</time>
      </trkpt>
      <trkpt lat="39.866429353761085" lon="116.4800707819956">
        <time>2026-07-09T22:47:07.969000Z</time>
      </trkpt>
      <trkpt lat="39.866341473064466" lon="116.48045421695113">
        <time>2026-07-09T22:47:08.069000Z</time>
      </trkpt>
      <trkpt lat="39.86633953094517" lon="116.48081756835576">
        <time>2026-07-09T22:47:08.169000Z</time>
      </trkpt>
      <trkpt lat="39.86634265146597" lon="116.4812019992788">
        <time>2026-07-09T22:47:08.269000Z</time>
      </trkpt>
      <trkpt lat="39.866333695011164" lon="116.48155933238381">
        <time>2026-07-09T22:47:08.469000Z</time>
      </trkpt>
      <trkpt lat="39.86630694860617" lon="116.48164565771218">
        <time>2026-07-09T22:47:08.469000Z</time>
      </trkpt>
      <trkpt lat="39.86625714483327" lon="116.48171191108901">
        <time>2026-07-09T22:47:08.469000Z</time>
      </trkpt>
      <trkpt lat="39.866185221995075" lon="116.48173701369002">
        <time>2026-07-09T22:47:08.569000Z</time>
      </trkpt>
      <trkpt lat="39.86587402443527" lon="116.48166377906902">
        <time>2026-07-09T22:57:04.769000Z</time>
      </trkpt>
      <trkpt lat="39.86560091289486" lon="116.4816206520886">
        <time>2026-07-09T22:57:16.769000Z</time>
      </trkpt>
      <trkpt lat="39.86531679318862" lon="116.48157451527095">
        <time>2026-07-09T22:57:28.869000Z</time>
      </trkpt>
      <trkpt lat="39.865045640588725" lon="116.48151733568827">
        <time>2026-07-09T22:57:41.169000Z</time>
      </trkpt>
      <trkpt lat="39.864765535419" lon="116.48147621714023">
        <time>2026-07-09T22:57:53.369000Z</time>
      </trkpt>
      <trkpt lat="39.864478398433235" lon="116.48142405832675">
        <time>2026-07-09T22:58:05.669000Z</time>
      </trkpt>
      <trkpt lat="39.86434728533971" lon="116.48138292125681">
        <time>2026-07-09T22:58:11.669000Z</time>
      </trkpt>
      <trkpt lat="39.86399120781566" lon="116.4813498421721">
        <time>2026-07-09T22:58:26.669000Z</time>
      </trkpt>
      <trkpt lat="39.86365604719685" lon="116.48128865576058">
        <time>2026-07-09T22:58:41.669000Z</time>
      </trkpt>
      <trkpt lat="39.86338693286535" lon="116.48124452473802">
        <time>2026-07-09T22:58:53.669000Z</time>
      </trkpt>
      <trkpt lat="39.86311684205487" lon="116.48120842377539">
        <time>2026-07-09T22:59:05.669000Z</time>
      </trkpt>
      <trkpt lat="39.86284868383951" lon="116.48114923659693">
        <time>2026-07-09T22:59:17.669000Z</time>
      </trkpt>
      <trkpt lat="39.8626354641639" lon="116.48106996785931">
        <time>2026-07-09T22:59:26.669000Z</time>
      </trkpt>
      <trkpt lat="39.86229538021675" lon="116.4810348794358">
        <time>2026-07-09T22:59:41.669000Z</time>
      </trkpt>
      <trkpt lat="39.86200236690684" lon="116.4810248785839">
        <time>2026-07-09T22:59:56.669000Z</time>
      </trkpt>
      <trkpt lat="39.861717259562866" lon="116.48098275717243">
        <time>2026-07-09T23:00:11.669000Z</time>
      </trkpt>
      <trkpt lat="39.861386110902316" lon="116.48092558548305">
        <time>2026-07-09T23:00:26.669000Z</time>
      </trkpt>
      <trkpt lat="39.861068920604055" lon="116.48085435980511">
        <time>2026-07-09T23:00:41.669000Z</time>
      </trkpt>
      <trkpt lat="39.86076169183925" lon="116.48077008440838">
        <time>2026-07-09T23:00:56.669000Z</time>
      </trkpt>
      <trkpt lat="39.860427531885136" lon="116.48070889831615">
        <time>2026-07-09T23:01:11.769000Z</time>
      </trkpt>
      <trkpt lat="39.86021865737891" lon="116.48074806995">
        <time>2026-07-09T23:01:20.769000Z</time>
      </trkpt>
      <trkpt lat="39.85990052291795" lon="116.48069591547385">
        <time>2026-07-09T23:01:35.769000Z</time>
      </trkpt>
      <trkpt lat="39.859632321475694" lon="116.48062167270307">
        <time>2026-07-09T23:01:47.869000Z</time>
      </trkpt>
      <trkpt lat="39.859567205286055" lon="116.48058052781987">
        <time>2026-07-09T23:01:50.969000Z</time>
      </trkpt>
      <trkpt lat="39.85957218610577" lon="116.48023022570602">
        <time>2026-07-09T23:02:03.069000Z</time>
      </trkpt>
      <trkpt lat="39.8595392024523" lon="116.47989097085643">
        <time>2026-07-09T23:02:15.369000Z</time>
      </trkpt>
      <trkpt lat="39.859434991324235" lon="116.47947142902683">
        <time>2026-07-09T23:02:30.669000Z</time>
      </trkpt>
      <trkpt lat="39.85937190197378" lon="116.47909404035644">
        <time>2026-07-09T23:02:42.669000Z</time>
      </trkpt>
      <trkpt lat="39.859310680883674" lon="116.47867048299454">
        <time>2026-07-09T23:02:57.669000Z</time>
      </trkpt>
      <trkpt lat="39.859237439550014" lon="116.4782389001471">
        <time>2026-07-09T23:03:12.669000Z</time>
      </trkpt>
      <trkpt lat="39.85921722077167" lon="116.4778153430143">
        <time>2026-07-09T23:03:27.669000Z</time>
      </trkpt>
      <trkpt lat="39.85925397525721" lon="116.4773827483608">
        <time>2026-07-09T23:03:42.669000Z</time>
      </trkpt>
      <trkpt lat="39.859242440043104" lon="116.47719606451082">
        <time>2026-07-09T23:03:48.669000Z</time>
      </trkpt>
      <trkpt lat="39.85928720921409" lon="116.47676748782732">
        <time>2026-07-09T23:04:03.669000Z</time>
      </trkpt>
      <trkpt lat="39.859382256398625" lon="116.4764362638321">
        <time>2026-07-09T23:04:15.669000Z</time>
      </trkpt>
      <trkpt lat="39.859491118238424" lon="116.4760398017823">
        <time>2026-07-09T23:04:30.669000Z</time>
      </trkpt>
      <trkpt lat="39.85955811899832" lon="116.47569051954343">
        <time>2026-07-09T23:04:42.669000Z</time>
      </trkpt>
      <trkpt lat="39.85962891313559" lon="116.47526797247502">
        <time>2026-07-09T23:04:57.669000Z</time>
      </trkpt>
      <trkpt lat="39.859708951375715" lon="116.47493073711752">
        <time>2026-07-09T23:05:09.669000Z</time>
      </trkpt>
      <trkpt lat="39.8598017463665" lon="116.47450718948615">
        <time>2026-07-09T23:05:24.669000Z</time>
      </trkpt>
      <trkpt lat="39.8598587671991" lon="116.47416193271921">
        <time>2026-07-09T23:05:36.669000Z</time>
      </trkpt>
      <trkpt lat="39.85992475267114" lon="116.47380363001223">
        <time>2026-07-09T23:05:48.769000Z</time>
      </trkpt>
      <trkpt lat="39.860022591715136" lon="116.47339313784381">
        <time>2026-07-09T23:06:03.769000Z</time>
      </trkpt>
      <trkpt lat="39.86011170999393" lon="116.47308100360478">
        <time>2026-07-09T23:06:15.869000Z</time>
      </trkpt>
      <trkpt lat="39.86015654849009" lon="116.47266751319547">
        <time>2026-07-09T23:06:31.169000Z</time>
      </trkpt>
      <trkpt lat="39.86026140903525" lon="116.47226204752475">
        <time>2026-07-09T23:06:46.469000Z</time>
      </trkpt>
      <trkpt lat="39.860370367283934" lon="116.4718907066068">
        <time>2026-07-09T23:06:58.669000Z</time>
      </trkpt>
      <trkpt lat="39.86045324574215" lon="116.47148926464254">
        <time>2026-07-09T23:07:13.669000Z</time>
      </trkpt>
      <trkpt lat="39.860500858437625" lon="116.47135076559397">
        <time>2026-07-09T23:07:19.669000Z</time>
      </trkpt>
      <trkpt lat="39.86067059841893" lon="116.47126042299881">
        <time>2026-07-09T23:07:28.669000Z</time>
      </trkpt>
      <trkpt lat="39.86077329214425" lon="116.47115202475725">
        <time>2026-07-09T23:07:34.669000Z</time>
      </trkpt>
      <trkpt lat="39.86074804038046" lon="116.47106070339072">
        <time>2026-07-09T23:07:37.669000Z</time>
      </trkpt>
      <trkpt lat="39.86067191943106" lon="116.47101555250498">
        <time>2026-07-09T23:07:40.669000Z</time>
      </trkpt>
      <trkpt lat="39.8605188583383" lon="116.47099048256179">
        <time>2026-07-09T23:07:46.669000Z</time>
      </trkpt>
      <trkpt lat="39.86047473013672" lon="116.47094332061825">
        <time>2026-07-09T23:07:49.669000Z</time>
      </trkpt>
      <trkpt lat="39.86046548895499" lon="116.4708560119155">
        <time>2026-07-09T23:07:52.669000Z</time>
      </trkpt>
      <trkpt lat="39.86052481692546" lon="116.47061414703624">
        <time>2026-07-09T23:08:01.669000Z</time>
      </trkpt>
      <trkpt lat="39.86060568279232" lon="116.47020468830985">
        <time>2026-07-09T23:08:16.769000Z</time>
      </trkpt>
      <trkpt lat="39.86066053121992" lon="116.46978720840356">
        <time>2026-07-09T23:08:31.669000Z</time>
      </trkpt>
      <trkpt lat="39.860710408028126" lon="116.46937876493281">
        <time>2026-07-09T23:08:46.769000Z</time>
      </trkpt>
      <trkpt lat="39.860798255879494" lon="116.46895928199282">
        <time>2026-07-09T23:09:01.769000Z</time>
      </trkpt>
      <trkpt lat="39.86086511658807" lon="116.46854281645439">
        <time>2026-07-09T23:09:16.869000Z</time>
      </trkpt>
      <trkpt lat="39.86091516426537" lon="116.46819359155862">
        <time>2026-07-09T23:09:28.969000Z</time>
      </trkpt>
      <trkpt lat="39.86096306510963" lon="116.46778917813289">
        <time>2026-07-09T23:09:44.269000Z</time>
      </trkpt>
      <trkpt lat="39.86103896782167" lon="116.46738476533612">
        <time>2026-07-09T23:09:59.469000Z</time>
      </trkpt>
      <trkpt lat="39.8610565202934" lon="116.46721918979907">
        <time>2026-07-09T23:10:05.669000Z</time>
      </trkpt>
      <trkpt lat="39.861139575806256" lon="116.46686997249664">
        <time>2026-07-09T23:10:17.669000Z</time>
      </trkpt>
      <trkpt lat="39.86123546383127" lon="116.46645753920868">
        <time>2026-07-09T23:10:32.869000Z</time>
      </trkpt>
      <trkpt lat="39.861309552394864" lon="116.46611836447384">
        <time>2026-07-09T23:10:44.969000Z</time>
      </trkpt>
      <trkpt lat="39.86133009317302" lon="116.4659467734549">
        <time>2026-07-09T23:10:51.069000Z</time>
      </trkpt>
      <trkpt lat="39.861361920148326" lon="116.46588254943221">
        <time>2026-07-09T23:10:54.069000Z</time>
      </trkpt>
      <trkpt lat="39.86142589257255" lon="116.46587351047688">
        <time>2026-07-09T23:10:57.169000Z</time>
      </trkpt>
      <trkpt lat="39.861676071599796" lon="116.46594572663038">
        <time>2026-07-09T23:11:09.369000Z</time>
      </trkpt>
      <trkpt lat="39.86180008089863" lon="116.46595173171312">
        <time>2026-07-09T23:11:15.569000Z</time>
      </trkpt>
      <trkpt lat="39.86209205428492" lon="116.46594768134312">
        <time>2026-07-09T23:11:27.669000Z</time>
      </trkpt>
      <trkpt lat="39.86240404267346" lon="116.4659496490965">
        <time>2026-07-09T23:11:42.669000Z</time>
      </trkpt>
      <trkpt lat="39.862736086230434" lon="116.46597268656095">
        <time>2026-07-09T23:11:57.669000Z</time>
      </trkpt>
      <trkpt lat="39.86305712239547" lon="116.4659927150996">
        <time>2026-07-09T23:12:12.669000Z</time>
      </trkpt>
      <trkpt lat="39.86324227310348" lon="116.46605289834197">
        <time>2026-07-09T23:12:21.669000Z</time>
      </trkpt>
      <trkpt lat="39.863574757845186" lon="116.46607821393832">
        <time>2026-07-09T23:12:36.669000Z</time>
      </trkpt>
      <trkpt lat="39.86365130192811" lon="116.46607191244783">
        <time>2026-07-09T23:12:39.669000Z</time>
      </trkpt>
      <trkpt lat="39.86372237849965" lon="116.46610200681798">
        <time>2026-07-09T23:12:42.669000Z</time>
      </trkpt>
      <trkpt lat="39.863776563266526" lon="116.4661722411129">
        <time>2026-07-09T23:12:45.669000Z</time>
      </trkpt>
      <trkpt lat="39.863790809338845" lon="116.46626455638891">
        <time>2026-07-09T23:12:48.669000Z</time>
      </trkpt>
      <trkpt lat="39.86375069036369" lon="116.46659269020978">
        <time>2026-07-09T23:13:00.669000Z</time>
      </trkpt>
      <trkpt lat="39.863762668066734" lon="116.46695694510228">
        <time>2026-07-09T23:13:12.669000Z</time>
      </trkpt>
      <trkpt lat="39.863710792837935" lon="116.46737339221873">
        <time>2026-07-09T23:13:27.669000Z</time>
      </trkpt>
      <trkpt lat="39.863705948617785" lon="116.46780087626107">
        <time>2026-07-09T23:13:42.669000Z</time>
      </trkpt>
      <trkpt lat="39.86372048076054" lon="116.46799755851728">
        <time>2026-07-09T23:13:48.669000Z</time>
      </trkpt>
      <trkpt lat="39.86367291078696" lon="116.46815511313919">
        <time>2026-07-09T23:13:54.669000Z</time>
      </trkpt>
      <trkpt lat="39.86363304256355" lon="116.46857056788336">
        <time>2026-07-09T23:14:09.669000Z</time>
      </trkpt>
      <trkpt lat="39.863625206256394" lon="116.46899706154447">
        <time>2026-07-09T23:14:24.769000Z</time>
      </trkpt>
      <trkpt lat="39.863575400584" lon="116.46943259660647">
        <time>2026-07-09T23:14:39.669000Z</time>
      </trkpt>
      <trkpt lat="39.8635535474681" lon="116.46985006898745">
        <time>2026-07-09T23:14:54.769000Z</time>
      </trkpt>
      <trkpt lat="39.86353275298103" lon="116.47028761625577">
        <time>2026-07-09T23:15:09.769000Z</time>
      </trkpt>
      <trkpt lat="39.86352475892005" lon="116.47065190664644">
        <time>2026-07-09T23:15:21.769000Z</time>
      </trkpt>
      <trkpt lat="39.863462745232894" lon="116.47100717471378">
        <time>2026-07-09T23:15:33.869000Z</time>
      </trkpt>
      <trkpt lat="39.86344201053937" lon="116.47110251600519">
        <time>2026-07-09T23:15:36.869000Z</time>
      </trkpt>
      <trkpt lat="39.86340117690291" lon="116.47116173156509">
        <time>2026-07-09T23:15:39.969000Z</time>
      </trkpt>
      <trkpt lat="39.863271270202006" lon="116.47119285842899">
        <time>2026-07-09T23:15:45.969000Z</time>
      </trkpt>
      <trkpt lat="39.86297325571196" lon="116.47118185647558">
        <time>2026-07-09T23:15:58.269000Z</time>
      </trkpt>
      <trkpt lat="39.862651234205686" lon="116.47116784682596">
        <time>2026-07-09T23:16:13.569000Z</time>
      </trkpt>
      <trkpt lat="39.86236727467455" lon="116.47117691447252">
        <time>2026-07-09T23:16:25.669000Z</time>
      </trkpt>
      <trkpt lat="39.8620932812294" lon="116.47117393805785">
        <time>2026-07-09T23:16:37.669000Z</time>
      </trkpt>
      <trkpt lat="39.86181026881923" lon="116.47116393779825">
        <time>2026-07-09T23:16:49.669000Z</time>
      </trkpt>
      <trkpt lat="39.861484228178014" lon="116.47114290368619">
        <time>2026-07-09T23:17:04.669000Z</time>
      </trkpt>
      <trkpt lat="39.861198104719726" lon="116.47109276116693">
        <time>2026-07-09T23:17:16.669000Z</time>
      </trkpt>
      <trkpt lat="39.86092094469515" lon="116.4710295712419">
        <time>2026-07-09T23:17:28.669000Z</time>
      </trkpt>
      <trkpt lat="39.860650909463885" lon="116.47101154087763">
        <time>2026-07-09T23:17:40.669000Z</time>
      </trkpt>
      <trkpt lat="39.86052686345796" lon="116.47099248868732">
        <time>2026-07-09T23:17:46.669000Z</time>
      </trkpt>
      <trkpt lat="39.86045951983374" lon="116.47086705183075">
        <time>2026-07-09T23:17:52.669000Z</time>
      </trkpt>
      <trkpt lat="39.86047723288329" lon="116.47076368296388">
        <time>2026-07-09T23:17:55.669000Z</time>
      </trkpt>
      <trkpt lat="39.860565290996234" lon="116.47042447045074">
        <time>2026-07-09T23:18:07.669000Z</time>
      </trkpt>
      <trkpt lat="39.86065015535308" lon="116.47001400945842">
        <time>2026-07-09T23:18:22.669000Z</time>
      </trkpt>
      <trkpt lat="39.86069517108117" lon="116.4696567445743">
        <time>2026-07-09T23:18:34.669000Z</time>
      </trkpt>
      <trkpt lat="39.86071247939404" lon="116.46940485636839">
        <time>2026-07-09T23:18:43.669000Z</time>
      </trkpt>
      <trkpt lat="39.860802365295434" lon="116.46899942215043">
        <time>2026-07-09T23:18:58.669000Z</time>
      </trkpt>
      <trkpt lat="39.86086023709377" lon="116.46858697135917">
        <time>2026-07-09T23:19:13.669000Z</time>
      </trkpt>
      <trkpt lat="39.86091806874036" lon="116.46815846879933">
        <time>2026-07-09T23:19:28.669000Z</time>
      </trkpt>
      <trkpt lat="39.86097096960414" lon="116.46775405510398">
        <time>2026-07-09T23:19:43.669000Z</time>
      </trkpt>
      <trkpt lat="39.86103425798078" lon="116.46749213810364">
        <time>2026-07-09T23:19:52.669000Z</time>
      </trkpt>
      <trkpt lat="39.86109517485141" lon="116.46709174414062">
        <time>2026-07-09T23:20:07.669000Z</time>
      </trkpt>
      <trkpt lat="39.86119310119317" lon="116.46669436007632">
        <time>2026-07-09T23:20:22.769000Z</time>
      </trkpt>
      <trkpt lat="39.86125038237648" lon="116.46642743377227">
        <time>2026-07-09T23:20:31.769000Z</time>
      </trkpt>
      <trkpt lat="39.86131324136519" lon="116.4660019647468">
        <time>2026-07-09T23:20:46.769000Z</time>
      </trkpt>
      <trkpt lat="39.86133201544317" lon="116.46591767349823">
        <time>2026-07-09T23:20:49.769000Z</time>
      </trkpt>
      <trkpt lat="39.86138088968111" lon="116.46587150924668">
        <time>2026-07-09T23:20:52.769000Z</time>
      </trkpt>
      <trkpt lat="39.86144990196255" lon="116.46587752121378">
        <time>2026-07-09T23:20:55.769000Z</time>
      </trkpt>
      <trkpt lat="39.861653046087135" lon="116.46593569513064">
        <time>2026-07-09T23:21:04.869000Z</time>
      </trkpt>
      <trkpt lat="39.861984030720045" lon="116.46593665706307">
        <time>2026-07-09T23:21:19.969000Z</time>
      </trkpt>
      <trkpt lat="39.862263042305884" lon="116.4659466564617">
        <time>2026-07-09T23:21:32.169000Z</time>
      </trkpt>
      <trkpt lat="39.86260012038328" lon="116.46598273800944">
        <time>2026-07-09T23:21:47.469000Z</time>
      </trkpt>
      <trkpt lat="39.86287406536382" lon="116.46596765205967">
        <time>2026-07-09T23:21:59.669000Z</time>
      </trkpt>
      <trkpt lat="39.863157197332455" lon="116.46602280576796">
        <time>2026-07-09T23:22:11.669000Z</time>
      </trkpt>
      <trkpt lat="39.86343326381136" lon="116.4660502537798">
        <time>2026-07-09T23:22:23.769000Z</time>
      </trkpt>
      <trkpt lat="39.86365290483237" lon="116.46606069438555">
        <time>2026-07-09T23:22:32.769000Z</time>
      </trkpt>
      <trkpt lat="39.8637303432259" lon="116.46608896105995">
        <time>2026-07-09T23:22:35.769000Z</time>
      </trkpt>
      <trkpt lat="39.86378650641291" lon="116.46615116752511">
        <time>2026-07-09T23:22:38.769000Z</time>
      </trkpt>
      <trkpt lat="39.8637536579105" lon="116.46658064836369">
        <time>2026-07-09T23:22:53.769000Z</time>
      </trkpt>
      <trkpt lat="39.863772376166196" lon="116.46684856971794">
        <time>2026-07-09T23:23:02.769000Z</time>
      </trkpt>
      <trkpt lat="39.86371354093937" lon="116.467280068648">
        <time>2026-07-09T23:23:17.869000Z</time>
      </trkpt>
      <trkpt lat="39.86367871107479" lon="116.4677125728559">
        <time>2026-07-09T23:23:33.069000Z</time>
      </trkpt>
      <trkpt lat="39.863690204953905" lon="116.46789520619015">
        <time>2026-07-09T23:23:39.169000Z</time>
      </trkpt>
      <trkpt lat="39.86366014856824" lon="116.46824241904038">
        <time>2026-07-09T23:23:51.469000Z</time>
      </trkpt>
      <trkpt lat="39.863670390720536" lon="116.46833172925086">
        <time>2026-07-09T23:23:54.469000Z</time>
      </trkpt>
      <trkpt lat="39.863637851057966" lon="116.46850032185456">
        <time>2026-07-09T23:24:00.669000Z</time>
      </trkpt>
      <trkpt lat="39.863644632697195" lon="116.46878732450998">
        <time>2026-07-09T23:24:09.669000Z</time>
      </trkpt>
      <trkpt lat="39.863609634996514" lon="116.46915361250262">
        <time>2026-07-09T23:24:21.669000Z</time>
      </trkpt>
      <trkpt lat="39.86357453815605" lon="116.46948277313703">
        <time>2026-07-09T23:24:33.669000Z</time>
      </trkpt>
      <trkpt lat="39.86355656385457" lon="116.46985608983647">
        <time>2026-07-09T23:24:45.669000Z</time>
      </trkpt>
      <trkpt lat="39.863531570494374" lon="116.47022138229465">
        <time>2026-07-09T23:24:57.769000Z</time>
      </trkpt>
      <trkpt lat="39.86351075967585" lon="116.47065190839884">
        <time>2026-07-09T23:25:12.769000Z</time>
      </trkpt>
      <trkpt lat="39.86348544942768" lon="116.47090079419658">
        <time>2026-07-09T23:25:21.769000Z</time>
      </trkpt>
      <trkpt lat="39.863439927206514" lon="116.47107240928746">
        <time>2026-07-09T23:25:27.769000Z</time>
      </trkpt>
      <trkpt lat="39.86339410771865" lon="116.4711366432669">
        <time>2026-07-09T23:25:30.769000Z</time>
      </trkpt>
      <trkpt lat="39.8632662454234" lon="116.47118382694427">
        <time>2026-07-09T23:25:36.769000Z</time>
      </trkpt>
      <trkpt lat="39.863120186530466" lon="116.4711597595962">
        <time>2026-07-09T23:25:42.769000Z</time>
      </trkpt>
      <trkpt lat="39.862784215860714" lon="116.471163815913">
        <time>2026-07-09T23:25:57.769000Z</time>
      </trkpt>
      <trkpt lat="39.862455258761116" lon="116.47117288919036">
        <time>2026-07-09T23:26:12.869000Z</time>
      </trkpt>
      <trkpt lat="39.86213326235481" lon="116.47116791164807">
        <time>2026-07-09T23:26:28.069000Z</time>
      </trkpt>
      <trkpt lat="39.86184721671513" lon="116.471145868962">
        <time>2026-07-09T23:26:40.269000Z</time>
      </trkpt>
      <trkpt lat="39.861569198494834" lon="116.47113386094999">
        <time>2026-07-09T23:26:52.569000Z</time>
      </trkpt>
      <trkpt lat="39.8612780836545" lon="116.47108672976276">
        <time>2026-07-09T23:27:04.569000Z</time>
      </trkpt>
      <trkpt lat="39.860966008961306" lon="116.47105365115748">
        <time>2026-07-09T23:27:16.669000Z</time>
      </trkpt>
      <trkpt lat="39.860680910597026" lon="116.47101254068728">
        <time>2026-07-09T23:27:28.669000Z</time>
      </trkpt>
      <trkpt lat="39.86054788732154" lon="116.47100151813031">
        <time>2026-07-09T23:27:34.669000Z</time>
      </trkpt>
      <trkpt lat="39.86047981323126" lon="116.47097342686956">
        <time>2026-07-09T23:27:37.769000Z</time>
      </trkpt>
      <trkpt lat="39.8604595948272" lon="116.47089414797303">
        <time>2026-07-09T23:27:40.769000Z</time>
      </trkpt>
      <trkpt lat="39.86055737728342" lon="116.47045558152873">
        <time>2026-07-09T23:27:55.769000Z</time>
      </trkpt>
      <trkpt lat="39.860628383041174" lon="116.47009630265637">
        <time>2026-07-09T23:28:07.869000Z</time>
      </trkpt>
      <trkpt lat="39.86067231008056" lon="116.4697069241172">
        <time>2026-07-09T23:28:20.169000Z</time>
      </trkpt>
      <trkpt lat="39.86073512363415" lon="116.4692753987439">
        <time>2026-07-09T23:28:35.469000Z</time>
      </trkpt>
      <trkpt lat="39.86082204908362" lon="116.46888401535726">
        <time>2026-07-09T23:28:47.769000Z</time>
      </trkpt>
      <trkpt lat="39.86086804812778" lon="116.46851772844173">
        <time>2026-07-09T23:28:59.769000Z</time>
      </trkpt>
      <trkpt lat="39.86091025992529" lon="116.46822871459919">
        <time>2026-07-09T23:29:08.769000Z</time>
      </trkpt>
      <trkpt lat="39.8609590435969" lon="116.46778115073955">
        <time>2026-07-09T23:29:23.869000Z</time>
      </trkpt>
      <trkpt lat="39.86103701938843" lon="116.46740383164625">
        <time>2026-07-09T23:29:35.969000Z</time>
      </trkpt>
      <trkpt lat="39.86105454744959" lon="116.46722922477392">
        <time>2026-07-09T23:29:42.069000Z</time>
      </trkpt>
      <trkpt lat="39.86114260800861" lon="116.4668820136806">
        <time>2026-07-09T23:29:54.369000Z</time>
      </trkpt>
      <trkpt lat="39.86123466824779" lon="116.46653380178333">
        <time>2026-07-09T23:30:06.569000Z</time>
      </trkpt>
      <trkpt lat="39.861300630636336" lon="116.46614746546564">
        <time>2026-07-09T23:30:18.669000Z</time>
      </trkpt>
      <trkpt lat="39.86132514431134" lon="116.46596583941883">
        <time>2026-07-09T23:30:24.669000Z</time>
      </trkpt>
      <trkpt lat="39.86135193674812" lon="116.46588857130736">
        <time>2026-07-09T23:30:27.669000Z</time>
      </trkpt>
      <trkpt lat="39.86141287455657" lon="116.46586648805192">
        <time>2026-07-09T23:30:30.669000Z</time>
      </trkpt>
      <trkpt lat="39.86168100708855" lon="116.46592164348681">
        <time>2026-07-09T23:30:42.669000Z</time>
      </trkpt>
      <trkpt lat="39.86197001542291" lon="116.46593063818938">
        <time>2026-07-09T23:30:54.669000Z</time>
      </trkpt>
      <trkpt lat="39.862251040281485" lon="116.4659456545279">
        <time>2026-07-09T23:31:06.669000Z</time>
      </trkpt>
      <trkpt lat="39.86253113483922" lon="116.46598676042035">
        <time>2026-07-09T23:31:18.669000Z</time>
      </trkpt>
      <trkpt lat="39.86266816221801" lon="116.4659997879591">
        <time>2026-07-09T23:31:24.669000Z</time>
      </trkpt>
      <trkpt lat="39.86293808599421" lon="116.46597667498781">
        <time>2026-07-09T23:31:36.669000Z</time>
      </trkpt>
      <trkpt lat="39.86321121316274" lon="116.46602982308193">
        <time>2026-07-09T23:31:48.669000Z</time>
      </trkpt>
      <trkpt lat="39.86347018041811" lon="116.46602276651798">
        <time>2026-07-09T23:32:00.669000Z</time>
      </trkpt>
      <trkpt lat="39.86371231739697" lon="116.46607892889345">
        <time>2026-07-09T23:32:09.769000Z</time>
      </trkpt>
      <trkpt lat="39.86377647209527" lon="116.46613812400695">
        <time>2026-07-09T23:32:12.669000Z</time>
      </trkpt>
      <trkpt lat="39.86379472056608" lon="116.46623144214325">
        <time>2026-07-09T23:32:15.669000Z</time>
      </trkpt>
      <trkpt lat="39.86374841878306" lon="116.46649134154144">
        <time>2026-07-09T23:32:24.669000Z</time>
      </trkpt>
      <trkpt lat="39.86375984061363" lon="116.46664888265865">
        <time>2026-07-09T23:32:30.669000Z</time>
      </trkpt>
      <trkpt lat="39.8638109967491" lon="116.46670808030244">
        <time>2026-07-09T23:32:33.769000Z</time>
      </trkpt>
      <trkpt lat="39.86386381077974" lon="116.46663983850371">
        <time>2026-07-09T23:32:36.669000Z</time>
      </trkpt>
      <trkpt lat="39.863911655238425" lon="116.46620935165916">
        <time>2026-07-09T23:32:48.769000Z</time>
      </trkpt>
      <trkpt lat="39.86391442712713" lon="116.4661240584911">
        <time>2026-07-09T23:32:51.769000Z</time>
      </trkpt>
      <trkpt lat="39.86393424380558" lon="116.46605582189038">
        <time>2026-07-09T23:32:54.769000Z</time>
      </trkpt>
      <trkpt lat="39.86398019846287" lon="116.46603976105945">
        <time>2026-07-09T23:32:57.869000Z</time>
      </trkpt>
      <trkpt lat="39.86420128303076" lon="116.46607585724614">
        <time>2026-07-09T23:33:06.969000Z</time>
      </trkpt>
      <trkpt lat="39.86440620502914" lon="116.46605074549257">
        <time>2026-07-09T23:33:16.069000Z</time>
      </trkpt>
      <trkpt lat="39.864688270284645" lon="116.46608081338624">
        <time>2026-07-09T23:33:28.269000Z</time>
      </trkpt>
      <trkpt lat="39.86496126102025" lon="116.4660827860355">
        <time>2026-07-09T23:33:40.569000Z</time>
      </trkpt>
      <trkpt lat="39.86527746126682" lon="116.46616402533171">
        <time>2026-07-09T23:33:52.669000Z</time>
      </trkpt>
      <trkpt lat="39.86555525608028" lon="116.46609274596933">
        <time>2026-07-09T23:34:04.669000Z</time>
      </trkpt>
      <trkpt lat="39.865863400512836" lon="116.46615291395509">
        <time>2026-07-09T23:34:19.669000Z</time>
      </trkpt>
      <trkpt lat="39.86616348914565" lon="116.46619201068316">
        <time>2026-07-09T23:34:31.669000Z</time>
      </trkpt>
      <trkpt lat="39.8664475223466" lon="116.46621003708941">
        <time>2026-07-09T23:34:43.669000Z</time>
      </trkpt>
    </trkseg>
  </trk>
</gpx>