<?xml version="1.0" encoding="UTF-8"?>
<gpx xmlns="http://www.topografix.com/GPX/1/1" xmlns:gpxtpx="http://www.garmin.com/xmlschemas/TrackPointExtension/v1" xmlns:xsi="http://www.w3.org/2001/XMLSchema-instance" xsi:schemaLocation="http://www.topografix.com/GPX/1/1 http://www.topografix.com/GPX/1/1/gpx.xsd" version="1.1" creator="gpx.py -- https://github.com/tkrajina/gpxpy">
  <trk>
    <name>gpx from keep</name>
    <type>Run</type>
    <trkseg>
      <trkpt lat="40.99162117639036" lon="117.94517201355104">
        <time>2026-08-18T23:48:29.688000Z</time>
      </trkpt>
      <trkpt lat="40.991553321363305" lon="117.94513111537776">
        <time>2026-08-18T23:48:35.688000Z</time>
      </trkpt>
      <trkpt lat="40.99148233726358" lon="117.9451520774573">
        <time>2026-08-18T23:48:38.688000Z</time>
      </trkpt>
      <trkpt lat="40.991423300441326" lon="117.9451929926619">
        <time>2026-08-18T23:48:43.288000Z</time>
      </trkpt>
      <trkpt lat="40.991089276513456" lon="117.94533770900597">
        <time>2026-08-18T23:48:55.488000Z</time>
      </trkpt>
      <trkpt lat="40.99082425923633" lon="117.94545148564232">
        <time>2026-08-18T23:49:07.588000Z</time>
      </trkpt>
      <trkpt lat="40.99050725587196" lon="117.94557923675673">
        <time>2026-08-18T23:49:22.688000Z</time>
      </trkpt>
      <trkpt lat="40.990242304026104" lon="117.94566208296209">
        <time>2026-08-18T23:49:34.788000Z</time>
      </trkpt>
      <trkpt lat="40.989967360461236" lon="117.9457449301986">
        <time>2026-08-18T23:49:46.988000Z</time>
      </trkpt>
      <trkpt lat="40.98970040340283" lon="117.94583076917208">
        <time>2026-08-18T23:49:59.288000Z</time>
      </trkpt>
      <trkpt lat="40.98943140693668" lon="117.94593556445442">
        <time>2026-08-18T23:50:11.388000Z</time>
      </trkpt>
      <trkpt lat="40.98936638916795" lon="117.94596949508629">
        <time>2026-08-18T23:50:14.488000Z</time>
      </trkpt>
      <trkpt lat="40.989092476186805" lon="117.94603737555119">
        <time>2026-08-18T23:50:26.588000Z</time>
      </trkpt>
      <trkpt lat="40.98888747191177" lon="117.94612021196389">
        <time>2026-08-18T23:50:35.588000Z</time>
      </trkpt>
      <trkpt lat="40.98867064383831" lon="117.94612622730598">
        <time>2026-08-18T23:50:44.588000Z</time>
      </trkpt>
      <trkpt lat="40.98840966757583" lon="117.94621805013225">
        <time>2026-08-18T23:50:56.588000Z</time>
      </trkpt>
      <trkpt lat="40.98812869507864" lon="117.94631586138445">
        <time>2026-08-18T23:51:08.588000Z</time>
      </trkpt>
      <trkpt lat="40.98800960590463" lon="117.94640367360412">
        <time>2026-08-18T23:51:14.588000Z</time>
      </trkpt>
      <trkpt lat="40.987947604541894" lon="117.9464286239841">
        <time>2026-08-18T23:51:17.588000Z</time>
      </trkpt>
      <trkpt lat="40.98787366758729" lon="117.94642863393257">
        <time>2026-08-18T23:51:20.688000Z</time>
      </trkpt>
      <trkpt lat="40.98780779966924" lon="117.94639372393469">
        <time>2026-08-18T23:51:23.688000Z</time>
      </trkpt>
      <trkpt lat="40.98752103985216" lon="117.94639575788338">
        <time>2026-08-18T23:51:35.688000Z</time>
      </trkpt>
      <trkpt lat="40.98724219736467" lon="117.94643270962115">
        <time>2026-08-18T23:51:47.788000Z</time>
      </trkpt>
      <trkpt lat="40.98697245774982" lon="117.94641877837876">
        <time>2026-08-18T23:51:59.888000Z</time>
      </trkpt>
      <trkpt lat="40.98678656852866" lon="117.94644075237011">
        <time>2026-08-18T23:52:09.088000Z</time>
      </trkpt>
      <trkpt lat="40.98674851848724" lon="117.94647866931379">
        <time>2026-08-18T23:52:12.188000Z</time>
      </trkpt>
      <trkpt lat="40.98658754713974" lon="117.94652857485244">
        <time>2026-08-18T23:52:21.388000Z</time>
      </trkpt>
      <trkpt lat="40.986422707260886" lon="117.9465196179412">
        <time>2026-08-18T23:52:27.488000Z</time>
      </trkpt>
      <trkpt lat="40.98644151076497" lon="117.94660242243822">
        <time>2026-08-18T23:52:30.488000Z</time>
      </trkpt>
      <trkpt lat="40.9863495521901" lon="117.94661939524852">
        <time>2026-08-18T23:52:36.488000Z</time>
      </trkpt>
      <trkpt lat="40.986063915406255" lon="117.94656456163061">
        <time>2026-08-18T23:52:48.488000Z</time>
      </trkpt>
      <trkpt lat="40.98584611200906" lon="117.9465596025603">
        <time>2026-08-18T23:52:57.488000Z</time>
      </trkpt>
      <trkpt lat="40.98586585362753" lon="117.94667034156454">
        <time>2026-08-18T23:53:03.488000Z</time>
      </trkpt>
      <trkpt lat="40.985787920085464" lon="117.94667035205048">
        <time>2026-08-18T23:53:06.488000Z</time>
      </trkpt>
      <trkpt lat="40.985500330758235" lon="117.94659456768515">
        <time>2026-08-18T23:53:18.488000Z</time>
      </trkpt>
      <trkpt lat="40.98533543004051" lon="117.94661354566111">
        <time>2026-08-18T23:53:24.488000Z</time>
      </trkpt>
      <trkpt lat="40.98515178452429" lon="117.94652278196673">
        <time>2026-08-18T23:53:33.488000Z</time>
      </trkpt>
      <trkpt lat="40.98484412508933" lon="117.94648690696452">
        <time>2026-08-18T23:53:45.488000Z</time>
      </trkpt>
      <trkpt lat="40.98455253002474" lon="117.94641511322968">
        <time>2026-08-18T23:53:57.488000Z</time>
      </trkpt>
      <trkpt lat="40.984276893003916" lon="117.94635628701275">
        <time>2026-08-18T23:54:09.488000Z</time>
      </trkpt>
      <trkpt lat="40.9839861885814" lon="117.94633437705349">
        <time>2026-08-18T23:54:21.488000Z</time>
      </trkpt>
      <trkpt lat="40.98363561746553" lon="117.94627456301009">
        <time>2026-08-18T23:54:36.488000Z</time>
      </trkpt>
      <trkpt lat="40.983422844360234" lon="117.94625364017261">
        <time>2026-08-18T23:54:45.488000Z</time>
      </trkpt>
      <trkpt lat="40.983149235541404" lon="117.9461808455566">
        <time>2026-08-18T23:54:57.588000Z</time>
      </trkpt>
      <trkpt lat="40.98285960566115" lon="117.94612401597753">
        <time>2026-08-18T23:55:09.588000Z</time>
      </trkpt>
      <trkpt lat="40.98258589089445" lon="117.94610010810312">
        <time>2026-08-18T23:55:21.588000Z</time>
      </trkpt>
      <trkpt lat="40.98231224506801" lon="117.94604427386055">
        <time>2026-08-18T23:55:33.588000Z</time>
      </trkpt>
      <trkpt lat="40.982030487511146" lon="117.94604331405972">
        <time>2026-08-18T23:55:45.588000Z</time>
      </trkpt>
      <trkpt lat="40.98174478721139" lon="117.94601741230679">
        <time>2026-08-18T23:55:57.588000Z</time>
      </trkpt>
      <trkpt lat="40.981464969794935" lon="117.94604339012321">
        <time>2026-08-18T23:56:09.588000Z</time>
      </trkpt>
      <trkpt lat="40.981192090341494" lon="117.94609530709563">
        <time>2026-08-18T23:56:21.588000Z</time>
      </trkpt>
      <trkpt lat="40.980916258661274" lon="117.94612627275963">
        <time>2026-08-18T23:56:33.588000Z</time>
      </trkpt>
      <trkpt lat="40.98071240444169" lon="117.94613927020833">
        <time>2026-08-18T23:56:42.588000Z</time>
      </trkpt>
      <trkpt lat="40.9806424144517" lon="117.94616222658004">
        <time>2026-08-18T23:56:45.588000Z</time>
      </trkpt>
      <trkpt lat="40.98036964923317" lon="117.94616126557341">
        <time>2026-08-18T23:56:57.688000Z</time>
      </trkpt>
      <trkpt lat="40.98004089287461" lon="117.94617827057115">
        <time>2026-08-18T23:57:12.788000Z</time>
      </trkpt>
      <trkpt lat="40.97976619195885" lon="117.9461483767185">
        <time>2026-08-18T23:57:24.888000Z</time>
      </trkpt>
      <trkpt lat="40.9794335555318" lon="117.94611150674734">
        <time>2026-08-18T23:57:40.188000Z</time>
      </trkpt>
      <trkpt lat="40.979368677760924" lon="117.94608058688542">
        <time>2026-08-18T23:57:43.188000Z</time>
      </trkpt>
      <trkpt lat="40.97923174706533" lon="117.94610255462577">
        <time>2026-08-18T23:57:49.288000Z</time>
      </trkpt>
      <trkpt lat="40.979176699013856" lon="117.94614646061281">
        <time>2026-08-18T23:57:52.388000Z</time>
      </trkpt>
      <trkpt lat="40.97911676740246" lon="117.94613848711889">
        <time>2026-08-18T23:57:55.388000Z</time>
      </trkpt>
      <trkpt lat="40.97889753187665" lon="117.94587113286008">
        <time>2026-08-18T23:58:07.488000Z</time>
      </trkpt>
      <trkpt lat="40.978632110397726" lon="117.94570754405407">
        <time>2026-08-18T23:58:19.488000Z</time>
      </trkpt>
      <trkpt lat="40.97852738186629" lon="117.9456227522737">
        <time>2026-08-18T23:58:25.488000Z</time>
      </trkpt>
      <trkpt lat="40.97847446339678" lon="117.94560579817727">
        <time>2026-08-18T23:58:28.488000Z</time>
      </trkpt>
      <trkpt lat="40.978254134246335" lon="117.94538034219615">
        <time>2026-08-18T23:58:40.488000Z</time>
      </trkpt>
      <trkpt lat="40.97802180715734" lon="117.9451578787027">
        <time>2026-08-18T23:58:52.488000Z</time>
      </trkpt>
      <trkpt lat="40.977823489531694" lon="117.9449164510964">
        <time>2026-08-18T23:59:04.488000Z</time>
      </trkpt>
      <trkpt lat="40.97761518678047" lon="117.94467103108035">
        <time>2026-08-18T23:59:16.488000Z</time>
      </trkpt>
      <trkpt lat="40.977406848319994" lon="117.9444415726304">
        <time>2026-08-18T23:59:28.488000Z</time>
      </trkpt>
      <trkpt lat="40.97718953236081" lon="117.94420413065905">
        <time>2026-08-18T23:59:40.488000Z</time>
      </trkpt>
      <trkpt lat="40.97696718950232" lon="117.94398065584133">
        <time>2026-08-18T23:59:52.488000Z</time>
      </trkpt>
      <trkpt lat="40.976918366468176" lon="117.94391580568893">
        <time>2026-08-18T23:59:55.488000Z</time>
      </trkpt>
      <trkpt lat="40.97678967373432" lon="117.9438210320465">
        <time>2026-08-19T00:00:01.588000Z</time>
      </trkpt>
      <trkpt lat="40.97656932608466" lon="117.94359755292805">
        <time>2026-08-19T00:00:13.588000Z</time>
      </trkpt>
      <trkpt lat="40.97634897868607" lon="117.9433730736247">
        <time>2026-08-19T00:00:25.588000Z</time>
      </trkpt>
      <trkpt lat="40.976115644636664" lon="117.94314659800884">
        <time>2026-08-19T00:00:37.588000Z</time>
      </trkpt>
      <trkpt lat="40.97588429679874" lon="117.94292510890526">
        <time>2026-08-19T00:00:49.588000Z</time>
      </trkpt>
      <trkpt lat="40.975669948962356" lon="117.94269563233824">
        <time>2026-08-19T00:01:01.588000Z</time>
      </trkpt>
      <trkpt lat="40.97545060345596" lon="117.94246615392152">
        <time>2026-08-19T00:01:13.588000Z</time>
      </trkpt>
      <trkpt lat="40.97522424785092" lon="117.94224365905441">
        <time>2026-08-19T00:01:25.588000Z</time>
      </trkpt>
      <trkpt lat="40.97499288865008" lon="117.94202415613628">
        <time>2026-08-19T00:01:37.688000Z</time>
      </trkpt>
      <trkpt lat="40.974757493029806" lon="117.9418236114796">
        <time>2026-08-19T00:01:49.788000Z</time>
      </trkpt>
      <trkpt lat="40.97451509390044" lon="117.94162705744053">
        <time>2026-08-19T00:02:01.988000Z</time>
      </trkpt>
      <trkpt lat="40.97427870213825" lon="117.9414235153064">
        <time>2026-08-19T00:02:14.188000Z</time>
      </trkpt>
      <trkpt lat="40.974021255408054" lon="117.94125589928754">
        <time>2026-08-19T00:02:26.488000Z</time>
      </trkpt>
      <trkpt lat="40.973772813786084" lon="117.9410812951593">
        <time>2026-08-19T00:02:38.688000Z</time>
      </trkpt>
      <trkpt lat="40.97348738876528" lon="117.94091368009333">
        <time>2026-08-19T00:02:50.688000Z</time>
      </trkpt>
      <trkpt lat="40.97321688904964" lon="117.94077699804551">
        <time>2026-08-19T00:03:02.688000Z</time>
      </trkpt>
      <trkpt lat="40.9729533767901" lon="117.94064330800379">
        <time>2026-08-19T00:03:14.788000Z</time>
      </trkpt>
      <trkpt lat="40.97269179570342" lon="117.94054354746007">
        <time>2026-08-19T00:03:26.888000Z</time>
      </trkpt>
      <trkpt lat="40.972419245073276" lon="117.94043281029077">
        <time>2026-08-19T00:03:39.188000Z</time>
      </trkpt>
      <trkpt lat="40.97209875628458" lon="117.94031110127825">
        <time>2026-08-19T00:03:54.488000Z</time>
      </trkpt>
      <trkpt lat="40.971823207233584" lon="117.94020036323825">
        <time>2026-08-19T00:04:06.588000Z</time>
      </trkpt>
      <trkpt lat="40.971534686231294" lon="117.9400806444967">
        <time>2026-08-19T00:04:18.588000Z</time>
      </trkpt>
      <trkpt lat="40.97134105088038" lon="117.93997787809276">
        <time>2026-08-19T00:04:27.588000Z</time>
      </trkpt>
      <trkpt lat="40.971061465235124" lon="117.93988709860292">
        <time>2026-08-19T00:04:39.588000Z</time>
      </trkpt>
      <trkpt lat="40.97079990631955" lon="117.93977436035966">
        <time>2026-08-19T00:04:51.588000Z</time>
      </trkpt>
      <trkpt lat="40.97059522338374" lon="117.93970053591521">
        <time>2026-08-19T00:05:00.588000Z</time>
      </trkpt>
      <trkpt lat="40.97031354244456" lon="117.93965965565114">
        <time>2026-08-19T00:05:12.688000Z</time>
      </trkpt>
      <trkpt lat="40.97003580233357" lon="117.93964771689195">
        <time>2026-08-19T00:05:24.788000Z</time>
      </trkpt>
      <trkpt lat="40.969756941986944" lon="117.93969865242656">
        <time>2026-08-19T00:05:36.788000Z</time>
      </trkpt>
      <trkpt lat="40.96948609397185" lon="117.93973960677184">
        <time>2026-08-19T00:05:48.988000Z</time>
      </trkpt>
      <trkpt lat="40.96928422562673" lon="117.9397605918302">
        <time>2026-08-19T00:05:58.188000Z</time>
      </trkpt>
      <trkpt lat="40.969103287351984" lon="117.93980851995225">
        <time>2026-08-19T00:06:07.388000Z</time>
      </trkpt>
      <trkpt lat="40.96943405932806" lon="117.93978053166609">
        <time>2026-08-19T00:06:19.488000Z</time>
      </trkpt>
      <trkpt lat="40.96974289427972" lon="117.9397295923144">
        <time>2026-08-19T00:06:31.488000Z</time>
      </trkpt>
      <trkpt lat="40.97002772073578" lon="117.93969362607871">
        <time>2026-08-19T00:06:43.488000Z</time>
      </trkpt>
      <trkpt lat="40.970310466182596" lon="117.93970057413539">
        <time>2026-08-19T00:06:55.488000Z</time>
      </trkpt>
      <trkpt lat="40.97064703859166" lon="117.93977338288111">
        <time>2026-08-19T00:07:10.588000Z</time>
      </trkpt>
      <trkpt lat="40.970925588820336" lon="117.93988312487522">
        <time>2026-08-19T00:07:22.588000Z</time>
      </trkpt>
      <trkpt lat="40.971206142687485" lon="117.93998987204222">
        <time>2026-08-19T00:07:34.588000Z</time>
      </trkpt>
      <trkpt lat="40.971480701231464" lon="117.94009661944767">
        <time>2026-08-19T00:07:46.588000Z</time>
      </trkpt>
      <trkpt lat="40.971752250243306" lon="117.94020935454573">
        <time>2026-08-19T00:07:58.588000Z</time>
      </trkpt>
      <trkpt lat="40.97203279305081" lon="117.94032108983663">
        <time>2026-08-19T00:08:10.588000Z</time>
      </trkpt>
      <trkpt lat="40.97230437426081" lon="117.94041685827382">
        <time>2026-08-19T00:08:22.588000Z</time>
      </trkpt>
      <trkpt lat="40.972577898695995" lon="117.9405405688744">
        <time>2026-08-19T00:08:34.588000Z</time>
      </trkpt>
      <trkpt lat="40.97269867237123" lon="117.94060342399433">
        <time>2026-08-19T00:08:40.588000Z</time>
      </trkpt>
      <trkpt lat="40.97298124318466" lon="117.94069918962055">
        <time>2026-08-19T00:08:52.588000Z</time>
      </trkpt>
      <trkpt lat="40.97324277259304" lon="117.94082489600075">
        <time>2026-08-19T00:09:04.688000Z</time>
      </trkpt>
      <trkpt lat="40.97349125138622" lon="117.94098153944711">
        <time>2026-08-19T00:09:16.788000Z</time>
      </trkpt>
      <trkpt lat="40.973758756561146" lon="117.94111622466427">
        <time>2026-08-19T00:09:28.888000Z</time>
      </trkpt>
      <trkpt lat="40.97401919764534" lon="117.94128583727016">
        <time>2026-08-19T00:09:41.188000Z</time>
      </trkpt>
      <trkpt lat="40.97427563111645" lon="117.94146043858225">
        <time>2026-08-19T00:09:53.488000Z</time>
      </trkpt>
      <trkpt lat="40.974547012744054" lon="117.9416539966049">
        <time>2026-08-19T00:10:05.488000Z</time>
      </trkpt>
      <trkpt lat="40.97477540356626" lon="117.94186053122081">
        <time>2026-08-19T00:10:17.488000Z</time>
      </trkpt>
      <trkpt lat="40.97501577453527" lon="117.9420710537019">
        <time>2026-08-19T00:10:29.588000Z</time>
      </trkpt>
      <trkpt lat="40.97523111870609" lon="117.94230452851035">
        <time>2026-08-19T00:10:41.688000Z</time>
      </trkpt>
      <trkpt lat="40.97546147243324" lon="117.9425260243268">
        <time>2026-08-19T00:10:53.788000Z</time>
      </trkpt>
      <trkpt lat="40.97569482587485" lon="117.94274552168082">
        <time>2026-08-19T00:11:05.888000Z</time>
      </trkpt>
      <trkpt lat="40.97592117124732" lon="117.94297100472231">
        <time>2026-08-19T00:11:18.088000Z</time>
      </trkpt>
      <trkpt lat="40.97603581941803" lon="117.94309472133246">
        <time>2026-08-19T00:11:24.188000Z</time>
      </trkpt>
      <trkpt lat="40.976274168151505" lon="117.94331221640499">
        <time>2026-08-19T00:11:36.488000Z</time>
      </trkpt>
      <trkpt lat="40.976519447230565" lon="117.94355964273733">
        <time>2026-08-19T00:11:48.488000Z</time>
      </trkpt>
      <trkpt lat="40.97672077818326" lon="117.94379908965956">
        <time>2026-08-19T00:12:00.488000Z</time>
      </trkpt>
      <trkpt lat="40.9769730802762" lon="117.94403054469525">
        <time>2026-08-19T00:12:12.488000Z</time>
      </trkpt>
      <trkpt lat="40.97719637168349" lon="117.94427796559994">
        <time>2026-08-19T00:12:24.488000Z</time>
      </trkpt>
      <trkpt lat="40.97741266686009" lon="117.94452538457762">
        <time>2026-08-19T00:12:36.488000Z</time>
      </trkpt>
      <trkpt lat="40.97762397254807" lon="117.9447688103399">
        <time>2026-08-19T00:12:48.488000Z</time>
      </trkpt>
      <trkpt lat="40.97784227651575" lon="117.9450092391669">
        <time>2026-08-19T00:13:00.488000Z</time>
      </trkpt>
      <trkpt lat="40.97807057416431" lon="117.94524766850051">
        <time>2026-08-19T00:13:12.488000Z</time>
      </trkpt>
      <trkpt lat="40.978213004979445" lon="117.94545717273134">
        <time>2026-08-19T00:13:21.488000Z</time>
      </trkpt>
      <trkpt lat="40.9784323857647" lon="117.94565868286539">
        <time>2026-08-19T00:13:33.488000Z</time>
      </trkpt>
      <trkpt lat="40.978703808851655" lon="117.94581927810552">
        <time>2026-08-19T00:13:45.488000Z</time>
      </trkpt>
      <trkpt lat="40.97894726350116" lon="117.94597588511671">
        <time>2026-08-19T00:13:57.488000Z</time>
      </trkpt>
      <trkpt lat="40.979092701517494" lon="117.94617839809737">
        <time>2026-08-19T00:14:06.488000Z</time>
      </trkpt>
      <trkpt lat="40.979157589983274" lon="117.94620432936374">
        <time>2026-08-19T00:14:09.488000Z</time>
      </trkpt>
      <trkpt lat="40.97942947048416" lon="117.94615241278086">
        <time>2026-08-19T00:14:21.488000Z</time>
      </trkpt>
      <trkpt lat="40.97953232227533" lon="117.94618033435675">
        <time>2026-08-19T00:14:24.488000Z</time>
      </trkpt>
      <trkpt lat="40.97980402139361" lon="117.94621222395226">
        <time>2026-08-19T00:14:36.488000Z</time>
      </trkpt>
      <trkpt lat="40.980093737555215" lon="117.9462291457277">
        <time>2026-08-19T00:14:48.588000Z</time>
      </trkpt>
      <trkpt lat="40.98038452200306" lon="117.94621414125778">
        <time>2026-08-19T00:15:00.588000Z</time>
      </trkpt>
      <trkpt lat="40.980663383605865" lon="117.94616820991872">
        <time>2026-08-19T00:15:12.588000Z</time>
      </trkpt>
      <trkpt lat="40.980959181026634" lon="117.946145223182">
        <time>2026-08-19T00:15:24.588000Z</time>
      </trkpt>
      <trkpt lat="40.98125096457968" lon="117.94613021852051">
        <time>2026-08-19T00:15:36.588000Z</time>
      </trkpt>
      <trkpt lat="40.981541807200976" lon="117.94608827618272">
        <time>2026-08-19T00:15:48.588000Z</time>
      </trkpt>
      <trkpt lat="40.9818266053116" lon="117.9460692816324">
        <time>2026-08-19T00:16:00.688000Z</time>
      </trkpt>
      <trkpt lat="40.982111347378144" lon="117.94607622721445">
        <time>2026-08-19T00:16:12.788000Z</time>
      </trkpt>
      <trkpt lat="40.982327139614284" lon="117.94608717285486">
        <time>2026-08-19T00:16:21.788000Z</time>
      </trkpt>
      <trkpt lat="40.98261171555036" lon="117.94617094093462">
        <time>2026-08-19T00:16:34.088000Z</time>
      </trkpt>
      <trkpt lat="40.9828803697127" lon="117.94622478014351">
        <time>2026-08-19T00:16:46.288000Z</time>
      </trkpt>
      <trkpt lat="40.98320098811696" lon="117.94627462147677">
        <time>2026-08-19T00:16:58.488000Z</time>
      </trkpt>
      <trkpt lat="40.98348661677956" lon="117.94633344657292">
        <time>2026-08-19T00:17:10.488000Z</time>
      </trkpt>
      <trkpt lat="40.98377831168707" lon="117.94635934713854">
        <time>2026-08-19T00:17:22.488000Z</time>
      </trkpt>
      <trkpt lat="40.98411187543597" lon="117.94642914005104">
        <time>2026-08-19T00:17:37.588000Z</time>
      </trkpt>
      <trkpt lat="40.98441849457245" lon="117.9464839711915">
        <time>2026-08-19T00:17:49.688000Z</time>
      </trkpt>
      <trkpt lat="40.98470111233765" lon="117.94654878218175">
        <time>2026-08-19T00:18:01.788000Z</time>
      </trkpt>
      <trkpt lat="40.98500073721415" lon="117.94660361396248">
        <time>2026-08-19T00:18:13.988000Z</time>
      </trkpt>
      <trkpt lat="40.985277375057755" lon="117.94666144171012">
        <time>2026-08-19T00:18:26.288000Z</time>
      </trkpt>
      <trkpt lat="40.98559494518245" lon="117.94673422881148">
        <time>2026-08-19T00:18:38.488000Z</time>
      </trkpt>
      <trkpt lat="40.9858806906105" lon="117.9467391786997">
        <time>2026-08-19T00:18:50.488000Z</time>
      </trkpt>
      <trkpt lat="40.98610947371074" lon="117.94674912458412">
        <time>2026-08-19T00:18:59.488000Z</time>
      </trkpt>
      <trkpt lat="40.98624240396322" lon="117.94672915335752">
        <time>2026-08-19T00:19:05.488000Z</time>
      </trkpt>
      <trkpt lat="40.98652012789133" lon="117.94674707399516">
        <time>2026-08-19T00:19:17.488000Z</time>
      </trkpt>
      <trkpt lat="40.98681986139606" lon="117.94675202199636">
        <time>2026-08-19T00:19:29.488000Z</time>
      </trkpt>
      <trkpt lat="40.98710262681843" lon="117.94674899094822">
        <time>2026-08-19T00:19:41.488000Z</time>
      </trkpt>
      <trkpt lat="40.98738635434679" lon="117.94676292009642">
        <time>2026-08-19T00:19:53.488000Z</time>
      </trkpt>
      <trkpt lat="40.987679183152046" lon="117.94672696469163">
        <time>2026-08-19T00:20:05.488000Z</time>
      </trkpt>
      <trkpt lat="40.98787605886959" lon="117.9467069848406">
        <time>2026-08-19T00:20:14.488000Z</time>
      </trkpt>
      <trkpt lat="40.988099824474524" lon="117.94672690808842">
        <time>2026-08-19T00:20:23.588000Z</time>
      </trkpt>
      <trkpt lat="40.988237789648224" lon="117.94668897812652">
        <time>2026-08-19T00:20:29.588000Z</time>
      </trkpt>
      <trkpt lat="40.98852255772639" lon="117.9466839514601">
        <time>2026-08-19T00:20:41.588000Z</time>
      </trkpt>
      <trkpt lat="40.98874438818405" lon="117.94667494258275">
        <time>2026-08-19T00:20:50.588000Z</time>
      </trkpt>
      <trkpt lat="40.988890222445306" lon="117.94669387867599">
        <time>2026-08-19T00:20:56.588000Z</time>
      </trkpt>
      <trkpt lat="40.989106108074985" lon="117.94666192419574">
        <time>2026-08-19T00:21:05.588000Z</time>
      </trkpt>
      <trkpt lat="40.989242926069984" lon="117.94669183587474">
        <time>2026-08-19T00:21:11.588000Z</time>
      </trkpt>
      <trkpt lat="40.98952978819876" lon="117.94664291143626">
        <time>2026-08-19T00:21:23.588000Z</time>
      </trkpt>
      <trkpt lat="40.98980452346946" lon="117.94665684185694">
        <time>2026-08-19T00:21:35.588000Z</time>
      </trkpt>
      <trkpt lat="40.99009327944911" lon="117.94665580532735">
        <time>2026-08-19T00:21:47.588000Z</time>
      </trkpt>
      <trkpt lat="40.990374995699234" lon="117.94667572081798">
        <time>2026-08-19T00:21:59.688000Z</time>
      </trkpt>
      <trkpt lat="40.99066178385547" lon="117.94666071717238">
        <time>2026-08-19T00:22:11.688000Z</time>
      </trkpt>
      <trkpt lat="40.990942485724354" lon="117.94668761647858">
        <time>2026-08-19T00:22:23.888000Z</time>
      </trkpt>
      <trkpt lat="40.991215248818285" lon="117.94668957510778">
        <time>2026-08-19T00:22:36.088000Z</time>
      </trkpt>
      <trkpt lat="40.99151292965287" lon="117.94671946509516">
        <time>2026-08-19T00:22:48.388000Z</time>
      </trkpt>
      <trkpt lat="40.991828608201025" lon="117.94674336661998">
        <time>2026-08-19T00:23:00.488000Z</time>
      </trkpt>
      <trkpt lat="40.99198547664691" lon="117.94674234784064">
        <time>2026-08-19T00:23:06.488000Z</time>
      </trkpt>
      <trkpt lat="40.992192152096784" lon="117.94681016125026">
        <time>2026-08-19T00:23:15.488000Z</time>
      </trkpt>
      <trkpt lat="40.992399996734505" lon="117.94680015663788">
        <time>2026-08-19T00:23:24.488000Z</time>
      </trkpt>
      <trkpt lat="40.9925387867198" lon="117.946842039806">
        <time>2026-08-19T00:23:30.488000Z</time>
      </trkpt>
      <trkpt lat="40.9928345149579" lon="117.94685097895899">
        <time>2026-08-19T00:23:42.488000Z</time>
      </trkpt>
      <trkpt lat="40.99304031112333" lon="117.9468639208573">
        <time>2026-08-19T00:23:51.488000Z</time>
      </trkpt>
      <trkpt lat="40.99325718085715" lon="117.94683895012484">
        <time>2026-08-19T00:24:00.488000Z</time>
      </trkpt>
      <trkpt lat="40.993540866942716" lon="117.94687183476906">
        <time>2026-08-19T00:24:12.488000Z</time>
      </trkpt>
      <trkpt lat="40.99382758320046" lon="117.94688975406167">
        <time>2026-08-19T00:24:24.488000Z</time>
      </trkpt>
      <trkpt lat="40.99410531148559" lon="117.94690567923047">
        <time>2026-08-19T00:24:36.488000Z</time>
      </trkpt>
      <trkpt lat="40.99439601995501" lon="117.94692559327326">
        <time>2026-08-19T00:24:48.488000Z</time>
      </trkpt>
      <trkpt lat="40.994679754046956" lon="117.94693652931781">
        <time>2026-08-19T00:25:00.488000Z</time>
      </trkpt>
      <trkpt lat="40.99494846375146" lon="117.9469644275461">
        <time>2026-08-19T00:25:12.488000Z</time>
      </trkpt>
      <trkpt lat="40.99524019321196" lon="117.94697436483753">
        <time>2026-08-19T00:25:24.488000Z</time>
      </trkpt>
      <trkpt lat="40.995532904325536" lon="117.94699228323505">
        <time>2026-08-19T00:25:36.488000Z</time>
      </trkpt>
      <trkpt lat="40.99581561082119" lon="117.94701618888986">
        <time>2026-08-19T00:25:48.488000Z</time>
      </trkpt>
      <trkpt lat="40.99609724152026" lon="117.94707501249341">
        <time>2026-08-19T00:26:00.488000Z</time>
      </trkpt>
      <trkpt lat="40.996368957325096" lon="117.9470989195366">
        <time>2026-08-19T00:26:12.588000Z</time>
      </trkpt>
      <trkpt lat="40.996509725475214" lon="117.94714978069936">
        <time>2026-08-19T00:26:18.588000Z</time>
      </trkpt>
      <trkpt lat="40.996816461864846" lon="117.94715073705089">
        <time>2026-08-19T00:26:30.588000Z</time>
      </trkpt>
      <trkpt lat="40.99694944725244" lon="117.94710582493687">
        <time>2026-08-19T00:26:36.588000Z</time>
      </trkpt>
      <trkpt lat="40.997231169875974" lon="117.94712274705286">
        <time>2026-08-19T00:26:48.588000Z</time>
      </trkpt>
      <trkpt lat="40.997523929161" lon="117.94711871703937">
        <time>2026-08-19T00:27:00.588000Z</time>
      </trkpt>
      <trkpt lat="40.99781260417008" lon="117.94715459352595">
        <time>2026-08-19T00:27:12.588000Z</time>
      </trkpt>
      <trkpt lat="40.99809325303702" lon="117.94720543572329">
        <time>2026-08-19T00:27:24.588000Z</time>
      </trkpt>
      <trkpt lat="40.998392813146275" lon="117.94728919746242">
        <time>2026-08-19T00:27:36.588000Z</time>
      </trkpt>
      <trkpt lat="40.99852658034609" lon="117.94734305204612">
        <time>2026-08-19T00:27:42.688000Z</time>
      </trkpt>
      <trkpt lat="40.99858341300436" lon="117.94739691685905">
        <time>2026-08-19T00:27:45.688000Z</time>
      </trkpt>
      <trkpt lat="40.998793051402195" lon="117.94747969235212">
        <time>2026-08-19T00:27:54.788000Z</time>
      </trkpt>
      <trkpt lat="40.999009747592545" lon="117.9475335353086">
        <time>2026-08-19T00:28:03.888000Z</time>
      </trkpt>
      <trkpt lat="40.99926218989439" lon="117.94768813357946">
        <time>2026-08-19T00:28:16.188000Z</time>
      </trkpt>
      <trkpt lat="40.99949363596644" lon="117.94784871931546">
        <time>2026-08-19T00:28:28.488000Z</time>
      </trkpt>
      <trkpt lat="40.99945877433122" lon="117.94779984072576">
        <time>2026-08-19T00:28:31.488000Z</time>
      </trkpt>
      <trkpt lat="40.999294193603404" lon="117.94767416252805">
        <time>2026-08-19T00:28:37.488000Z</time>
      </trkpt>
      <trkpt lat="40.999143613658276" lon="117.94754249595883">
        <time>2026-08-19T00:28:43.488000Z</time>
      </trkpt>
      <trkpt lat="40.9988621666659" lon="117.94740086987161">
        <time>2026-08-19T00:28:55.488000Z</time>
      </trkpt>
      <trkpt lat="40.99857256537263" lon="117.94733207181757">
        <time>2026-08-19T00:29:07.488000Z</time>
      </trkpt>
      <trkpt lat="40.998448881886226" lon="117.94723631483204">
        <time>2026-08-19T00:29:13.488000Z</time>
      </trkpt>
      <trkpt lat="40.99815932626575" lon="117.9471465656587">
        <time>2026-08-19T00:29:25.488000Z</time>
      </trkpt>
      <trkpt lat="40.997876659278475" lon="117.94710470245141">
        <time>2026-08-19T00:29:37.488000Z</time>
      </trkpt>
      <trkpt lat="40.99759002848448" lon="117.94704787491267">
        <time>2026-08-19T00:29:49.488000Z</time>
      </trkpt>
      <trkpt lat="40.99729534970494" lon="117.94701598967747">
        <time>2026-08-19T00:30:01.488000Z</time>
      </trkpt>
      <trkpt lat="40.99707748718241" lon="117.94703796738827">
        <time>2026-08-19T00:30:10.488000Z</time>
      </trkpt>
      <trkpt lat="40.996872723015066" lon="117.94701006065006">
        <time>2026-08-19T00:30:19.488000Z</time>
      </trkpt>
      <trkpt lat="40.99666587958635" lon="117.94701906738477">
        <time>2026-08-19T00:30:25.488000Z</time>
      </trkpt>
      <trkpt lat="40.99651091963809" lon="117.94706098967553">
        <time>2026-08-19T00:30:31.488000Z</time>
      </trkpt>
      <trkpt lat="40.99618733779349" lon="117.94699618575468">
        <time>2026-08-19T00:30:46.488000Z</time>
      </trkpt>
      <trkpt lat="40.99590965543965" lon="117.94695930986934">
        <time>2026-08-19T00:30:58.588000Z</time>
      </trkpt>
      <trkpt lat="40.99570393139211" lon="117.94691344530749">
        <time>2026-08-19T00:31:07.588000Z</time>
      </trkpt>
      <trkpt lat="40.99542123791564" lon="117.94688355357906">
        <time>2026-08-19T00:31:19.588000Z</time>
      </trkpt>
      <trkpt lat="40.99513051193537" lon="117.94687162078998">
        <time>2026-08-19T00:31:31.588000Z</time>
      </trkpt>
      <trkpt lat="40.99483582428118" lon="117.94684372594159">
        <time>2026-08-19T00:31:43.588000Z</time>
      </trkpt>
      <trkpt lat="40.99454211393981" lon="117.94682580755526">
        <time>2026-08-19T00:31:55.588000Z</time>
      </trkpt>
      <trkpt lat="40.99425137704499" lon="117.9468188630499">
        <time>2026-08-19T00:32:07.588000Z</time>
      </trkpt>
      <trkpt lat="40.99396563153273" lon="117.94681391319658">
        <time>2026-08-19T00:32:19.688000Z</time>
      </trkpt>
      <trkpt lat="40.993668930284294" lon="117.94679300219359">
        <time>2026-08-19T00:32:31.788000Z</time>
      </trkpt>
      <trkpt lat="40.993378206476535" lon="117.94678007168564">
        <time>2026-08-19T00:32:44.188000Z</time>
      </trkpt>
      <trkpt lat="40.993089450447336" lon="117.94678110821653">
        <time>2026-08-19T00:32:56.388000Z</time>
      </trkpt>
      <trkpt lat="40.99279876369101" lon="117.94675121737646">
        <time>2026-08-19T00:33:08.488000Z</time>
      </trkpt>
      <trkpt lat="40.99248597362809" lon="117.946777198782">
        <time>2026-08-19T00:33:20.488000Z</time>
      </trkpt>
      <trkpt lat="40.99242300766959" lon="117.94678618624029">
        <time>2026-08-19T00:33:23.488000Z</time>
      </trkpt>
      <trkpt lat="40.99242300766959" lon="117.94678618624029">
        <time>2026-08-19T00:33:25.988000Z</time>
      </trkpt>
    </trkseg>
  </trk>
</gpx>