<?xml version="1.0" encoding="UTF-8"?>
<gpx xmlns="http://www.topografix.com/GPX/1/1" xmlns:gpxtpx="http://www.garmin.com/xmlschemas/TrackPointExtension/v1" xmlns:xsi="http://www.w3.org/2001/XMLSchema-instance" xsi:schemaLocation="http://www.topografix.com/GPX/1/1 http://www.topografix.com/GPX/1/1/gpx.xsd" version="1.1" creator="gpx.py -- https://github.com/tkrajina/gpxpy">
  <trk>
    <name>gpx from keep</name>
    <type>Run</type>
    <trkseg>
      <trkpt lat="39.89035727325922" lon="116.34109975468884">
        <time>2026-09-08T22:06:01.954000Z</time>
      </trkpt>
      <trkpt lat="39.890329358031785" lon="116.3410528586633">
        <time>2026-09-08T22:06:05.054000Z</time>
      </trkpt>
      <trkpt lat="39.89035868198168" lon="116.34087024643084">
        <time>2026-09-08T22:06:11.054000Z</time>
      </trkpt>
      <trkpt lat="39.89034584987572" lon="116.34077644936775">
        <time>2026-09-08T22:06:14.154000Z</time>
      </trkpt>
      <trkpt lat="39.89031293332625" lon="116.34073055210025">
        <time>2026-09-08T22:06:17.254000Z</time>
      </trkpt>
      <trkpt lat="39.89029931010176" lon="116.34052000644311">
        <time>2026-09-08T22:06:23.354000Z</time>
      </trkpt>
      <trkpt lat="39.89037140132268" lon="116.34046711114595">
        <time>2026-09-08T22:06:26.354000Z</time>
      </trkpt>
      <trkpt lat="39.89069622381889" lon="116.34055787471142">
        <time>2026-09-08T22:06:41.354000Z</time>
      </trkpt>
      <trkpt lat="39.89070005782491" lon="116.34065067469501">
        <time>2026-09-08T22:06:44.354000Z</time>
      </trkpt>
      <trkpt lat="39.890667601774105" lon="116.34090712818939">
        <time>2026-09-08T22:06:53.354000Z</time>
      </trkpt>
      <trkpt lat="39.89066681894416" lon="116.34134718620454">
        <time>2026-09-08T22:07:08.354000Z</time>
      </trkpt>
      <trkpt lat="39.89067918854148" lon="116.34170242670588">
        <time>2026-09-08T22:07:20.354000Z</time>
      </trkpt>
      <trkpt lat="39.890712594335845" lon="116.34203770927559">
        <time>2026-09-08T22:07:32.354000Z</time>
      </trkpt>
      <trkpt lat="39.8907364295008" lon="116.3421305092302">
        <time>2026-09-08T22:07:35.354000Z</time>
      </trkpt>
      <trkpt lat="39.890811385542534" lon="116.34215345105052">
        <time>2026-09-08T22:07:38.354000Z</time>
      </trkpt>
      <trkpt lat="39.89110040553654" lon="116.3421344547427">
        <time>2026-09-08T22:07:50.354000Z</time>
      </trkpt>
      <trkpt lat="39.89138143648565" lon="116.3421094721603">
        <time>2026-09-08T22:08:02.354000Z</time>
      </trkpt>
      <trkpt lat="39.891597431749204" lon="116.3421064512066">
        <time>2026-09-08T22:08:11.354000Z</time>
      </trkpt>
      <trkpt lat="39.891740393445055" lon="116.34212439500669">
        <time>2026-09-08T22:08:17.354000Z</time>
      </trkpt>
      <trkpt lat="39.8920193805309" lon="116.34212435973359">
        <time>2026-09-08T22:08:29.354000Z</time>
      </trkpt>
      <trkpt lat="39.89222836558873" lon="116.34212732695711">
        <time>2026-09-08T22:08:38.354000Z</time>
      </trkpt>
      <trkpt lat="39.89243344412594" lon="116.34207740694444">
        <time>2026-09-08T22:08:47.354000Z</time>
      </trkpt>
      <trkpt lat="39.89264242743989" lon="116.34208137204658">
        <time>2026-09-08T22:08:56.354000Z</time>
      </trkpt>
      <trkpt lat="39.892906624875884" lon="116.34196259090585">
        <time>2026-09-08T22:09:08.354000Z</time>
      </trkpt>
      <trkpt lat="39.89318363327314" lon="116.34195058133575">
        <time>2026-09-08T22:09:20.354000Z</time>
      </trkpt>
      <trkpt lat="39.89345762948848" lon="116.34194555729934">
        <time>2026-09-08T22:09:32.354000Z</time>
      </trkpt>
      <trkpt lat="39.893524607023096" lon="116.34195652549764">
        <time>2026-09-08T22:09:35.354000Z</time>
      </trkpt>
      <trkpt lat="39.89344952412938" lon="116.34200543107907">
        <time>2026-09-08T22:09:41.354000Z</time>
      </trkpt>
      <trkpt lat="39.893150610117935" lon="116.3419645558159">
        <time>2026-09-08T22:09:53.354000Z</time>
      </trkpt>
      <trkpt lat="39.89307961867225" lon="116.3419615711546">
        <time>2026-09-08T22:09:56.354000Z</time>
      </trkpt>
      <trkpt lat="39.893030578636434" lon="116.34198552645631">
        <time>2026-09-08T22:09:59.354000Z</time>
      </trkpt>
      <trkpt lat="39.892967627765614" lon="116.34230040389104">
        <time>2026-09-08T22:10:17.354000Z</time>
      </trkpt>
      <trkpt lat="39.89305733947729" lon="116.34251652528665">
        <time>2026-09-08T22:10:26.354000Z</time>
      </trkpt>
      <trkpt lat="39.893246242886846" lon="116.34273890358439">
        <time>2026-09-08T22:10:32.454000Z</time>
      </trkpt>
      <trkpt lat="39.893367102626726" lon="116.34281572618706">
        <time>2026-09-08T22:10:38.354000Z</time>
      </trkpt>
      <trkpt lat="39.89309417639724" lon="116.34278083437518">
        <time>2026-09-08T22:10:56.454000Z</time>
      </trkpt>
      <trkpt lat="39.892955181047476" lon="116.34278184984724">
        <time>2026-09-08T22:11:02.554000Z</time>
      </trkpt>
      <trkpt lat="39.892836011687365" lon="116.34288165448878">
        <time>2026-09-08T22:11:08.554000Z</time>
      </trkpt>
      <trkpt lat="39.89276871442892" lon="116.34305330152242">
        <time>2026-09-08T22:11:14.554000Z</time>
      </trkpt>
      <trkpt lat="39.892512752409864" lon="116.34303836539382">
        <time>2026-09-08T22:11:26.654000Z</time>
      </trkpt>
      <trkpt lat="39.892450718629455" lon="116.34305932913915">
        <time>2026-09-08T22:11:29.654000Z</time>
      </trkpt>
      <trkpt lat="39.892441359988936" lon="116.34326489818922">
        <time>2026-09-08T22:12:05.854000Z</time>
      </trkpt>
      <trkpt lat="39.892149397858084" lon="116.34325096445544">
        <time>2026-09-08T22:12:18.054000Z</time>
      </trkpt>
      <trkpt lat="39.89188343977083" lon="116.34323403372493">
        <time>2026-09-08T22:12:27.254000Z</time>
      </trkpt>
      <trkpt lat="39.89155840780306" lon="116.34326101823872">
        <time>2026-09-08T22:12:39.354000Z</time>
      </trkpt>
      <trkpt lat="39.89121243430451" lon="116.34325507456737">
        <time>2026-09-08T22:12:54.354000Z</time>
      </trkpt>
      <trkpt lat="39.89091048491184" lon="116.34323415677007">
        <time>2026-09-08T22:13:06.354000Z</time>
      </trkpt>
      <trkpt lat="39.89083951956904" lon="116.34321620348027">
        <time>2026-09-08T22:13:09.354000Z</time>
      </trkpt>
      <trkpt lat="39.89052555509265" lon="116.34320426834513">
        <time>2026-09-08T22:13:21.354000Z</time>
      </trkpt>
      <trkpt lat="39.89025058185135" lon="116.34319631989322">
        <time>2026-09-08T22:13:33.354000Z</time>
      </trkpt>
      <trkpt lat="39.889985566344286" lon="116.34321231985716">
        <time>2026-09-08T22:13:45.354000Z</time>
      </trkpt>
      <trkpt lat="39.88967964163325" lon="116.34317743193826">
        <time>2026-09-08T22:13:57.354000Z</time>
      </trkpt>
      <trkpt lat="39.88937065086993" lon="116.34318046471923">
        <time>2026-09-08T22:14:09.354000Z</time>
      </trkpt>
      <trkpt lat="39.889083673037995" lon="116.34317551149466">
        <time>2026-09-08T22:14:21.354000Z</time>
      </trkpt>
      <trkpt lat="39.888792698898925" lon="116.34316856297035">
        <time>2026-09-08T22:14:33.354000Z</time>
      </trkpt>
      <trkpt lat="39.88851170862323" lon="116.34317059430609">
        <time>2026-09-08T22:14:45.354000Z</time>
      </trkpt>
      <trkpt lat="39.88819750221863" lon="116.34315467772177">
        <time>2026-09-08T22:15:00.354000Z</time>
      </trkpt>
      <trkpt lat="39.887854903260894" lon="116.34314091801402">
        <time>2026-09-08T22:15:12.354000Z</time>
      </trkpt>
      <trkpt lat="39.88755177306358" lon="116.34315973875776">
        <time>2026-09-08T22:15:24.354000Z</time>
      </trkpt>
      <trkpt lat="39.88727079158361" lon="116.34315678057831">
        <time>2026-09-08T22:15:36.354000Z</time>
      </trkpt>
      <trkpt lat="39.88697880367125" lon="116.3431578153994">
        <time>2026-09-08T22:15:48.354000Z</time>
      </trkpt>
      <trkpt lat="39.88669681704735" lon="116.34315785105315">
        <time>2026-09-08T22:16:00.354000Z</time>
      </trkpt>
      <trkpt lat="39.88639885386411" lon="116.34314491599753">
        <time>2026-09-08T22:16:12.354000Z</time>
      </trkpt>
      <trkpt lat="39.886053194081256" lon="116.34315521218247">
        <time>2026-09-08T22:16:27.354000Z</time>
      </trkpt>
      <trkpt lat="39.885732890806295" lon="116.34314200649101">
        <time>2026-09-08T22:16:39.354000Z</time>
      </trkpt>
      <trkpt lat="39.88544888692898" lon="116.34315202141937">
        <time>2026-09-08T22:16:51.354000Z</time>
      </trkpt>
      <trkpt lat="39.88515387662697" lon="116.34316602935102">
        <time>2026-09-08T22:17:03.354000Z</time>
      </trkpt>
      <trkpt lat="39.88486392188476" lon="116.3431481037665">
        <time>2026-09-08T22:17:15.454000Z</time>
      </trkpt>
      <trkpt lat="39.884577928622654" lon="116.3431521315324">
        <time>2026-09-08T22:17:27.454000Z</time>
      </trkpt>
      <trkpt lat="39.88430694337582" lon="116.34315116788922">
        <time>2026-09-08T22:17:39.454000Z</time>
      </trkpt>
      <trkpt lat="39.884020913550906" lon="116.34317615161338">
        <time>2026-09-08T22:17:51.454000Z</time>
      </trkpt>
      <trkpt lat="39.883737946347466" lon="116.34316521045707">
        <time>2026-09-08T22:18:03.454000Z</time>
      </trkpt>
      <trkpt lat="39.88344498139138" lon="116.34315327266408">
        <time>2026-09-08T22:18:15.554000Z</time>
      </trkpt>
      <trkpt lat="39.88317099113549" lon="116.34315530310614">
        <time>2026-09-08T22:18:27.654000Z</time>
      </trkpt>
      <trkpt lat="39.882830014599676" lon="116.3431513546017">
        <time>2026-09-08T22:18:42.854000Z</time>
      </trkpt>
      <trkpt lat="39.882546026613525" lon="116.34315238840428">
        <time>2026-09-08T22:18:55.154000Z</time>
      </trkpt>
      <trkpt lat="39.88223903279175" lon="116.34315741672434">
        <time>2026-09-08T22:19:07.354000Z</time>
      </trkpt>
      <trkpt lat="39.881955008247" lon="116.34317940648758">
        <time>2026-09-08T22:19:19.354000Z</time>
      </trkpt>
      <trkpt lat="39.88167104472321" lon="116.34316646964727">
        <time>2026-09-08T22:19:31.354000Z</time>
      </trkpt>
      <trkpt lat="39.88139003053192" lon="116.3431824716152">
        <time>2026-09-08T22:19:43.354000Z</time>
      </trkpt>
      <trkpt lat="39.881107012977836" lon="116.34320046964798">
        <time>2026-09-08T22:19:55.354000Z</time>
      </trkpt>
      <trkpt lat="39.88082400067584" lon="116.34321547397536">
        <time>2026-09-08T22:20:07.354000Z</time>
      </trkpt>
      <trkpt lat="39.88053196619596" lon="116.34324345220088">
        <time>2026-09-08T22:20:19.354000Z</time>
      </trkpt>
      <trkpt lat="39.88024094563204" lon="116.34326344707614">
        <time>2026-09-08T22:20:31.354000Z</time>
      </trkpt>
      <trkpt lat="39.87995793514979" lon="116.34327745351685">
        <time>2026-09-08T22:20:43.354000Z</time>
      </trkpt>
      <trkpt lat="39.87965391528009" lon="116.34329745004861">
        <time>2026-09-08T22:20:55.354000Z</time>
      </trkpt>
      <trkpt lat="39.879366863278086" lon="116.34333540675033">
        <time>2026-09-08T22:21:07.354000Z</time>
      </trkpt>
      <trkpt lat="39.87902182636203" lon="116.3433663854629">
        <time>2026-09-08T22:21:22.354000Z</time>
      </trkpt>
      <trkpt lat="39.878740835028935" lon="116.34336941470065">
        <time>2026-09-08T22:21:34.354000Z</time>
      </trkpt>
      <trkpt lat="39.878462808781265" lon="116.34339240170516">
        <time>2026-09-08T22:21:46.354000Z</time>
      </trkpt>
      <trkpt lat="39.87817878807689" lon="116.34341239575481">
        <time>2026-09-08T22:21:58.354000Z</time>
      </trkpt>
      <trkpt lat="39.87787976119183" lon="116.34343638334177">
        <time>2026-09-08T22:22:10.354000Z</time>
      </trkpt>
      <trkpt lat="39.87759574054611" lon="116.34345637740898">
        <time>2026-09-08T22:22:22.354000Z</time>
      </trkpt>
      <trkpt lat="39.8773117216664" lon="116.34347537357496">
        <time>2026-09-08T22:22:34.354000Z</time>
      </trkpt>
      <trkpt lat="39.877171707793146" lon="116.34348736618146">
        <time>2026-09-08T22:22:40.354000Z</time>
      </trkpt>
      <trkpt lat="39.87704163784073" lon="116.34353129064816">
        <time>2026-09-08T22:22:46.354000Z</time>
      </trkpt>
      <trkpt lat="39.876774654648365" lon="116.34352932857314">
        <time>2026-09-08T22:22:58.354000Z</time>
      </trkpt>
      <trkpt lat="39.876481582479684" lon="116.34357926114663">
        <time>2026-09-08T22:23:10.354000Z</time>
      </trkpt>
      <trkpt lat="39.876179533386576" lon="116.34361622204966">
        <time>2026-09-08T22:23:25.354000Z</time>
      </trkpt>
      <trkpt lat="39.87605849433994" lon="116.34364218306435">
        <time>2026-09-08T22:23:31.354000Z</time>
      </trkpt>
      <trkpt lat="39.87589986565057" lon="116.34363667625543">
        <time>2026-09-08T22:23:37.354000Z</time>
      </trkpt>
      <trkpt lat="39.87566899156597" lon="116.34366348158024">
        <time>2026-09-08T22:23:46.354000Z</time>
      </trkpt>
      <trkpt lat="39.875391510514724" lon="116.34365224649096">
        <time>2026-09-08T22:23:58.354000Z</time>
      </trkpt>
      <trkpt lat="39.875119567596045" lon="116.34362733305149">
        <time>2026-09-08T22:24:10.354000Z</time>
      </trkpt>
      <trkpt lat="39.87481354833814" lon="116.3436473299756">
        <time>2026-09-08T22:24:22.354000Z</time>
      </trkpt>
      <trkpt lat="39.87453353647045" lon="116.34366233405609">
        <time>2026-09-08T22:24:34.354000Z</time>
      </trkpt>
      <trkpt lat="39.87423154829146" lon="116.34366436804862">
        <time>2026-09-08T22:24:46.354000Z</time>
      </trkpt>
      <trkpt lat="39.873950524384014" lon="116.34368635765496">
        <time>2026-09-08T22:24:58.354000Z</time>
      </trkpt>
      <trkpt lat="39.8736564655741" lon="116.34371961340833">
        <time>2026-09-08T22:25:10.354000Z</time>
      </trkpt>
      <trkpt lat="39.87337846156824" lon="116.34373931939248">
        <time>2026-09-08T22:25:22.354000Z</time>
      </trkpt>
      <trkpt lat="39.87309655656807" lon="116.34377343947072">
        <time>2026-09-08T22:25:34.354000Z</time>
      </trkpt>
      <trkpt lat="39.87280247217144" lon="116.3437914011802">
        <time>2026-09-08T22:25:46.354000Z</time>
      </trkpt>
      <trkpt lat="39.872521345906854" lon="116.34383123593655">
        <time>2026-09-08T22:25:58.354000Z</time>
      </trkpt>
      <trkpt lat="39.872230293278044" lon="116.34387019147528">
        <time>2026-09-08T22:26:10.354000Z</time>
      </trkpt>
      <trkpt lat="39.871934258261156" lon="116.34389916849597">
        <time>2026-09-08T22:26:22.354000Z</time>
      </trkpt>
      <trkpt lat="39.87160820752561" lon="116.34393812851272">
        <time>2026-09-08T22:26:37.354000Z</time>
      </trkpt>
      <trkpt lat="39.871316151637" lon="116.34397908010386">
        <time>2026-09-08T22:26:49.354000Z</time>
      </trkpt>
      <trkpt lat="39.87097911022337" lon="116.34401305197326">
        <time>2026-09-08T22:27:04.354000Z</time>
      </trkpt>
      <trkpt lat="39.87069408518472" lon="116.34403604016416">
        <time>2026-09-08T22:27:16.354000Z</time>
      </trkpt>
      <trkpt lat="39.87038204429845" lon="116.34406901099297">
        <time>2026-09-08T22:27:28.354000Z</time>
      </trkpt>
      <trkpt lat="39.87010098458138" lon="116.3441119571512">
        <time>2026-09-08T22:27:40.354000Z</time>
      </trkpt>
      <trkpt lat="39.86982494364897" lon="116.34414392556009">
        <time>2026-09-08T22:27:52.354000Z</time>
      </trkpt>
      <trkpt lat="39.86954087556123" lon="116.34419186178587">
        <time>2026-09-08T22:28:04.354000Z</time>
      </trkpt>
      <trkpt lat="39.86926184349999" lon="116.34421884100357">
        <time>2026-09-08T22:28:16.354000Z</time>
      </trkpt>
      <trkpt lat="39.868957800706774" lon="116.34425280887365">
        <time>2026-09-08T22:28:28.354000Z</time>
      </trkpt>
      <trkpt lat="39.8686687123606" lon="116.34431272096128">
        <time>2026-09-08T22:28:40.354000Z</time>
      </trkpt>
      <trkpt lat="39.86839668178453" lon="116.34433870143602">
        <time>2026-09-08T22:28:52.454000Z</time>
      </trkpt>
      <trkpt lat="39.8682686902109" lon="116.34433771968355">
        <time>2026-09-08T22:28:58.454000Z</time>
      </trkpt>
      <trkpt lat="39.86836463349955" lon="116.3443676453808">
        <time>2026-09-08T22:29:04.454000Z</time>
      </trkpt>
      <trkpt lat="39.8686906233361" lon="116.34436361247334">
        <time>2026-09-08T22:29:16.454000Z</time>
      </trkpt>
      <trkpt lat="39.86875665089677" lon="116.34434564143544">
        <time>2026-09-08T22:29:19.454000Z</time>
      </trkpt>
      <trkpt lat="39.8689636573185" lon="116.34433563600362">
        <time>2026-09-08T22:29:28.554000Z</time>
      </trkpt>
      <trkpt lat="39.8692527318735" lon="116.34428370729529">
        <time>2026-09-08T22:29:40.754000Z</time>
      </trkpt>
      <trkpt lat="39.86952577456268" lon="116.34425074124553">
        <time>2026-09-08T22:29:52.954000Z</time>
      </trkpt>
      <trkpt lat="39.86980381530784" lon="116.34421877251162">
        <time>2026-09-08T22:30:05.254000Z</time>
      </trkpt>
      <trkpt lat="39.8700938571968" lon="116.34418580435876">
        <time>2026-09-08T22:30:17.254000Z</time>
      </trkpt>
      <trkpt lat="39.87040689621235" lon="116.34415383124562">
        <time>2026-09-08T22:30:29.254000Z</time>
      </trkpt>
      <trkpt lat="39.87074295998948" lon="116.34410688640916">
        <time>2026-09-08T22:30:44.354000Z</time>
      </trkpt>
      <trkpt lat="39.87102001305796" lon="116.3440679324469">
        <time>2026-09-08T22:30:56.354000Z</time>
      </trkpt>
      <trkpt lat="39.87130704837677" lon="116.34403895646132">
        <time>2026-09-08T22:31:08.354000Z</time>
      </trkpt>
      <trkpt lat="39.87159009431198" lon="116.34400399347703">
        <time>2026-09-08T22:31:20.454000Z</time>
      </trkpt>
      <trkpt lat="39.87180109384237" lon="116.34399797929116">
        <time>2026-09-08T22:31:29.454000Z</time>
      </trkpt>
      <trkpt lat="39.871970169904586" lon="116.34394905987439">
        <time>2026-09-08T22:31:38.454000Z</time>
      </trkpt>
      <trkpt lat="39.87225316058487" lon="116.34394603035324">
        <time>2026-09-08T22:31:50.454000Z</time>
      </trkpt>
      <trkpt lat="39.87252422630169" lon="116.34390009185343">
        <time>2026-09-08T22:32:02.554000Z</time>
      </trkpt>
      <trkpt lat="39.87280427603412" lon="116.34386313351487">
        <time>2026-09-08T22:32:14.754000Z</time>
      </trkpt>
      <trkpt lat="39.873092302891415" lon="116.34383914710997">
        <time>2026-09-08T22:32:27.154000Z</time>
      </trkpt>
      <trkpt lat="39.873370321631015" lon="116.34382015156226">
        <time>2026-09-08T22:32:39.254000Z</time>
      </trkpt>
      <trkpt lat="39.87367036180128" lon="116.34378818033564">
        <time>2026-09-08T22:32:51.354000Z</time>
      </trkpt>
      <trkpt lat="39.873939419185504" lon="116.34374723181332">
        <time>2026-09-08T22:33:03.354000Z</time>
      </trkpt>
      <trkpt lat="39.874221384086965" lon="116.34375917115399">
        <time>2026-09-08T22:33:15.354000Z</time>
      </trkpt>
      <trkpt lat="39.87451742283048" lon="116.34372819838734">
        <time>2026-09-08T22:33:27.354000Z</time>
      </trkpt>
      <trkpt lat="39.874806427290565" lon="116.34371718480534">
        <time>2026-09-08T22:33:39.354000Z</time>
      </trkpt>
      <trkpt lat="39.87508344278467" lon="116.34370018525863">
        <time>2026-09-08T22:33:51.354000Z</time>
      </trkpt>
      <trkpt lat="39.8753624790167" lon="116.34367121050433">
        <time>2026-09-08T22:34:03.354000Z</time>
      </trkpt>
      <trkpt lat="39.87567041669389" lon="116.34369811524294">
        <time>2026-09-08T22:34:18.354000Z</time>
      </trkpt>
      <trkpt lat="39.875990501222084" lon="116.3436401958334">
        <time>2026-09-08T22:34:33.354000Z</time>
      </trkpt>
      <trkpt lat="39.876266502996344" lon="116.34363117973793">
        <time>2026-09-08T22:34:48.354000Z</time>
      </trkpt>
      <trkpt lat="39.876378519943955" lon="116.3436181927228">
        <time>2026-09-08T22:34:54.354000Z</time>
      </trkpt>
      <trkpt lat="39.8764785843659" lon="116.34357826361446">
        <time>2026-09-08T22:34:57.354000Z</time>
      </trkpt>
      <trkpt lat="39.876617572563525" lon="116.34360848218377">
        <time>2026-09-08T22:35:03.354000Z</time>
      </trkpt>
      <trkpt lat="39.87688656049362" lon="116.34358020787063">
        <time>2026-09-08T22:35:15.354000Z</time>
      </trkpt>
      <trkpt lat="39.87715656611543" lon="116.34356919672159">
        <time>2026-09-08T22:35:27.354000Z</time>
      </trkpt>
      <trkpt lat="39.87742866544912" lon="116.34350429816317">
        <time>2026-09-08T22:35:39.354000Z</time>
      </trkpt>
      <trkpt lat="39.8777046864639" lon="116.34348430508743">
        <time>2026-09-08T22:35:51.354000Z</time>
      </trkpt>
      <trkpt lat="39.87804266967157" lon="116.34348426236687">
        <time>2026-09-08T22:36:06.354000Z</time>
      </trkpt>
      <trkpt lat="39.87831870290435" lon="116.34345728393657">
        <time>2026-09-08T22:36:18.354000Z</time>
      </trkpt>
      <trkpt lat="39.87860771814153" lon="116.3434402829616">
        <time>2026-09-08T22:36:30.354000Z</time>
      </trkpt>
      <trkpt lat="39.878881737624106" lon="116.34342128807204">
        <time>2026-09-08T22:36:42.354000Z</time>
      </trkpt>
      <trkpt lat="39.87915675186612" lon="116.34340528678644">
        <time>2026-09-08T22:36:54.354000Z</time>
      </trkpt>
      <trkpt lat="39.87942976101313" lon="116.34339227948098">
        <time>2026-09-08T22:37:06.354000Z</time>
      </trkpt>
      <trkpt lat="39.87971780075625" lon="116.34336130795627">
        <time>2026-09-08T22:37:18.354000Z</time>
      </trkpt>
      <trkpt lat="39.88005082266546" lon="116.34333931191973">
        <time>2026-09-08T22:37:33.354000Z</time>
      </trkpt>
      <trkpt lat="39.880320818115564" lon="116.34333428825994">
        <time>2026-09-08T22:37:45.354000Z</time>
      </trkpt>
      <trkpt lat="39.88060987357273" lon="116.34329433549483">
        <time>2026-09-08T22:37:57.354000Z</time>
      </trkpt>
      <trkpt lat="39.880891877183345" lon="116.34328432079577">
        <time>2026-09-08T22:38:09.354000Z</time>
      </trkpt>
      <trkpt lat="39.881183894257454" lon="116.34326632159463">
        <time>2026-09-08T22:38:21.454000Z</time>
      </trkpt>
      <trkpt lat="39.88147889205609" lon="116.34325929897159">
        <time>2026-09-08T22:38:33.454000Z</time>
      </trkpt>
      <trkpt lat="39.88176788668665" lon="116.34325427291684">
        <time>2026-09-08T22:38:45.554000Z</time>
      </trkpt>
      <trkpt lat="39.88204089430769" lon="116.34324226355355">
        <time>2026-09-08T22:38:57.654000Z</time>
      </trkpt>
      <trkpt lat="39.88235087054481" lon="116.34324721388901">
        <time>2026-09-08T22:39:09.854000Z</time>
      </trkpt>
      <trkpt lat="39.88263888096406" lon="116.34323320682223">
        <time>2026-09-08T22:39:22.154000Z</time>
      </trkpt>
      <trkpt lat="39.88295084321667" lon="116.34324614013782">
        <time>2026-09-08T22:39:34.354000Z</time>
      </trkpt>
      <trkpt lat="39.88323385217892" lon="116.34323313160685">
        <time>2026-09-08T22:39:46.354000Z</time>
      </trkpt>
      <trkpt lat="39.88351684026051" lon="116.3432320979273">
        <time>2026-09-08T22:39:58.354000Z</time>
      </trkpt>
      <trkpt lat="39.88380382120193" lon="116.34323505535828">
        <time>2026-09-08T22:40:10.354000Z</time>
      </trkpt>
      <trkpt lat="39.88408781972631" lon="116.34322803412675">
        <time>2026-09-08T22:40:22.354000Z</time>
      </trkpt>
      <trkpt lat="39.88438479848568" lon="116.34323198819646">
        <time>2026-09-08T22:40:34.354000Z</time>
      </trkpt>
      <trkpt lat="39.884668786599285" lon="116.34323095438874">
        <time>2026-09-08T22:40:46.354000Z</time>
      </trkpt>
      <trkpt lat="39.88494874879775" lon="116.34324488964938">
        <time>2026-09-08T22:40:58.354000Z</time>
      </trkpt>
      <trkpt lat="39.88524672234796" lon="116.34325183730571">
        <time>2026-09-08T22:41:10.354000Z</time>
      </trkpt>
      <trkpt lat="39.885526726385905" lon="116.34324182286248">
        <time>2026-09-08T22:41:22.354000Z</time>
      </trkpt>
      <trkpt lat="39.885827722475916" lon="116.34323579738242">
        <time>2026-09-08T22:41:34.354000Z</time>
      </trkpt>
      <trkpt lat="39.886105744071" lon="116.34321580415626">
        <time>2026-09-08T22:41:46.354000Z</time>
      </trkpt>
      <trkpt lat="39.88622876260838" lon="116.34320181795503">
        <time>2026-09-08T22:41:52.354000Z</time>
      </trkpt>
      <trkpt lat="39.88650970395326" lon="116.34322772792446">
        <time>2026-09-08T22:42:04.354000Z</time>
      </trkpt>
      <trkpt lat="39.88680272139993" lon="116.3432097286116">
        <time>2026-09-08T22:42:16.354000Z</time>
      </trkpt>
      <trkpt lat="39.88707570497286" lon="116.34321168990235">
        <time>2026-09-08T22:42:28.354000Z</time>
      </trkpt>
      <trkpt lat="39.887357712529194" lon="116.34319967940552">
        <time>2026-09-08T22:42:40.354000Z</time>
      </trkpt>
      <trkpt lat="39.887644664116365" lon="116.3432196011896">
        <time>2026-09-08T22:42:52.354000Z</time>
      </trkpt>
      <trkpt lat="39.88793666601015" lon="116.34321058313637">
        <time>2026-09-08T22:43:04.354000Z</time>
      </trkpt>
      <trkpt lat="39.88822465765972" lon="116.34320755301091">
        <time>2026-09-08T22:43:19.354000Z</time>
      </trkpt>
      <trkpt lat="39.888358623475355" lon="116.34322350252647">
        <time>2026-09-08T22:43:25.354000Z</time>
      </trkpt>
      <trkpt lat="39.88870158818021" lon="116.34323443609964">
        <time>2026-09-08T22:43:37.354000Z</time>
      </trkpt>
      <trkpt lat="39.888992584964136" lon="116.34322841188023">
        <time>2026-09-08T22:43:49.354000Z</time>
      </trkpt>
      <trkpt lat="39.88927156665311" lon="116.34323137031339">
        <time>2026-09-08T22:44:01.354000Z</time>
      </trkpt>
      <trkpt lat="39.88955152392958" lon="116.34324829927787">
        <time>2026-09-08T22:44:13.354000Z</time>
      </trkpt>
      <trkpt lat="39.889836475771126" lon="116.3432682213291">
        <time>2026-09-08T22:44:25.354000Z</time>
      </trkpt>
      <trkpt lat="39.890106468382946" lon="116.34326519347296">
        <time>2026-09-08T22:44:37.354000Z</time>
      </trkpt>
      <trkpt lat="39.89043945807467" lon="116.34326215764996">
        <time>2026-09-08T22:44:52.354000Z</time>
      </trkpt>
      <trkpt lat="39.89074440556489" lon="116.34328407298545">
        <time>2026-09-08T22:45:04.354000Z</time>
      </trkpt>
      <trkpt lat="39.89101638943288" lon="116.34328603439879">
        <time>2026-09-08T22:45:16.354000Z</time>
      </trkpt>
      <trkpt lat="39.8912903854112" lon="116.34328101022406">
        <time>2026-09-08T22:45:28.354000Z</time>
      </trkpt>
      <trkpt lat="39.89157135322652" lon="116.34329195164342">
        <time>2026-09-08T22:45:40.354000Z</time>
      </trkpt>
      <trkpt lat="39.8918493647216" lon="116.34327794581726">
        <time>2026-09-08T22:45:52.354000Z</time>
      </trkpt>
      <trkpt lat="39.8921363897517" lon="116.34325595562106">
        <time>2026-09-08T22:46:04.354000Z</time>
      </trkpt>
      <trkpt lat="39.892409405003654" lon="116.34323995462888">
        <time>2026-09-08T22:46:16.354000Z</time>
      </trkpt>
      <trkpt lat="39.89269641614657" lon="116.34322594767863">
        <time>2026-09-08T22:46:28.454000Z</time>
      </trkpt>
      <trkpt lat="39.89297146096723" lon="116.34319298208747">
        <time>2026-09-08T22:46:40.454000Z</time>
      </trkpt>
      <trkpt lat="39.893251475963176" lon="116.34317698022984">
        <time>2026-09-08T22:46:52.454000Z</time>
      </trkpt>
      <trkpt lat="39.89353449432839" lon="116.34315898219293">
        <time>2026-09-08T22:47:04.454000Z</time>
      </trkpt>
      <trkpt lat="39.89360152262896" lon="116.34314101147974">
        <time>2026-09-08T22:47:07.454000Z</time>
      </trkpt>
      <trkpt lat="39.89387551005591" lon="116.34314097682707">
        <time>2026-09-08T22:47:19.554000Z</time>
      </trkpt>
      <trkpt lat="39.89415352521111" lon="116.34312497523844">
        <time>2026-09-08T22:47:31.754000Z</time>
      </trkpt>
      <trkpt lat="39.89442555112478" lon="116.34310298700575">
        <time>2026-09-08T22:47:43.954000Z</time>
      </trkpt>
      <trkpt lat="39.894723554943475" lon="116.34309297030538">
        <time>2026-09-08T22:47:56.254000Z</time>
      </trkpt>
      <trkpt lat="39.89500555951228" lon="116.34308295563028">
        <time>2026-09-08T22:48:08.354000Z</time>
      </trkpt>
      <trkpt lat="39.89528258875116" lon="116.34305897098247">
        <time>2026-09-08T22:48:20.354000Z</time>
      </trkpt>
      <trkpt lat="39.89561261211372" lon="116.34303697544257">
        <time>2026-09-08T22:48:35.354000Z</time>
      </trkpt>
      <trkpt lat="39.895930665726254" lon="116.34299801714191">
        <time>2026-09-08T22:48:50.354000Z</time>
      </trkpt>
      <trkpt lat="39.896255708589216" lon="116.34296504537659">
        <time>2026-09-08T22:49:05.354000Z</time>
      </trkpt>
      <trkpt lat="39.896589761564805" lon="116.34292608510808">
        <time>2026-09-08T22:49:20.354000Z</time>
      </trkpt>
      <trkpt lat="39.89694377349494" lon="116.34291007397407">
        <time>2026-09-08T22:49:35.354000Z</time>
      </trkpt>
      <trkpt lat="39.897233727195804" lon="116.3429289973477">
        <time>2026-09-08T22:49:47.354000Z</time>
      </trkpt>
      <trkpt lat="39.89751875800742" lon="116.34290401386339">
        <time>2026-09-08T22:49:59.354000Z</time>
      </trkpt>
      <trkpt lat="39.89781582850492" lon="116.34285607725421">
        <time>2026-09-08T22:50:14.354000Z</time>
      </trkpt>
      <trkpt lat="39.897977923926064" lon="116.34285067486555">
        <time>2026-09-08T22:50:20.354000Z</time>
      </trkpt>
      <trkpt lat="39.898265799512714" lon="116.34286100981768">
        <time>2026-09-08T22:50:32.354000Z</time>
      </trkpt>
      <trkpt lat="39.89846182566615" lon="116.34284102710335">
        <time>2026-09-08T22:50:41.354000Z</time>
      </trkpt>
      <trkpt lat="39.89865097633852" lon="116.34275019474721">
        <time>2026-09-08T22:50:50.354000Z</time>
      </trkpt>
      <trkpt lat="39.89878129097848" lon="116.34256756399796">
        <time>2026-09-08T22:50:59.354000Z</time>
      </trkpt>
      <trkpt lat="39.89862398454959" lon="116.34274620658579">
        <time>2026-09-08T22:51:08.354000Z</time>
      </trkpt>
      <trkpt lat="39.89848388937474" lon="116.34280410218385">
        <time>2026-09-08T22:51:14.354000Z</time>
      </trkpt>
      <trkpt lat="39.898186872995694" lon="116.3428211039716">
        <time>2026-09-08T22:51:26.354000Z</time>
      </trkpt>
      <trkpt lat="39.89785585467345" lon="116.34284010585714">
        <time>2026-09-08T22:51:41.354000Z</time>
      </trkpt>
      <trkpt lat="39.89752679434206" lon="116.34288305701426">
        <time>2026-09-08T22:51:56.354000Z</time>
      </trkpt>
      <trkpt lat="39.89722679739805" lon="116.34288908234002">
        <time>2026-09-08T22:52:08.354000Z</time>
      </trkpt>
      <trkpt lat="39.89693478263784" lon="116.34290508562586">
        <time>2026-09-08T22:52:20.354000Z</time>
      </trkpt>
      <trkpt lat="39.89665783186828" lon="116.34288416482234">
        <time>2026-09-08T22:52:35.354000Z</time>
      </trkpt>
      <trkpt lat="39.89648775046481" lon="116.34293507908882">
        <time>2026-09-08T22:52:44.354000Z</time>
      </trkpt>
      <trkpt lat="39.89616669167372" lon="116.34297703141608">
        <time>2026-09-08T22:52:56.354000Z</time>
      </trkpt>
      <trkpt lat="39.89587670833507" lon="116.34297507229708">
        <time>2026-09-08T22:53:08.354000Z</time>
      </trkpt>
      <trkpt lat="39.89568676586894" lon="116.3429471551723">
        <time>2026-09-08T22:53:14.354000Z</time>
      </trkpt>
      <trkpt lat="39.89552773293699" lon="116.3429701269438">
        <time>2026-09-08T22:53:20.354000Z</time>
      </trkpt>
      <trkpt lat="39.8954667688935" lon="116.3429511745892">
        <time>2026-09-08T22:53:23.454000Z</time>
      </trkpt>
      <trkpt lat="39.895292750622886" lon="116.34296616507089">
        <time>2026-09-08T22:53:32.454000Z</time>
      </trkpt>
      <trkpt lat="39.895191777927835" lon="116.3429532051656">
        <time>2026-09-08T22:53:35.454000Z</time>
      </trkpt>
      <trkpt lat="39.89491672062663" lon="116.34299315589152">
        <time>2026-09-08T22:53:47.454000Z</time>
      </trkpt>
      <trkpt lat="39.89461467856278" lon="116.34302512686584">
        <time>2026-09-08T22:53:59.554000Z</time>
      </trkpt>
      <trkpt lat="39.894341661380444" lon="116.34304212569002">
        <time>2026-09-08T22:54:11.754000Z</time>
      </trkpt>
      <trkpt lat="39.893994063431265" lon="116.34307557170666">
        <time>2026-09-08T22:54:27.154000Z</time>
      </trkpt>
      <trkpt lat="39.89369556179474" lon="116.34310264036318">
        <time>2026-09-08T22:54:39.354000Z</time>
      </trkpt>
      <trkpt lat="39.89338488772941" lon="116.34312832384856">
        <time>2026-09-08T22:54:51.354000Z</time>
      </trkpt>
      <trkpt lat="39.89310854529155" lon="116.34314107382824">
        <time>2026-09-08T22:55:03.354000Z</time>
      </trkpt>
      <trkpt lat="39.892821520159096" lon="116.34316306397378">
        <time>2026-09-08T22:55:15.354000Z</time>
      </trkpt>
      <trkpt lat="39.89254108871946" lon="116.34318118934783">
        <time>2026-09-08T22:55:27.354000Z</time>
      </trkpt>
      <trkpt lat="39.89249046920333" lon="116.34320102614289">
        <time>2026-09-08T22:55:30.354000Z</time>
      </trkpt>
      <trkpt lat="39.89249046920333" lon="116.34320102614289">
        <time>2026-09-08T22:55:33.154000Z</time>
      </trkpt>
      <trkpt lat="39.89261569531392" lon="116.3430682893779">
        <time>2026-09-08T22:56:15.354000Z</time>
      </trkpt>
      <trkpt lat="39.892815682603675" lon="116.34307025988682">
        <time>2026-09-08T22:56:24.454000Z</time>
      </trkpt>
      <trkpt lat="39.892914044797116" lon="116.3428606887943">
        <time>2026-09-08T22:56:33.454000Z</time>
      </trkpt>
      <trkpt lat="39.89297314523709" lon="116.34280180547404">
        <time>2026-09-08T22:56:36.454000Z</time>
      </trkpt>
      <trkpt lat="39.89325316208519" lon="116.34278480584867">
        <time>2026-09-08T22:56:48.454000Z</time>
      </trkpt>
      <trkpt lat="39.89339242181952" lon="116.34277740950972">
        <time>2026-09-08T22:56:54.454000Z</time>
      </trkpt>
      <trkpt lat="39.893275229304045" lon="116.34274588517641">
        <time>2026-09-08T22:57:03.554000Z</time>
      </trkpt>
      <trkpt lat="39.893018242879265" lon="116.3427449197808">
        <time>2026-09-08T22:57:15.654000Z</time>
      </trkpt>
      <trkpt lat="39.89318462617725" lon="116.34195457272553">
        <time>2026-09-08T22:57:46.054000Z</time>
      </trkpt>
      <trkpt lat="39.89326052753256" lon="116.34200844861478">
        <time>2026-09-08T22:57:49.054000Z</time>
      </trkpt>
      <trkpt lat="39.89352443966489" lon="116.34205132409802">
        <time>2026-09-08T22:58:01.254000Z</time>
      </trkpt>
      <trkpt lat="39.893545311954746" lon="116.34212316891626">
        <time>2026-09-08T22:58:07.254000Z</time>
      </trkpt>
      <trkpt lat="39.89340124291418" lon="116.34216609607756">
        <time>2026-09-08T22:58:13.254000Z</time>
      </trkpt>
      <trkpt lat="39.89301152137521" lon="116.34201845889788">
        <time>2026-09-08T22:58:19.354000Z</time>
      </trkpt>
      <trkpt lat="39.89271663186973" lon="116.34196361280621">
        <time>2026-09-08T22:58:31.354000Z</time>
      </trkpt>
      <trkpt lat="39.892661763095234" lon="116.34189077462267">
        <time>2026-09-08T22:58:37.354000Z</time>
      </trkpt>
      <trkpt lat="39.892676960005886" lon="116.34177901051764">
        <time>2026-09-08T22:58:40.354000Z</time>
      </trkpt>
      <trkpt lat="39.89265807741737" lon="116.3417131531557">
        <time>2026-09-08T22:58:43.354000Z</time>
      </trkpt>
      <trkpt lat="39.892405871006844" lon="116.34163849198168">
        <time>2026-09-08T22:58:52.354000Z</time>
      </trkpt>
      <trkpt lat="39.89210174946239" lon="116.3416956956385">
        <time>2026-09-08T22:59:04.354000Z</time>
      </trkpt>
      <trkpt lat="39.89182039006303" lon="116.34170688711646">
        <time>2026-09-08T22:59:16.354000Z</time>
      </trkpt>
      <trkpt lat="39.89154111140563" lon="116.34172327310843">
        <time>2026-09-08T22:59:28.354000Z</time>
      </trkpt>
      <trkpt lat="39.89125339091561" lon="116.3417179419999">
        <time>2026-09-08T22:59:40.354000Z</time>
      </trkpt>
      <trkpt lat="39.890973081269124" lon="116.34175527691396">
        <time>2026-09-08T22:59:52.354000Z</time>
      </trkpt>
      <trkpt lat="39.89077906204499" lon="116.34177126744677">
        <time>2026-09-08T23:00:01.354000Z</time>
      </trkpt>
      <trkpt lat="39.89070710070479" lon="116.3417513190372">
        <time>2026-09-08T23:00:04.354000Z</time>
      </trkpt>
      <trkpt lat="39.89065618784589" lon="116.34170342748769">
        <time>2026-09-08T23:00:07.354000Z</time>
      </trkpt>
      <trkpt lat="39.89066292546608" lon="116.341287314666">
        <time>2026-09-08T23:00:19.354000Z</time>
      </trkpt>
      <trkpt lat="39.890670535433195" lon="116.34103176761488">
        <time>2026-09-08T23:00:28.454000Z</time>
      </trkpt>
      <trkpt lat="39.890650899767266" lon="116.34074048795594">
        <time>2026-09-08T23:00:37.554000Z</time>
      </trkpt>
      <trkpt lat="39.890673064428434" lon="116.34064768454057">
        <time>2026-09-08T23:00:40.554000Z</time>
      </trkpt>
    </trkseg>
  </trk>
</gpx>