<?xml version="1.0" encoding="UTF-8"?>
<gpx xmlns="http://www.topografix.com/GPX/1/1" xmlns:gpxtpx="http://www.garmin.com/xmlschemas/TrackPointExtension/v1" xmlns:xsi="http://www.w3.org/2001/XMLSchema-instance" xsi:schemaLocation="http://www.topografix.com/GPX/1/1 http://www.topografix.com/GPX/1/1/gpx.xsd" version="1.1" creator="gpx.py -- https://github.com/tkrajina/gpxpy">
  <trk>
    <name>gpx from keep</name>
    <type>Run</type>
    <trkseg>
      <trkpt lat="39.87626192099595" lon="116.43088624902288">
        <time>2026-09-12T00:02:00.065000Z</time>
      </trkpt>
      <trkpt lat="39.87640489858782" lon="116.43087621087506">
        <time>2026-09-12T00:02:06.065000Z</time>
      </trkpt>
      <trkpt lat="39.87653575357367" lon="116.43078501242402">
        <time>2026-09-12T00:02:12.265000Z</time>
      </trkpt>
      <trkpt lat="39.876730322982255" lon="116.43050643486713">
        <time>2026-09-12T00:02:24.165000Z</time>
      </trkpt>
      <trkpt lat="39.87686793438529" lon="116.43025191579038">
        <time>2026-09-12T00:02:33.165000Z</time>
      </trkpt>
      <trkpt lat="39.87690754445455" lon="116.42999140079233">
        <time>2026-09-12T00:02:42.165000Z</time>
      </trkpt>
      <trkpt lat="39.877135180423494" lon="116.42975290819167">
        <time>2026-09-12T00:02:54.265000Z</time>
      </trkpt>
      <trkpt lat="39.87724598473394" lon="116.42962364403125">
        <time>2026-09-12T00:03:00.265000Z</time>
      </trkpt>
      <trkpt lat="39.877339714419335" lon="116.42944228269597">
        <time>2026-09-12T00:03:06.265000Z</time>
      </trkpt>
      <trkpt lat="39.87744454550478" lon="116.42933005402688">
        <time>2026-09-12T00:03:12.265000Z</time>
      </trkpt>
      <trkpt lat="39.87769431030135" lon="116.42917672919194">
        <time>2026-09-12T00:03:24.265000Z</time>
      </trkpt>
      <trkpt lat="39.87782417326123" lon="116.42908654085292">
        <time>2026-09-12T00:03:30.365000Z</time>
      </trkpt>
      <trkpt lat="39.87802277944662" lon="116.42882001021013">
        <time>2026-09-12T00:03:42.265000Z</time>
      </trkpt>
      <trkpt lat="39.87817252675904" lon="116.42864866825478">
        <time>2026-09-12T00:03:51.365000Z</time>
      </trkpt>
      <trkpt lat="39.87842028325719" lon="116.42848633228265">
        <time>2026-09-12T00:04:03.365000Z</time>
      </trkpt>
      <trkpt lat="39.87846816569471" lon="116.42840517446398">
        <time>2026-09-12T00:04:06.365000Z</time>
      </trkpt>
      <trkpt lat="39.87847901625085" lon="116.42829997690367">
        <time>2026-09-12T00:04:09.365000Z</time>
      </trkpt>
      <trkpt lat="39.87844548850511" lon="116.42792328344125">
        <time>2026-09-12T00:04:21.465000Z</time>
      </trkpt>
      <trkpt lat="39.8784329684639" lon="116.42754859848797">
        <time>2026-09-12T00:04:33.565000Z</time>
      </trkpt>
      <trkpt lat="39.87843571021942" lon="116.4273612576663">
        <time>2026-09-12T00:04:39.665000Z</time>
      </trkpt>
      <trkpt lat="39.8783911857035" lon="116.42697556823043">
        <time>2026-09-12T00:04:51.965000Z</time>
      </trkpt>
      <trkpt lat="39.87826871303335" lon="116.42662095166783">
        <time>2026-09-12T00:05:04.165000Z</time>
      </trkpt>
      <trkpt lat="39.87817733868576" lon="116.42633746277657">
        <time>2026-09-12T00:05:13.265000Z</time>
      </trkpt>
      <trkpt lat="39.878150831369595" lon="116.42595279391735">
        <time>2026-09-12T00:05:25.265000Z</time>
      </trkpt>
      <trkpt lat="39.87813271397157" lon="116.42586263981485">
        <time>2026-09-12T00:05:28.265000Z</time>
      </trkpt>
      <trkpt lat="39.8780896138686" lon="116.42578451009251">
        <time>2026-09-12T00:05:31.365000Z</time>
      </trkpt>
      <trkpt lat="39.877877374774236" lon="116.42556796837866">
        <time>2026-09-12T00:05:43.265000Z</time>
      </trkpt>
      <trkpt lat="39.877787663386314" lon="116.42553363581848">
        <time>2026-09-12T00:05:46.265000Z</time>
      </trkpt>
      <trkpt lat="39.87751612751751" lon="116.42532942696647">
        <time>2026-09-12T00:05:58.365000Z</time>
      </trkpt>
      <trkpt lat="39.877266796306245" lon="116.42512047871084">
        <time>2026-09-12T00:06:10.265000Z</time>
      </trkpt>
      <trkpt lat="39.87704151795057" lon="116.42489312388898">
        <time>2026-09-12T00:06:22.265000Z</time>
      </trkpt>
      <trkpt lat="39.87682625015672" lon="116.42467278228983">
        <time>2026-09-12T00:06:34.365000Z</time>
      </trkpt>
      <trkpt lat="39.87662089269156" lon="116.4243793210967">
        <time>2026-09-12T00:06:46.365000Z</time>
      </trkpt>
      <trkpt lat="39.8764175932742" lon="116.42412993649145">
        <time>2026-09-12T00:06:58.465000Z</time>
      </trkpt>
      <trkpt lat="39.8762222998306" lon="116.42388355913441">
        <time>2026-09-12T00:07:10.465000Z</time>
      </trkpt>
      <trkpt lat="39.876015704269754" lon="116.42360271458547">
        <time>2026-09-12T00:07:22.665000Z</time>
      </trkpt>
      <trkpt lat="39.875799638141736" lon="116.42332070646252">
        <time>2026-09-12T00:07:34.865000Z</time>
      </trkpt>
      <trkpt lat="39.8755923205934" lon="116.42304629717555">
        <time>2026-09-12T00:07:47.165000Z</time>
      </trkpt>
      <trkpt lat="39.875364984936866" lon="116.42275286478011">
        <time>2026-09-12T00:07:59.265000Z</time>
      </trkpt>
      <trkpt lat="39.87509361681944" lon="116.4224263915686">
        <time>2026-09-12T00:08:14.265000Z</time>
      </trkpt>
      <trkpt lat="39.87494339592993" lon="116.42222910669409">
        <time>2026-09-12T00:08:23.265000Z</time>
      </trkpt>
      <trkpt lat="39.87481230449838" lon="116.4221439928598">
        <time>2026-09-12T00:08:29.265000Z</time>
      </trkpt>
      <trkpt lat="39.87452832117349" lon="116.42214603200956">
        <time>2026-09-12T00:08:41.265000Z</time>
      </trkpt>
      <trkpt lat="39.87443233064409" lon="116.42215005033862">
        <time>2026-09-12T00:08:44.265000Z</time>
      </trkpt>
      <trkpt lat="39.87416638101768" lon="116.4221821332201">
        <time>2026-09-12T00:08:56.265000Z</time>
      </trkpt>
      <trkpt lat="39.87399536433537" lon="116.4221601211944">
        <time>2026-09-12T00:09:02.265000Z</time>
      </trkpt>
      <trkpt lat="39.87393033423589" lon="116.42213108500255">
        <time>2026-09-12T00:09:05.265000Z</time>
      </trkpt>
      <trkpt lat="39.87388126658746" lon="116.42206999788053">
        <time>2026-09-12T00:09:08.265000Z</time>
      </trkpt>
      <trkpt lat="39.87374391849131" lon="116.42175854255491">
        <time>2026-09-12T00:09:20.265000Z</time>
      </trkpt>
      <trkpt lat="39.87361579026387" lon="116.421639379345">
        <time>2026-09-12T00:09:26.265000Z</time>
      </trkpt>
      <trkpt lat="39.87334970569741" lon="116.42155228242646">
        <time>2026-09-12T00:09:38.265000Z</time>
      </trkpt>
      <trkpt lat="39.8730276748776" lon="116.42151026038535">
        <time>2026-09-12T00:09:50.365000Z</time>
      </trkpt>
      <trkpt lat="39.87282659312506" lon="116.4214281632938">
        <time>2026-09-12T00:09:59.265000Z</time>
      </trkpt>
      <trkpt lat="39.8726424427641" lon="116.42128497370625">
        <time>2026-09-12T00:10:08.265000Z</time>
      </trkpt>
      <trkpt lat="39.87243616621866" lon="116.42102561703715">
        <time>2026-09-12T00:10:20.365000Z</time>
      </trkpt>
      <trkpt lat="39.87233703049554" lon="116.42089744178259">
        <time>2026-09-12T00:10:26.365000Z</time>
      </trkpt>
      <trkpt lat="39.87226299153354" lon="116.42085839413534">
        <time>2026-09-12T00:10:29.265000Z</time>
      </trkpt>
      <trkpt lat="39.87218400544614" lon="116.42086741733185">
        <time>2026-09-12T00:10:32.265000Z</time>
      </trkpt>
      <trkpt lat="39.87213510896344" lon="116.42095955831931">
        <time>2026-09-12T00:10:35.365000Z</time>
      </trkpt>
      <trkpt lat="39.87211523013786" lon="116.42106872112949">
        <time>2026-09-12T00:10:38.265000Z</time>
      </trkpt>
      <trkpt lat="39.87194260707009" lon="116.42140023382592">
        <time>2026-09-12T00:10:50.265000Z</time>
      </trkpt>
      <trkpt lat="39.871816984130795" lon="116.42172974358125">
        <time>2026-09-12T00:11:02.365000Z</time>
      </trkpt>
      <trkpt lat="39.87178441400612" lon="116.42210531783483">
        <time>2026-09-12T00:11:14.365000Z</time>
      </trkpt>
      <trkpt lat="39.87182549596544" lon="116.42217842449885">
        <time>2026-09-12T00:11:17.365000Z</time>
      </trkpt>
      <trkpt lat="39.87213763254404" lon="116.4223105878979">
        <time>2026-09-12T00:11:29.365000Z</time>
      </trkpt>
      <trkpt lat="39.87218870302871" lon="116.4223736786604">
        <time>2026-09-12T00:11:32.265000Z</time>
      </trkpt>
      <trkpt lat="39.872175147169834" lon="116.4227532700353">
        <time>2026-09-12T00:11:44.365000Z</time>
      </trkpt>
      <trkpt lat="39.87219536249158" lon="116.42293655500461">
        <time>2026-09-12T00:11:50.365000Z</time>
      </trkpt>
      <trkpt lat="39.872282534065704" lon="116.42308477781856">
        <time>2026-09-12T00:11:56.465000Z</time>
      </trkpt>
      <trkpt lat="39.872336600544294" lon="116.42314286293663">
        <time>2026-09-12T00:11:59.465000Z</time>
      </trkpt>
      <trkpt lat="39.872400641515505" lon="116.4231799135787">
        <time>2026-09-12T00:12:02.465000Z</time>
      </trkpt>
      <trkpt lat="39.87270166562214" lon="116.42321292782609">
        <time>2026-09-12T00:12:14.665000Z</time>
      </trkpt>
      <trkpt lat="39.87293065750958" lon="116.42321590351162">
        <time>2026-09-12T00:12:23.765000Z</time>
      </trkpt>
      <trkpt lat="39.87307760329961" lon="116.42317682281522">
        <time>2026-09-12T00:12:29.765000Z</time>
      </trkpt>
      <trkpt lat="39.87322249195604" lon="116.42308966633567">
        <time>2026-09-12T00:12:35.865000Z</time>
      </trkpt>
      <trkpt lat="39.873440422444325" lon="116.42304056106727">
        <time>2026-09-12T00:12:44.965000Z</time>
      </trkpt>
      <trkpt lat="39.87363848865839" lon="116.4231046372653">
        <time>2026-09-12T00:12:54.165000Z</time>
      </trkpt>
      <trkpt lat="39.87369754897394" lon="116.42315771387115">
        <time>2026-09-12T00:12:57.265000Z</time>
      </trkpt>
      <trkpt lat="39.87375865247174" lon="116.42324684769422">
        <time>2026-09-12T00:13:00.265000Z</time>
      </trkpt>
      <trkpt lat="39.87386001041266" lon="116.42354831687686">
        <time>2026-09-12T00:13:12.265000Z</time>
      </trkpt>
      <trkpt lat="39.874081344136094" lon="116.42383174651152">
        <time>2026-09-12T00:13:24.265000Z</time>
      </trkpt>
      <trkpt lat="39.874127458375334" lon="116.42392689529633">
        <time>2026-09-12T00:13:27.265000Z</time>
      </trkpt>
      <trkpt lat="39.874180773008455" lon="116.42418430934005">
        <time>2026-09-12T00:13:36.365000Z</time>
      </trkpt>
      <trkpt lat="39.874186327698965" lon="116.4246290441229">
        <time>2026-09-12T00:13:51.265000Z</time>
      </trkpt>
      <trkpt lat="39.874198797317575" lon="116.42500066532008">
        <time>2026-09-12T00:14:03.265000Z</time>
      </trkpt>
      <trkpt lat="39.874224268329215" lon="116.42536928720442">
        <time>2026-09-12T00:14:15.265000Z</time>
      </trkpt>
      <trkpt lat="39.87421673507195" lon="116.42572890505325">
        <time>2026-09-12T00:14:27.265000Z</time>
      </trkpt>
      <trkpt lat="39.87421723999979" lon="116.42611357254233">
        <time>2026-09-12T00:14:39.365000Z</time>
      </trkpt>
      <trkpt lat="39.87419382887639" lon="116.42655535195503">
        <time>2026-09-12T00:14:54.365000Z</time>
      </trkpt>
      <trkpt lat="39.87419034754057" lon="116.42694003698995">
        <time>2026-09-12T00:15:06.465000Z</time>
      </trkpt>
      <trkpt lat="39.874201468042905" lon="116.42702919537534">
        <time>2026-09-12T00:15:09.465000Z</time>
      </trkpt>
      <trkpt lat="39.874174722133425" lon="116.42721453229001">
        <time>2026-09-12T00:15:15.465000Z</time>
      </trkpt>
      <trkpt lat="39.8741932254784" lon="116.42758119515891">
        <time>2026-09-12T00:15:27.565000Z</time>
      </trkpt>
      <trkpt lat="39.874184646292505" lon="116.42788375052508">
        <time>2026-09-12T00:15:36.765000Z</time>
      </trkpt>
      <trkpt lat="39.87422394170365" lon="116.42809613753387">
        <time>2026-09-12T00:15:42.765000Z</time>
      </trkpt>
      <trkpt lat="39.874367160153426" lon="116.42825641678532">
        <time>2026-09-12T00:15:48.765000Z</time>
      </trkpt>
      <trkpt lat="39.87444223560291" lon="116.42831251167831">
        <time>2026-09-12T00:15:51.865000Z</time>
      </trkpt>
      <trkpt lat="39.87466429948677" lon="116.42836558247545">
        <time>2026-09-12T00:16:01.065000Z</time>
      </trkpt>
      <trkpt lat="39.8747814043466" lon="116.42844371355429">
        <time>2026-09-12T00:16:07.165000Z</time>
      </trkpt>
      <trkpt lat="39.8749937217796" lon="116.42867411882676">
        <time>2026-09-12T00:16:19.165000Z</time>
      </trkpt>
      <trkpt lat="39.875167820479284" lon="116.42874923827861">
        <time>2026-09-12T00:16:25.265000Z</time>
      </trkpt>
      <trkpt lat="39.87530879471679" lon="116.42873619583132">
        <time>2026-09-12T00:16:31.165000Z</time>
      </trkpt>
      <trkpt lat="39.8753868194756" lon="116.42875622371157">
        <time>2026-09-12T00:16:34.265000Z</time>
      </trkpt>
      <trkpt lat="39.875450885179255" lon="116.42880430634531">
        <time>2026-09-12T00:16:37.265000Z</time>
      </trkpt>
      <trkpt lat="39.87549002856979" lon="116.42890549275903">
        <time>2026-09-12T00:16:40.265000Z</time>
      </trkpt>
      <trkpt lat="39.87546360542804" lon="116.42930325359373">
        <time>2026-09-12T00:16:55.265000Z</time>
      </trkpt>
      <trkpt lat="39.87544373197332" lon="116.42938942129987">
        <time>2026-09-12T00:16:58.265000Z</time>
      </trkpt>
      <trkpt lat="39.87545133288519" lon="116.42979921124663">
        <time>2026-09-12T00:17:10.265000Z</time>
      </trkpt>
      <trkpt lat="39.87545460550688" lon="116.42998356951">
        <time>2026-09-12T00:17:16.165000Z</time>
      </trkpt>
      <trkpt lat="39.87558210985571" lon="116.43032622472026">
        <time>2026-09-12T00:17:28.265000Z</time>
      </trkpt>
      <trkpt lat="39.875742531136574" lon="116.43061176852964">
        <time>2026-09-12T00:17:40.265000Z</time>
      </trkpt>
      <trkpt lat="39.87594892452778" lon="116.43087827272065">
        <time>2026-09-12T00:17:52.165000Z</time>
      </trkpt>
      <trkpt lat="39.87604298229689" lon="116.43091934286606">
        <time>2026-09-12T00:17:55.265000Z</time>
      </trkpt>
      <trkpt lat="39.876267929837816" lon="116.43089226026899">
        <time>2026-09-12T00:18:04.165000Z</time>
      </trkpt>
      <trkpt lat="39.87641193023499" lon="116.43089725200973">
        <time>2026-09-12T00:18:10.165000Z</time>
      </trkpt>
      <trkpt lat="39.87647889335473" lon="116.4308751994874">
        <time>2026-09-12T00:18:13.265000Z</time>
      </trkpt>
      <trkpt lat="39.8765837298996" lon="116.43077097839881">
        <time>2026-09-12T00:18:19.265000Z</time>
      </trkpt>
      <trkpt lat="39.876758166477224" lon="116.43040322751669">
        <time>2026-09-12T00:18:31.265000Z</time>
      </trkpt>
      <trkpt lat="39.876839941775984" lon="116.4302559272154">
        <time>2026-09-12T00:18:37.265000Z</time>
      </trkpt>
      <trkpt lat="39.876888546891365" lon="116.42999240515752">
        <time>2026-09-12T00:18:46.365000Z</time>
      </trkpt>
      <trkpt lat="39.877108196541215" lon="116.42976293103985">
        <time>2026-09-12T00:18:58.365000Z</time>
      </trkpt>
      <trkpt lat="39.87726291331033" lon="116.42957554904581">
        <time>2026-09-12T00:19:07.365000Z</time>
      </trkpt>
      <trkpt lat="39.87734268792892" lon="116.4294242476618">
        <time>2026-09-12T00:19:13.465000Z</time>
      </trkpt>
      <trkpt lat="39.87752144837195" lon="116.42926592149779">
        <time>2026-09-12T00:19:22.465000Z</time>
      </trkpt>
      <trkpt lat="39.87776521533258" lon="116.42911359984801">
        <time>2026-09-12T00:19:34.565000Z</time>
      </trkpt>
      <trkpt lat="39.8779758177391" lon="116.4288450635149">
        <time>2026-09-12T00:19:46.665000Z</time>
      </trkpt>
      <trkpt lat="39.87812554053919" lon="116.42865668929291">
        <time>2026-09-12T00:19:55.965000Z</time>
      </trkpt>
      <trkpt lat="39.87835931334131" lon="116.42850537566567">
        <time>2026-09-12T00:20:08.065000Z</time>
      </trkpt>
      <trkpt lat="39.8784112182577" lon="116.42844024721695">
        <time>2026-09-12T00:20:11.165000Z</time>
      </trkpt>
      <trkpt lat="39.878440084777154" lon="116.4283470695885">
        <time>2026-09-12T00:20:14.265000Z</time>
      </trkpt>
      <trkpt lat="39.87844748560603" lon="116.42792127949653">
        <time>2026-09-12T00:20:26.265000Z</time>
      </trkpt>
      <trkpt lat="39.87842585683353" lon="116.42746745168381">
        <time>2026-09-12T00:20:41.265000Z</time>
      </trkpt>
      <trkpt lat="39.87843757682618" lon="116.4272640815558">
        <time>2026-09-12T00:20:47.265000Z</time>
      </trkpt>
      <trkpt lat="39.878364083816166" lon="116.42689943539709">
        <time>2026-09-12T00:20:59.265000Z</time>
      </trkpt>
      <trkpt lat="39.87825662899216" lon="116.42655784141238">
        <time>2026-09-12T00:21:11.265000Z</time>
      </trkpt>
      <trkpt lat="39.878203394740545" lon="116.42638053523723">
        <time>2026-09-12T00:21:17.265000Z</time>
      </trkpt>
      <trkpt lat="39.87816292433765" lon="116.42602391607468">
        <time>2026-09-12T00:21:29.365000Z</time>
      </trkpt>
      <trkpt lat="39.87812369080184" lon="116.42584460973256">
        <time>2026-09-12T00:21:35.265000Z</time>
      </trkpt>
      <trkpt lat="39.87807460152517" lon="116.42577449469003">
        <time>2026-09-12T00:21:38.365000Z</time>
      </trkpt>
      <trkpt lat="39.8778313857753" lon="116.42557408037442">
        <time>2026-09-12T00:21:50.365000Z</time>
      </trkpt>
      <trkpt lat="39.87775701965789" lon="116.42552972622411">
        <time>2026-09-12T00:21:53.365000Z</time>
      </trkpt>
      <trkpt lat="39.87768831428981" lon="116.42548113431023">
        <time>2026-09-12T00:21:56.365000Z</time>
      </trkpt>
      <trkpt lat="39.87741502399631" lon="116.42530377103152">
        <time>2026-09-12T00:22:08.365000Z</time>
      </trkpt>
      <trkpt lat="39.877206728932144" lon="116.42506539318072">
        <time>2026-09-12T00:22:20.365000Z</time>
      </trkpt>
      <trkpt lat="39.876975448880735" lon="116.42483603643899">
        <time>2026-09-12T00:22:32.465000Z</time>
      </trkpt>
      <trkpt lat="39.87677715686951" lon="116.42459666168422">
        <time>2026-09-12T00:22:44.465000Z</time>
      </trkpt>
      <trkpt lat="39.87658482962007" lon="116.42432723968635">
        <time>2026-09-12T00:22:56.565000Z</time>
      </trkpt>
      <trkpt lat="39.876378532150696" lon="116.42407885780636">
        <time>2026-09-12T00:23:08.765000Z</time>
      </trkpt>
      <trkpt lat="39.87614314827925" lon="116.42375636286015">
        <time>2026-09-12T00:23:23.965000Z</time>
      </trkpt>
      <trkpt lat="39.87593983985621" lon="116.42349396581695">
        <time>2026-09-12T00:23:36.265000Z</time>
      </trkpt>
      <trkpt lat="39.87572450865949" lon="116.42320953903547">
        <time>2026-09-12T00:23:48.265000Z</time>
      </trkpt>
      <trkpt lat="39.87551819950547" lon="116.42294114074636">
        <time>2026-09-12T00:24:00.265000Z</time>
      </trkpt>
      <trkpt lat="39.87535599481791" lon="116.42276087845441">
        <time>2026-09-12T00:24:09.265000Z</time>
      </trkpt>
      <trkpt lat="39.87516967240514" lon="116.42247746094357">
        <time>2026-09-12T00:24:21.265000Z</time>
      </trkpt>
      <trkpt lat="39.874965399440406" lon="116.42223311004881">
        <time>2026-09-12T00:24:33.265000Z</time>
      </trkpt>
      <trkpt lat="39.87483229312351" lon="116.42213497652652">
        <time>2026-09-12T00:24:39.265000Z</time>
      </trkpt>
      <trkpt lat="39.87462729198302" lon="116.42212498725407">
        <time>2026-09-12T00:24:48.265000Z</time>
      </trkpt>
      <trkpt lat="39.874303947516694" lon="116.42214915271308">
        <time>2026-09-12T00:25:00.265000Z</time>
      </trkpt>
      <trkpt lat="39.87405436018676" lon="116.42215911216469">
        <time>2026-09-12T00:25:12.265000Z</time>
      </trkpt>
      <trkpt lat="39.87396433481089" lon="116.4221330837468">
        <time>2026-09-12T00:25:15.265000Z</time>
      </trkpt>
      <trkpt lat="39.87391327529932" lon="116.4220790075745">
        <time>2026-09-12T00:25:18.265000Z</time>
      </trkpt>
      <trkpt lat="39.87377596570391" lon="116.42180160353305">
        <time>2026-09-12T00:25:30.265000Z</time>
      </trkpt>
      <trkpt lat="39.87363780722442" lon="116.42165540063507">
        <time>2026-09-12T00:25:36.265000Z</time>
      </trkpt>
      <trkpt lat="39.87351674451353" lon="116.42159432425964">
        <time>2026-09-12T00:25:42.265000Z</time>
      </trkpt>
      <trkpt lat="39.873196697741676" lon="116.42153828087109">
        <time>2026-09-12T00:25:54.265000Z</time>
      </trkpt>
      <trkpt lat="39.87291166057755" lon="116.42149224817364">
        <time>2026-09-12T00:26:06.265000Z</time>
      </trkpt>
      <trkpt lat="39.872671461342044" lon="116.42130299676626">
        <time>2026-09-12T00:26:18.265000Z</time>
      </trkpt>
      <trkpt lat="39.87251128062619" lon="116.42113276522086">
        <time>2026-09-12T00:26:27.265000Z</time>
      </trkpt>
      <trkpt lat="39.87232101267034" lon="116.42088041893719">
        <time>2026-09-12T00:26:39.265000Z</time>
      </trkpt>
      <trkpt lat="39.872246977022094" lon="116.42084437570936">
        <time>2026-09-12T00:26:42.265000Z</time>
      </trkpt>
      <trkpt lat="39.87216701508641" lon="116.42087543119179">
        <time>2026-09-12T00:26:45.265000Z</time>
      </trkpt>
      <trkpt lat="39.87202440878323" lon="116.4212259646932">
        <time>2026-09-12T00:26:57.265000Z</time>
      </trkpt>
      <trkpt lat="39.87183684512866" lon="116.42160755725192">
        <time>2026-09-12T00:27:12.265000Z</time>
      </trkpt>
      <trkpt lat="39.87179405454462" lon="116.4217908387054">
        <time>2026-09-12T00:27:18.265000Z</time>
      </trkpt>
      <trkpt lat="39.871782364698966" lon="116.42206225232863">
        <time>2026-09-12T00:27:27.265000Z</time>
      </trkpt>
      <trkpt lat="39.871869513314635" lon="116.42219544500375">
        <time>2026-09-12T00:27:33.265000Z</time>
      </trkpt>
      <trkpt lat="39.87213267107021" lon="116.42234363944188">
        <time>2026-09-12T00:27:45.265000Z</time>
      </trkpt>
      <trkpt lat="39.87216775526379" lon="116.42241774937237">
        <time>2026-09-12T00:27:48.265000Z</time>
      </trkpt>
      <trkpt lat="39.87215704575116" lon="116.42266613628144">
        <time>2026-09-12T00:27:57.265000Z</time>
      </trkpt>
      <trkpt lat="39.872190347331" lon="116.42292353515494">
        <time>2026-09-12T00:28:06.265000Z</time>
      </trkpt>
      <trkpt lat="39.87221744450459" lon="116.42300666267224">
        <time>2026-09-12T00:28:09.265000Z</time>
      </trkpt>
      <trkpt lat="39.87226753960583" lon="116.42308878606124">
        <time>2026-09-12T00:28:12.265000Z</time>
      </trkpt>
      <trkpt lat="39.87239764885072" lon="116.42318592349736">
        <time>2026-09-12T00:28:18.265000Z</time>
      </trkpt>
      <trkpt lat="39.87259467469235" lon="116.42321594619153">
        <time>2026-09-12T00:28:27.265000Z</time>
      </trkpt>
      <trkpt lat="39.8728896811819" lon="116.42323393737398">
        <time>2026-09-12T00:28:39.365000Z</time>
      </trkpt>
      <trkpt lat="39.87309560716771" lon="116.42318082688634">
        <time>2026-09-12T00:28:48.365000Z</time>
      </trkpt>
      <trkpt lat="39.873291450287525" lon="116.423057606894">
        <time>2026-09-12T00:28:57.265000Z</time>
      </trkpt>
      <trkpt lat="39.8734284194837" lon="116.42303755784637">
        <time>2026-09-12T00:29:03.365000Z</time>
      </trkpt>
      <trkpt lat="39.87355845813686" lon="116.42307560147563">
        <time>2026-09-12T00:29:09.265000Z</time>
      </trkpt>
      <trkpt lat="39.873736604439735" lon="116.42320578521645">
        <time>2026-09-12T00:29:18.365000Z</time>
      </trkpt>
      <trkpt lat="39.873836978852935" lon="116.42352127635905">
        <time>2026-09-12T00:29:30.365000Z</time>
      </trkpt>
      <trkpt lat="39.87393015879015" lon="116.42367350961271">
        <time>2026-09-12T00:29:36.365000Z</time>
      </trkpt>
      <trkpt lat="39.874095382648825" lon="116.42386379676334">
        <time>2026-09-12T00:29:45.365000Z</time>
      </trkpt>
      <trkpt lat="39.87416054900901" lon="116.42400201352709">
        <time>2026-09-12T00:29:51.365000Z</time>
      </trkpt>
      <trkpt lat="39.87419075390171" lon="116.42416928341214">
        <time>2026-09-12T00:29:57.465000Z</time>
      </trkpt>
      <trkpt lat="39.87417227932322" lon="116.42458998087385">
        <time>2026-09-12T00:30:12.465000Z</time>
      </trkpt>
      <trkpt lat="39.874187730337226" lon="116.42494757729952">
        <time>2026-09-12T00:30:24.565000Z</time>
      </trkpt>
      <trkpt lat="39.874235178775066" lon="116.4253001680504">
        <time>2026-09-12T00:30:36.665000Z</time>
      </trkpt>
      <trkpt lat="39.87421372869124" lon="116.42572389679536">
        <time>2026-09-12T00:30:51.965000Z</time>
      </trkpt>
      <trkpt lat="39.87420356135238" lon="116.42609884252175">
        <time>2026-09-12T00:31:04.165000Z</time>
      </trkpt>
      <trkpt lat="39.87420481892546" lon="116.42654833815362">
        <time>2026-09-12T00:31:19.165000Z</time>
      </trkpt>
      <trkpt lat="39.8741971330995" lon="116.42678175348932">
        <time>2026-09-12T00:31:28.265000Z</time>
      </trkpt>
      <trkpt lat="39.87420830046836" lon="116.42690597377671">
        <time>2026-09-12T00:31:31.265000Z</time>
      </trkpt>
      <trkpt lat="39.87417577185197" lon="116.42734378613976">
        <time>2026-09-12T00:31:46.265000Z</time>
      </trkpt>
      <trkpt lat="39.874168419743235" lon="116.42772045281818">
        <time>2026-09-12T00:31:58.265000Z</time>
      </trkpt>
      <trkpt lat="39.87416375655449" lon="116.42796189712354">
        <time>2026-09-12T00:32:07.265000Z</time>
      </trkpt>
      <trkpt lat="39.874198931715405" lon="116.42808812587248">
        <time>2026-09-12T00:32:10.265000Z</time>
      </trkpt>
      <trkpt lat="39.87439021133491" lon="116.42829348283374">
        <time>2026-09-12T00:32:19.265000Z</time>
      </trkpt>
      <trkpt lat="39.87466564990864" lon="116.42842373803954">
        <time>2026-09-12T00:32:31.265000Z</time>
      </trkpt>
      <trkpt lat="39.87476645062647" lon="116.42849062660333">
        <time>2026-09-12T00:32:37.265000Z</time>
      </trkpt>
      <trkpt lat="39.87481616109882" lon="116.42852822844296">
        <time>2026-09-12T00:32:40.265000Z</time>
      </trkpt>
      <trkpt lat="39.8748706963071" lon="116.42858769954184">
        <time>2026-09-12T00:32:43.265000Z</time>
      </trkpt>
      <trkpt lat="39.8749812044665" lon="116.42869322059697">
        <time>2026-09-12T00:32:49.265000Z</time>
      </trkpt>
      <trkpt lat="39.87504512450355" lon="116.428746010029">
        <time>2026-09-12T00:32:52.265000Z</time>
      </trkpt>
      <trkpt lat="39.875120676922265" lon="116.42877818589058">
        <time>2026-09-12T00:32:55.265000Z</time>
      </trkpt>
      <trkpt lat="39.875252735250825" lon="116.42878402178528">
        <time>2026-09-12T00:33:01.265000Z</time>
      </trkpt>
      <trkpt lat="39.8753467151884" lon="116.42879370656253">
        <time>2026-09-12T00:33:04.265000Z</time>
      </trkpt>
      <trkpt lat="39.875401091559574" lon="116.42881999904188">
        <time>2026-09-12T00:33:07.265000Z</time>
      </trkpt>
      <trkpt lat="39.87545295122702" lon="116.42885039318001">
        <time>2026-09-12T00:33:10.265000Z</time>
      </trkpt>
      <trkpt lat="39.87547310009998" lon="116.42895458795002">
        <time>2026-09-12T00:33:13.265000Z</time>
      </trkpt>
      <trkpt lat="39.87545247057549" lon="116.42921007681576">
        <time>2026-09-12T00:33:22.265000Z</time>
      </trkpt>
      <trkpt lat="39.875467097505" lon="116.42963990073238">
        <time>2026-09-12T00:33:37.265000Z</time>
      </trkpt>
      <trkpt lat="39.87548880183913" lon="116.43011682553862">
        <time>2026-09-12T00:33:52.265000Z</time>
      </trkpt>
      <trkpt lat="39.87558617421524" lon="116.4303693090519">
        <time>2026-09-12T00:34:01.365000Z</time>
      </trkpt>
      <trkpt lat="39.875710514601764" lon="116.43059974875169">
        <time>2026-09-12T00:34:10.365000Z</time>
      </trkpt>
      <trkpt lat="39.87592288928583" lon="116.4308542280188">
        <time>2026-09-12T00:34:22.465000Z</time>
      </trkpt>
      <trkpt lat="39.87597098591494" lon="116.43091935199924">
        <time>2026-09-12T00:34:25.465000Z</time>
      </trkpt>
      <trkpt lat="39.87604103732655" lon="116.43095541525277">
        <time>2026-09-12T00:34:28.565000Z</time>
      </trkpt>
      <trkpt lat="39.87634195966214" lon="116.4309142949245">
        <time>2026-09-12T00:34:40.665000Z</time>
      </trkpt>
      <trkpt lat="39.87641294695306" lon="116.4309082739039">
        <time>2026-09-12T00:34:43.665000Z</time>
      </trkpt>
      <trkpt lat="39.87654579715612" lon="116.43081406905551">
        <time>2026-09-12T00:34:49.765000Z</time>
      </trkpt>
      <trkpt lat="39.87672728092474" lon="116.43047837979147">
        <time>2026-09-12T00:35:01.965000Z</time>
      </trkpt>
      <trkpt lat="39.876865834249635" lon="116.43018478430251">
        <time>2026-09-12T00:35:14.165000Z</time>
      </trkpt>
      <trkpt lat="39.8768915556621" lon="116.42999841650474">
        <time>2026-09-12T00:35:20.165000Z</time>
      </trkpt>
      <trkpt lat="39.87710019398668" lon="116.4297609281701">
        <time>2026-09-12T00:35:32.165000Z</time>
      </trkpt>
      <trkpt lat="39.87724893899343" lon="116.42959258368515">
        <time>2026-09-12T00:35:41.265000Z</time>
      </trkpt>
      <trkpt lat="39.8773536800657" lon="116.42941923664299">
        <time>2026-09-12T00:35:47.265000Z</time>
      </trkpt>
      <trkpt lat="39.87758338997003" lon="116.42922784084445">
        <time>2026-09-12T00:35:59.265000Z</time>
      </trkpt>
      <trkpt lat="39.8777642110325" lon="116.42911059424996">
        <time>2026-09-12T00:36:08.265000Z</time>
      </trkpt>
      <trkpt lat="39.87797482498317" lon="116.42885007311371">
        <time>2026-09-12T00:36:20.265000Z</time>
      </trkpt>
      <trkpt lat="39.87811555820935" lon="116.4286687131776">
        <time>2026-09-12T00:36:29.265000Z</time>
      </trkpt>
      <trkpt lat="39.878401258579764" lon="116.42846830094734">
        <time>2026-09-12T00:36:44.365000Z</time>
      </trkpt>
      <trkpt lat="39.87844614122725" lon="116.4283871435868">
        <time>2026-09-12T00:36:47.365000Z</time>
      </trkpt>
      <trkpt lat="39.87843958830845" lon="116.42799441536461">
        <time>2026-09-12T00:36:59.365000Z</time>
      </trkpt>
      <trkpt lat="39.8784330904337" lon="116.42763675934117">
        <time>2026-09-12T00:37:11.465000Z</time>
      </trkpt>
      <trkpt lat="39.87841784480554" lon="116.42745843631074">
        <time>2026-09-12T00:37:17.465000Z</time>
      </trkpt>
      <trkpt lat="39.878425558216" lon="116.42725005773949">
        <time>2026-09-12T00:37:23.565000Z</time>
      </trkpt>
      <trkpt lat="39.878367068746975" lon="116.42688841531977">
        <time>2026-09-12T00:37:35.765000Z</time>
      </trkpt>
      <trkpt lat="39.87826375095225" lon="116.42664900205074">
        <time>2026-09-12T00:37:44.965000Z</time>
      </trkpt>
      <trkpt lat="39.878191372655344" lon="116.42636350679662">
        <time>2026-09-12T00:37:54.065000Z</time>
      </trkpt>
      <trkpt lat="39.87816886734834" lon="116.42598084037476">
        <time>2026-09-12T00:38:06.265000Z</time>
      </trkpt>
      <trkpt lat="39.878153741812305" lon="116.42588467533594">
        <time>2026-09-12T00:38:09.265000Z</time>
      </trkpt>
      <trkpt lat="39.87811962939996" lon="116.4257975287904">
        <time>2026-09-12T00:38:12.265000Z</time>
      </trkpt>
      <trkpt lat="39.87786139676975" lon="116.42560923694785">
        <time>2026-09-12T00:38:24.265000Z</time>
      </trkpt>
      <trkpt lat="39.87768025119337" lon="116.42549005545234">
        <time>2026-09-12T00:38:33.265000Z</time>
      </trkpt>
      <trkpt lat="39.87755629153299" lon="116.42538132940649">
        <time>2026-09-12T00:38:39.265000Z</time>
      </trkpt>
      <trkpt lat="39.877325872843265" lon="116.42518257642017">
        <time>2026-09-12T00:38:51.265000Z</time>
      </trkpt>
      <trkpt lat="39.877101618032746" lon="116.42497425275506">
        <time>2026-09-12T00:39:03.265000Z</time>
      </trkpt>
      <trkpt lat="39.87689433515662" lon="116.42474289074715">
        <time>2026-09-12T00:39:15.265000Z</time>
      </trkpt>
      <trkpt lat="39.87670002760912" lon="116.42449049509541">
        <time>2026-09-12T00:39:27.265000Z</time>
      </trkpt>
      <trkpt lat="39.8764987244072" lon="116.42423910543583">
        <time>2026-09-12T00:39:39.265000Z</time>
      </trkpt>
      <trkpt lat="39.87630243231309" lon="116.4239947300111">
        <time>2026-09-12T00:39:51.265000Z</time>
      </trkpt>
      <trkpt lat="39.87611711539155" lon="116.42372832079587">
        <time>2026-09-12T00:40:03.265000Z</time>
      </trkpt>
      <trkpt lat="39.875914804819615" lon="116.42346392081659">
        <time>2026-09-12T00:40:15.365000Z</time>
      </trkpt>
      <trkpt lat="39.87572050167303" lon="116.42320352999772">
        <time>2026-09-12T00:40:27.365000Z</time>
      </trkpt>
      <trkpt lat="39.87553320349597" lon="116.42294514514697">
        <time>2026-09-12T00:40:39.365000Z</time>
      </trkpt>
      <trkpt lat="39.87529785427909" lon="116.42263869510926">
        <time>2026-09-12T00:40:54.565000Z</time>
      </trkpt>
      <trkpt lat="39.87510655569286" lon="116.42237430948353">
        <time>2026-09-12T00:41:06.765000Z</time>
      </trkpt>
      <trkpt lat="39.874889322496074" lon="116.42216301220765">
        <time>2026-09-12T00:41:18.965000Z</time>
      </trkpt>
      <trkpt lat="39.87481928572266" lon="116.42212796745417">
        <time>2026-09-12T00:41:22.065000Z</time>
      </trkpt>
      <trkpt lat="39.87450632228772" lon="116.4221460348048">
        <time>2026-09-12T00:41:34.165000Z</time>
      </trkpt>
      <trkpt lat="39.874162347791255" lon="116.42215308924278">
        <time>2026-09-12T00:41:49.165000Z</time>
      </trkpt>
      <trkpt lat="39.87402535128983" lon="116.42215010204987">
        <time>2026-09-12T00:41:55.165000Z</time>
      </trkpt>
      <trkpt lat="39.87390329189595" lon="116.42209303025793">
        <time>2026-09-12T00:42:01.165000Z</time>
      </trkpt>
      <trkpt lat="39.87378996612878" lon="116.42180260326809">
        <time>2026-09-12T00:42:13.165000Z</time>
      </trkpt>
      <trkpt lat="39.87367783119896" lon="116.4216784302002">
        <time>2026-09-12T00:42:19.165000Z</time>
      </trkpt>
      <trkpt lat="39.87346874132032" lon="116.42158932284725">
        <time>2026-09-12T00:42:28.165000Z</time>
      </trkpt>
      <trkpt lat="39.87311568387655" lon="116.42152226718112">
        <time>2026-09-12T00:42:43.165000Z</time>
      </trkpt>
      <trkpt lat="39.8730026828991" lon="116.42151627254945">
        <time>2026-09-12T00:42:49.165000Z</time>
      </trkpt>
      <trkpt lat="39.87278657053143" lon="116.42140613553853">
        <time>2026-09-12T00:42:58.165000Z</time>
      </trkpt>
      <trkpt lat="39.87251928686221" lon="116.42113877306684">
        <time>2026-09-12T00:43:13.165000Z</time>
      </trkpt>
      <trkpt lat="39.872327033202524" lon="116.42089944598122">
        <time>2026-09-12T00:43:25.165000Z</time>
      </trkpt>
      <trkpt lat="39.87225499194377" lon="116.4208583951519">
        <time>2026-09-12T00:43:28.165000Z</time>
      </trkpt>
      <trkpt lat="39.87217704089463" lon="116.42089946504163">
        <time>2026-09-12T00:43:31.165000Z</time>
      </trkpt>
      <trkpt lat="39.872018429106504" lon="116.42124399214148">
        <time>2026-09-12T00:43:43.165000Z</time>
      </trkpt>
      <trkpt lat="39.87187077576427" lon="116.42154746284572">
        <time>2026-09-12T00:43:55.165000Z</time>
      </trkpt>
      <trkpt lat="39.87178605722857" lon="116.42179284274829">
        <time>2026-09-12T00:44:04.165000Z</time>
      </trkpt>
      <trkpt lat="39.87177137330254" lon="116.42206926442432">
        <time>2026-09-12T00:44:13.165000Z</time>
      </trkpt>
      <trkpt lat="39.87179747434962" lon="116.42215839737675">
        <time>2026-09-12T00:44:16.265000Z</time>
      </trkpt>
      <trkpt lat="39.87209063263833" lon="116.4223085907853">
        <time>2026-09-12T00:44:28.265000Z</time>
      </trkpt>
      <trkpt lat="39.872149692253444" lon="116.4223626666205">
        <time>2026-09-12T00:44:31.165000Z</time>
      </trkpt>
      <trkpt lat="39.87216780883716" lon="116.42246382062326">
        <time>2026-09-12T00:44:34.265000Z</time>
      </trkpt>
      <trkpt lat="39.87216330014131" lon="116.42288247403943">
        <time>2026-09-12T00:44:49.265000Z</time>
      </trkpt>
      <trkpt lat="39.87223049144299" lon="116.42304672426278">
        <time>2026-09-12T00:44:55.165000Z</time>
      </trkpt>
      <trkpt lat="39.87234663710305" lon="116.42317391090229">
        <time>2026-09-12T00:45:01.265000Z</time>
      </trkpt>
      <trkpt lat="39.87249367746705" lon="116.42321395583808">
        <time>2026-09-12T00:45:07.165000Z</time>
      </trkpt>
      <trkpt lat="39.87263667493954" lon="116.42321794403951">
        <time>2026-09-12T00:45:13.165000Z</time>
      </trkpt>
      <trkpt lat="39.872709637665366" lon="116.42318989022569">
        <time>2026-09-12T00:45:16.165000Z</time>
      </trkpt>
      <trkpt lat="39.87286366452861" lon="116.42321891679674">
        <time>2026-09-12T00:45:22.265000Z</time>
      </trkpt>
      <trkpt lat="39.873012630560225" lon="116.42319686286852">
        <time>2026-09-12T00:45:28.265000Z</time>
      </trkpt>
      <trkpt lat="39.87329143718391" lon="116.42304658948687">
        <time>2026-09-12T00:45:40.265000Z</time>
      </trkpt>
      <trkpt lat="39.87342641363312" lon="116.42303255019273">
        <time>2026-09-12T00:45:46.265000Z</time>
      </trkpt>
      <trkpt lat="39.873554433312655" lon="116.42305456873684">
        <time>2026-09-12T00:45:52.265000Z</time>
      </trkpt>
      <trkpt lat="39.87361146497823" lon="116.42308360741482">
        <time>2026-09-12T00:45:55.265000Z</time>
      </trkpt>
      <trkpt lat="39.87371659587518" lon="116.4231977750317">
        <time>2026-09-12T00:46:01.265000Z</time>
      </trkpt>
      <trkpt lat="39.87383098036959" lon="116.42352227872934">
        <time>2026-09-12T00:46:13.265000Z</time>
      </trkpt>
      <trkpt lat="39.8738730728745" lon="116.42360039899879">
        <time>2026-09-12T00:46:16.265000Z</time>
      </trkpt>
      <trkpt lat="39.874088370742086" lon="116.42385378138707">
        <time>2026-09-12T00:46:28.265000Z</time>
      </trkpt>
      <trkpt lat="39.87412545110269" lon="116.42392088576985">
        <time>2026-09-12T00:46:31.265000Z</time>
      </trkpt>
      <trkpt lat="39.874171968722024" lon="116.42434156930354">
        <time>2026-09-12T00:46:46.265000Z</time>
      </trkpt>
      <trkpt lat="39.87417950606699" lon="116.4247702807992">
        <time>2026-09-12T00:47:01.265000Z</time>
      </trkpt>
      <trkpt lat="39.87419794304964" lon="116.42511485829515">
        <time>2026-09-12T00:47:13.265000Z</time>
      </trkpt>
      <trkpt lat="39.87423217248622" lon="116.42529515990825">
        <time>2026-09-12T00:47:19.265000Z</time>
      </trkpt>
      <trkpt lat="39.87420373442486" lon="116.42572790497603">
        <time>2026-09-12T00:47:34.265000Z</time>
      </trkpt>
      <trkpt lat="39.874213199206075" lon="116.4260825188694">
        <time>2026-09-12T00:47:46.265000Z</time>
      </trkpt>
      <trkpt lat="39.87419770004043" lon="116.42645918155205">
        <time>2026-09-12T00:47:58.265000Z</time>
      </trkpt>
      <trkpt lat="39.87419919927802" lon="116.42683084073778">
        <time>2026-09-12T00:48:10.265000Z</time>
      </trkpt>
      <trkpt lat="39.8741887090948" lon="116.4272055142468">
        <time>2026-09-12T00:48:22.265000Z</time>
      </trkpt>
      <trkpt lat="39.87419920993582" lon="116.42757017430215">
        <time>2026-09-12T00:48:34.265000Z</time>
      </trkpt>
      <trkpt lat="39.87419374241932" lon="116.42795287669178">
        <time>2026-09-12T00:48:46.265000Z</time>
      </trkpt>
      <trkpt lat="39.87420288089053" lon="116.42805205865265">
        <time>2026-09-12T00:48:49.265000Z</time>
      </trkpt>
      <trkpt lat="39.874250006572545" lon="116.42814322145423">
        <time>2026-09-12T00:48:52.265000Z</time>
      </trkpt>
      <trkpt lat="39.87437918641899" lon="116.42827545066898">
        <time>2026-09-12T00:48:58.265000Z</time>
      </trkpt>
      <trkpt lat="39.87467528332784" lon="116.4283545605259">
        <time>2026-09-12T00:49:10.265000Z</time>
      </trkpt>
      <trkpt lat="39.874790385410236" lon="116.42843068806846">
        <time>2026-09-12T00:49:16.265000Z</time>
      </trkpt>
      <trkpt lat="39.87499271037883" lon="116.42866610387438">
        <time>2026-09-12T00:49:28.265000Z</time>
      </trkpt>
      <trkpt lat="39.87512272861513" lon="116.42875505460616">
        <time>2026-09-12T00:49:34.265000Z</time>
      </trkpt>
      <trkpt lat="39.87533433885591" lon="116.42876861771421">
        <time>2026-09-12T00:49:43.265000Z</time>
      </trkpt>
      <trkpt lat="39.875410668707765" lon="116.4287734710786">
        <time>2026-09-12T00:49:46.265000Z</time>
      </trkpt>
      <trkpt lat="39.8754684598257" lon="116.4288184728781">
        <time>2026-09-12T00:49:49.265000Z</time>
      </trkpt>
      <trkpt lat="39.875498668274034" lon="116.42887478934465">
        <time>2026-09-12T00:49:52.265000Z</time>
      </trkpt>
      <trkpt lat="39.875463142478615" lon="116.42898364433948">
        <time>2026-09-12T00:49:55.265000Z</time>
      </trkpt>
      <trkpt lat="39.875459761868406" lon="116.42941045966062">
        <time>2026-09-12T00:50:10.365000Z</time>
      </trkpt>
      <trkpt lat="39.87544738930466" lon="116.42983728567641">
        <time>2026-09-12T00:50:25.465000Z</time>
      </trkpt>
      <trkpt lat="39.87544164630727" lon="116.43001062393579">
        <time>2026-09-12T00:50:31.465000Z</time>
      </trkpt>
      <trkpt lat="39.875492928593765" lon="116.43020199190042">
        <time>2026-09-12T00:50:37.565000Z</time>
      </trkpt>
      <trkpt lat="39.87565842809199" lon="116.43054063825716">
        <time>2026-09-12T00:50:49.765000Z</time>
      </trkpt>
      <trkpt lat="39.87590687639052" lon="116.43084521205618">
        <time>2026-09-12T00:51:05.065000Z</time>
      </trkpt>
      <trkpt lat="39.876037014633845" lon="116.43094038569656">
        <time>2026-09-12T00:51:11.165000Z</time>
      </trkpt>
      <trkpt lat="39.87610401584619" lon="116.43094338320944">
        <time>2026-09-12T00:51:14.265000Z</time>
      </trkpt>
      <trkpt lat="39.87619896683778" lon="116.43091431306424">
        <time>2026-09-12T00:51:17.265000Z</time>
      </trkpt>
      <trkpt lat="39.876404958027486" lon="116.43091528893537">
        <time>2026-09-12T00:51:26.265000Z</time>
      </trkpt>
      <trkpt lat="39.87653481443772" lon="116.43082509242447">
        <time>2026-09-12T00:51:32.265000Z</time>
      </trkpt>
      <trkpt lat="39.87670833916556" lon="116.43051645747389">
        <time>2026-09-12T00:51:44.265000Z</time>
      </trkpt>
      <trkpt lat="39.87684485921997" lon="116.4302008184062">
        <time>2026-09-12T00:51:56.265000Z</time>
      </trkpt>
      <trkpt lat="39.8768676089301" lon="116.43003348799996">
        <time>2026-09-12T00:52:02.365000Z</time>
      </trkpt>
      <trkpt lat="39.876906492498115" lon="116.42995633254608">
        <time>2026-09-12T00:52:05.265000Z</time>
      </trkpt>
      <trkpt lat="39.87711912808835" lon="116.42971684034549">
        <time>2026-09-12T00:52:17.365000Z</time>
      </trkpt>
      <trkpt lat="39.8772698498192" lon="116.42953246510174">
        <time>2026-09-12T00:52:26.465000Z</time>
      </trkpt>
      <trkpt lat="39.87735162607092" lon="116.42938216572792">
        <time>2026-09-12T00:52:32.565000Z</time>
      </trkpt>
      <trkpt lat="39.87759235752634" lon="116.42920579759821">
        <time>2026-09-12T00:52:44.765000Z</time>
      </trkpt>
      <trkpt lat="39.8777791914409" lon="116.42909756754372">
        <time>2026-09-12T00:52:53.965000Z</time>
      </trkpt>
      <trkpt lat="39.87799176373807" lon="116.42880799143329">
        <time>2026-09-12T00:53:06.165000Z</time>
      </trkpt>
      <trkpt lat="39.878090562314284" lon="116.42867072012064">
        <time>2026-09-12T00:53:12.265000Z</time>
      </trkpt>
      <trkpt lat="39.87837729535722" lon="116.42849335086902">
        <time>2026-09-12T00:53:27.165000Z</time>
      </trkpt>
      <trkpt lat="39.87841918232986" lon="116.42841519939637">
        <time>2026-09-12T00:53:30.265000Z</time>
      </trkpt>
      <trkpt lat="39.87844004226068" lon="116.42831701357429">
        <time>2026-09-12T00:53:33.265000Z</time>
      </trkpt>
      <trkpt lat="39.87843153261941" lon="116.42795434245323">
        <time>2026-09-12T00:53:45.165000Z</time>
      </trkpt>
      <trkpt lat="39.87843003510098" lon="116.42759668655573">
        <time>2026-09-12T00:53:57.165000Z</time>
      </trkpt>
      <trkpt lat="39.878441653532334" lon="116.42732018251208">
        <time>2026-09-12T00:54:06.265000Z</time>
      </trkpt>
      <trkpt lat="39.87838616283999" lon="116.42695853835886">
        <time>2026-09-12T00:54:18.265000Z</time>
      </trkpt>
      <trkpt lat="39.878271719608904" lon="116.4266259601674">
        <time>2026-09-12T00:54:30.265000Z</time>
      </trkpt>
      <trkpt lat="39.87819026746672" lon="116.42628436788137">
        <time>2026-09-12T00:54:42.265000Z</time>
      </trkpt>
      <trkpt lat="39.87818692446512" lon="116.42602491477088">
        <time>2026-09-12T00:54:51.265000Z</time>
      </trkpt>
      <trkpt lat="39.87814869218346" lon="116.42584661002634">
        <time>2026-09-12T00:54:57.265000Z</time>
      </trkpt>
      <trkpt lat="39.8781026014427" lon="116.42577549286467">
        <time>2026-09-12T00:55:00.265000Z</time>
      </trkpt>
      <trkpt lat="39.87782341298022" lon="116.42562026071411">
        <time>2026-09-12T00:55:12.265000Z</time>
      </trkpt>
      <trkpt lat="39.877574173586396" lon="116.4254259592575">
        <time>2026-09-12T00:55:24.265000Z</time>
      </trkpt>
      <trkpt lat="39.87730686609224" lon="116.42517656864325">
        <time>2026-09-12T00:55:39.265000Z</time>
      </trkpt>
      <trkpt lat="39.877079611486415" lon="116.42496824542692">
        <time>2026-09-12T00:55:51.265000Z</time>
      </trkpt>
      <trkpt lat="39.876869304810825" lon="116.42471785207255">
        <time>2026-09-12T00:56:03.265000Z</time>
      </trkpt>
      <trkpt lat="39.876673995081795" lon="116.42446345357133">
        <time>2026-09-12T00:56:15.265000Z</time>
      </trkpt>
      <trkpt lat="39.876524744235894" lon="116.42425613014542">
        <time>2026-09-12T00:56:24.265000Z</time>
      </trkpt>
      <trkpt lat="39.87632245719355" lon="116.4240157617968">
        <time>2026-09-12T00:56:36.265000Z</time>
      </trkpt>
      <trkpt lat="39.87611614230488" lon="116.42375035656485">
        <time>2026-09-12T00:56:48.265000Z</time>
      </trkpt>
      <trkpt lat="39.87592181898033" lon="116.42347593919193">
        <time>2026-09-12T00:57:00.265000Z</time>
      </trkpt>
      <trkpt lat="39.875736516443375" lon="116.42321654865037">
        <time>2026-09-12T00:57:12.265000Z</time>
      </trkpt>
      <trkpt lat="39.87564537037107" lon="116.42309036011288">
        <time>2026-09-12T00:57:18.265000Z</time>
      </trkpt>
      <trkpt lat="39.8755272596165" lon="116.42299222007364">
        <time>2026-09-12T00:57:24.265000Z</time>
      </trkpt>
      <trkpt lat="39.8752938932225" lon="116.42267174712337">
        <time>2026-09-12T00:57:39.265000Z</time>
      </trkpt>
      <trkpt lat="39.875088586821995" lon="116.4224003519686">
        <time>2026-09-12T00:57:51.265000Z</time>
      </trkpt>
      <trkpt lat="39.87489033051438" lon="116.42217002281821">
        <time>2026-09-12T00:58:03.365000Z</time>
      </trkpt>
      <trkpt lat="39.87481929953794" lon="116.42213998584">
        <time>2026-09-12T00:58:06.365000Z</time>
      </trkpt>
      <trkpt lat="39.87450134558567" lon="116.42216606610725">
        <time>2026-09-12T00:58:18.365000Z</time>
      </trkpt>
      <trkpt lat="39.874217368051525" lon="116.42217311292954">
        <time>2026-09-12T00:58:30.465000Z</time>
      </trkpt>
      <trkpt lat="39.87401936311645" lon="116.42216011814511">
        <time>2026-09-12T00:58:39.565000Z</time>
      </trkpt>
      <trkpt lat="39.8739553410248" lon="116.42213809255136">
        <time>2026-09-12T00:58:42.565000Z</time>
      </trkpt>
      <trkpt lat="39.873901294296644" lon="116.42209503357189">
        <time>2026-09-12T00:58:45.565000Z</time>
      </trkpt>
      <trkpt lat="39.87376795133661" lon="116.42178858487429">
        <time>2026-09-12T00:58:57.765000Z</time>
      </trkpt>
      <trkpt lat="39.87365183025927" lon="116.42167643048981">
        <time>2026-09-12T00:59:03.965000Z</time>
      </trkpt>
      <trkpt lat="39.87351674000311" lon="116.42159031825042">
        <time>2026-09-12T00:59:10.065000Z</time>
      </trkpt>
      <trkpt lat="39.873201686236406" lon="116.42152826524539">
        <time>2026-09-12T00:59:22.165000Z</time>
      </trkpt>
      <trkpt lat="39.872995685505224" lon="116.4215182764352">
        <time>2026-09-12T00:59:31.265000Z</time>
      </trkpt>
      <trkpt lat="39.872744559248844" lon="116.42139412297493">
        <time>2026-09-12T00:59:43.265000Z</time>
      </trkpt>
      <trkpt lat="39.87252631864674" lon="116.42116781504096">
        <time>2026-09-12T00:59:55.265000Z</time>
      </trkpt>
      <trkpt lat="39.87233404930735" lon="116.42091446705831">
        <time>2026-09-12T01:00:07.265000Z</time>
      </trkpt>
      <trkpt lat="39.872270004323106" lon="116.42087041079084">
        <time>2026-09-12T01:00:10.365000Z</time>
      </trkpt>
      <trkpt lat="39.87219001829159" lon="116.4208794341204">
        <time>2026-09-12T01:00:13.365000Z</time>
      </trkpt>
      <trkpt lat="39.872127106074515" lon="116.42095655493407">
        <time>2026-09-12T01:00:16.365000Z</time>
      </trkpt>
      <trkpt lat="39.87198846069651" lon="116.42127103601575">
        <time>2026-09-12T01:00:28.365000Z</time>
      </trkpt>
      <trkpt lat="39.87183981340026" lon="116.42157951480573">
        <time>2026-09-12T01:00:40.465000Z</time>
      </trkpt>
      <trkpt lat="39.871781021144415" lon="116.42176079498616">
        <time>2026-09-12T01:00:46.465000Z</time>
      </trkpt>
      <trkpt lat="39.871760339434765" lon="116.42203921999128">
        <time>2026-09-12T01:00:55.565000Z</time>
      </trkpt>
      <trkpt lat="39.87176844244163" lon="116.42212935661519">
        <time>2026-09-12T01:00:58.665000Z</time>
      </trkpt>
      <trkpt lat="39.871819518192545" lon="116.42219745442677">
        <time>2026-09-12T01:01:01.665000Z</time>
      </trkpt>
      <trkpt lat="39.87212264722452" lon="116.42232260830883">
        <time>2026-09-12T01:01:13.965000Z</time>
      </trkpt>
      <trkpt lat="39.87217372587872" lon="116.42239270993564">
        <time>2026-09-12T01:01:17.065000Z</time>
      </trkpt>
      <trkpt lat="39.87216317843456" lon="116.42277931229606">
        <time>2026-09-12T01:01:29.265000Z</time>
      </trkpt>
      <trkpt lat="39.872158288561415" lon="116.42287245894582">
        <time>2026-09-12T01:01:32.165000Z</time>
      </trkpt>
      <trkpt lat="39.87221349946174" lon="116.42305273591603">
        <time>2026-09-12T01:01:38.265000Z</time>
      </trkpt>
      <trkpt lat="39.87227058361636" lon="116.42312584434217">
        <time>2026-09-12T01:01:41.265000Z</time>
      </trkpt>
      <trkpt lat="39.87241866693297" lon="116.42320194627311">
        <time>2026-09-12T01:01:47.265000Z</time>
      </trkpt>
      <trkpt lat="39.87269367561854" lon="116.42322094157402">
        <time>2026-09-12T01:01:59.265000Z</time>
      </trkpt>
      <trkpt lat="39.87283169733944" lon="116.42324496226107">
        <time>2026-09-12T01:02:05.265000Z</time>
      </trkpt>
      <trkpt lat="39.87305162617381" lon="116.42319485473388">
        <time>2026-09-12T01:02:14.265000Z</time>
      </trkpt>
      <trkpt lat="39.87326646228742" lon="116.42306662431689">
        <time>2026-09-12T01:02:23.265000Z</time>
      </trkpt>
      <trkpt lat="39.87339742463534" lon="116.42304056652961">
        <time>2026-09-12T01:02:29.265000Z</time>
      </trkpt>
      <trkpt lat="39.87358947683334" lon="116.42309262446953">
        <time>2026-09-12T01:02:38.265000Z</time>
      </trkpt>
      <trkpt lat="39.87370058232149" lon="116.42318575798272">
        <time>2026-09-12T01:02:44.265000Z</time>
      </trkpt>
      <trkpt lat="39.873824969771626" lon="116.42351326502008">
        <time>2026-09-12T01:02:56.265000Z</time>
      </trkpt>
      <trkpt lat="39.87385606644924" lon="116.42359439148447">
        <time>2026-09-12T01:02:59.265000Z</time>
      </trkpt>
      <trkpt lat="39.87407435674406" lon="116.42384176365404">
        <time>2026-09-12T01:03:11.265000Z</time>
      </trkpt>
      <trkpt lat="39.874113446796564" lon="116.42391688077477">
        <time>2026-09-12T01:03:14.265000Z</time>
      </trkpt>
      <trkpt lat="39.87417495859463" lon="116.42433355570176">
        <time>2026-09-12T01:03:29.265000Z</time>
      </trkpt>
      <trkpt lat="39.87416338180153" lon="116.42467111716546">
        <time>2026-09-12T01:03:41.265000Z</time>
      </trkpt>
      <trkpt lat="39.87420195181025" lon="116.42512186965169">
        <time>2026-09-12T01:03:56.265000Z</time>
      </trkpt>
      <trkpt lat="39.87420340910357" lon="116.42547747470371">
        <time>2026-09-12T01:04:08.265000Z</time>
      </trkpt>
      <trkpt lat="39.874197982451165" lon="116.4259172332637">
        <time>2026-09-12T01:04:23.265000Z</time>
      </trkpt>
      <trkpt lat="39.87420448084743" lon="116.42629489157167">
        <time>2026-09-12T01:04:35.265000Z</time>
      </trkpt>
      <trkpt lat="39.87419106317786" lon="116.4267296615322">
        <time>2026-09-12T01:04:50.265000Z</time>
      </trkpt>
      <trkpt lat="39.874181565875745" lon="116.42710032568463">
        <time>2026-09-12T01:05:02.265000Z</time>
      </trkpt>
      <trkpt lat="39.8741820738862" lon="116.4274709958937">
        <time>2026-09-12T01:05:14.265000Z</time>
      </trkpt>
      <trkpt lat="39.87417056876438" lon="116.42782764916507">
        <time>2026-09-12T01:05:26.265000Z</time>
      </trkpt>
      <trkpt lat="39.87418885069229" lon="116.42803001969486">
        <time>2026-09-12T01:05:32.265000Z</time>
      </trkpt>
      <trkpt lat="39.87422798514612" lon="116.4281271945412">
        <time>2026-09-12T01:05:35.265000Z</time>
      </trkpt>
      <trkpt lat="39.87435717338826" lon="116.42826543482359">
        <time>2026-09-12T01:05:41.365000Z</time>
      </trkpt>
      <trkpt lat="39.87462527735065" lon="116.42834855566316">
        <time>2026-09-12T01:05:53.465000Z</time>
      </trkpt>
      <trkpt lat="39.874801465939306" lon="116.42848779347649">
        <time>2026-09-12T01:06:02.465000Z</time>
      </trkpt>
      <trkpt lat="39.87490961448933" lon="116.42859598260839">
        <time>2026-09-12T01:06:08.565000Z</time>
      </trkpt>
      <trkpt lat="39.8751007464475" lon="116.42869514484723">
        <time>2026-09-12T01:06:17.565000Z</time>
      </trkpt>
      <trkpt lat="39.875315724139014" lon="116.42868710247431">
        <time>2026-09-12T01:06:26.665000Z</time>
      </trkpt>
      <trkpt lat="39.87538174516306" lon="116.4287041261651">
        <time>2026-09-12T01:06:29.665000Z</time>
      </trkpt>
      <trkpt lat="39.875447814965675" lon="116.42875521408092">
        <time>2026-09-12T01:06:32.665000Z</time>
      </trkpt>
      <trkpt lat="39.875492926193004" lon="116.42883435779953">
        <time>2026-09-12T01:06:35.665000Z</time>
      </trkpt>
      <trkpt lat="39.87546147448421" lon="116.42921308141415">
        <time>2026-09-12T01:06:47.765000Z</time>
      </trkpt>
      <trkpt lat="39.87545199091718" lon="116.4295667614494">
        <time>2026-09-12T01:06:59.865000Z</time>
      </trkpt>
      <trkpt lat="39.875436527698966" lon="116.42993046830662">
        <time>2026-09-12T01:07:12.065000Z</time>
      </trkpt>
      <trkpt lat="39.875461812151535" lon="116.43012284073068">
        <time>2026-09-12T01:07:18.065000Z</time>
      </trkpt>
      <trkpt lat="39.87562735875638" lon="116.43049354904382">
        <time>2026-09-12T01:07:30.165000Z</time>
      </trkpt>
      <trkpt lat="39.87580573251225" lon="116.43074702922573">
        <time>2026-09-12T01:07:42.165000Z</time>
      </trkpt>
      <trkpt lat="39.87599397103509" lon="116.43091033105898">
        <time>2026-09-12T01:07:51.165000Z</time>
      </trkpt>
      <trkpt lat="39.87606100274757" lon="116.4309333686265">
        <time>2026-09-12T01:07:54.165000Z</time>
      </trkpt>
      <trkpt lat="39.8763479929181" lon="116.43093633823113">
        <time>2026-09-12T01:08:06.165000Z</time>
      </trkpt>
      <trkpt lat="39.876422954075245" lon="116.43091328264701">
        <time>2026-09-12T01:08:09.165000Z</time>
      </trkpt>
      <trkpt lat="39.876558769138505" lon="116.43079603146326">
        <time>2026-09-12T01:08:15.165000Z</time>
      </trkpt>
      <trkpt lat="39.876716264902676" lon="116.43046735941181">
        <time>2026-09-12T01:08:27.165000Z</time>
      </trkpt>
      <trkpt lat="39.87685778982865" lon="116.43015472640485">
        <time>2026-09-12T01:08:39.165000Z</time>
      </trkpt>
      <trkpt lat="39.876888540945025" lon="116.42998839733998">
        <time>2026-09-12T01:08:45.165000Z</time>
      </trkpt>
      <trkpt lat="39.87714408997274" lon="116.429691788688">
        <time>2026-09-12T01:09:00.165000Z</time>
      </trkpt>
      <trkpt lat="39.87725590484458" lon="116.42956953833905">
        <time>2026-09-12T01:09:06.165000Z</time>
      </trkpt>
      <trkpt lat="39.87732866961194" lon="116.42941122442149">
        <time>2026-09-12T01:09:12.165000Z</time>
      </trkpt>
      <trkpt lat="39.8774364963197" lon="116.42929598980027">
        <time>2026-09-12T01:09:18.165000Z</time>
      </trkpt>
      <trkpt lat="39.87769628696465" lon="116.4291606983574">
        <time>2026-09-12T01:09:30.165000Z</time>
      </trkpt>
      <trkpt lat="39.877817146088375" lon="116.42906750551838">
        <time>2026-09-12T01:09:36.165000Z</time>
      </trkpt>
      <trkpt lat="39.878004728610854" lon="116.4287839443836">
        <time>2026-09-12T01:09:48.165000Z</time>
      </trkpt>
      <trkpt lat="39.878099537538525" lon="116.42865368694022">
        <time>2026-09-12T01:09:54.165000Z</time>
      </trkpt>
      <trkpt lat="39.878393261822595" lon="116.4284703057116">
        <time>2026-09-12T01:10:09.165000Z</time>
      </trkpt>
      <trkpt lat="39.878426132283465" lon="116.42838013303633">
        <time>2026-09-12T01:10:12.165000Z</time>
      </trkpt>
      <trkpt lat="39.87841573986064" lon="116.42810161658389">
        <time>2026-09-12T01:10:21.165000Z</time>
      </trkpt>
      <trkpt lat="39.87843222809145" lon="116.42773594092154">
        <time>2026-09-12T01:10:33.165000Z</time>
      </trkpt>
      <trkpt lat="39.878435707467055" lon="116.42735925403532">
        <time>2026-09-12T01:10:45.165000Z</time>
      </trkpt>
      <trkpt lat="39.87843444955277" lon="116.42717091380422">
        <time>2026-09-12T01:10:51.165000Z</time>
      </trkpt>
      <trkpt lat="39.878346970852924" lon="116.42681528731096">
        <time>2026-09-12T01:11:03.165000Z</time>
      </trkpt>
      <trkpt lat="39.87822550723866" lon="116.42646568249863">
        <time>2026-09-12T01:11:15.165000Z</time>
      </trkpt>
      <trkpt lat="39.87819627249089" lon="116.42628837415151">
        <time>2026-09-12T01:11:21.165000Z</time>
      </trkpt>
      <trkpt lat="39.878196042934455" lon="116.42611507080234">
        <time>2026-09-12T01:11:27.165000Z</time>
      </trkpt>
      <trkpt lat="39.87814969344556" lon="116.42584761163373">
        <time>2026-09-12T01:11:36.165000Z</time>
      </trkpt>
      <trkpt lat="39.877877478058686" lon="116.42567234348114">
        <time>2026-09-12T01:11:48.165000Z</time>
      </trkpt>
      <trkpt lat="39.87762223204789" lon="116.42547303366909">
        <time>2026-09-12T01:12:00.165000Z</time>
      </trkpt>
      <trkpt lat="39.87734991658727" lon="116.42521763285262">
        <time>2026-09-12T01:12:15.165000Z</time>
      </trkpt>
      <trkpt lat="39.877122647580244" lon="116.42499829059675">
        <time>2026-09-12T01:12:27.165000Z</time>
      </trkpt>
      <trkpt lat="39.876901376554486" lon="116.42477594515195">
        <time>2026-09-12T01:12:39.165000Z</time>
      </trkpt>
      <trkpt lat="39.876755139103985" lon="116.42458163948355">
        <time>2026-09-12T01:12:48.165000Z</time>
      </trkpt>
      <trkpt lat="39.8766779560799" lon="116.42443240164468">
        <time>2026-09-12T01:12:54.165000Z</time>
      </trkpt>
      <trkpt lat="39.876461649299806" lon="116.42417700810707">
        <time>2026-09-12T01:13:06.165000Z</time>
      </trkpt>
      <trkpt lat="39.87626734547" lon="116.4239226169498">
        <time>2026-09-12T01:13:18.165000Z</time>
      </trkpt>
      <trkpt lat="39.876069042209714" lon="116.42366622659017">
        <time>2026-09-12T01:13:30.165000Z</time>
      </trkpt>
      <trkpt lat="39.875941798626435" lon="116.42345991096683">
        <time>2026-09-12T01:13:39.165000Z</time>
      </trkpt>
      <trkpt lat="39.8757255289829" lon="116.42322656596589">
        <time>2026-09-12T01:13:51.165000Z</time>
      </trkpt>
      <trkpt lat="39.875541211400304" lon="116.42295215516869">
        <time>2026-09-12T01:14:03.165000Z</time>
      </trkpt>
      <trkpt lat="39.8753429260125" lon="116.42270178777343">
        <time>2026-09-12T01:14:15.165000Z</time>
      </trkpt>
      <trkpt lat="39.87513564497858" lon="116.42245242650479">
        <time>2026-09-12T01:14:27.165000Z</time>
      </trkpt>
      <trkpt lat="39.87493136766436" lon="116.42220406980132">
        <time>2026-09-12T01:14:39.165000Z</time>
      </trkpt>
      <trkpt lat="39.87488031834117" lon="116.4221590072166">
        <time>2026-09-12T01:14:42.165000Z</time>
      </trkpt>
      <trkpt lat="39.87474128621458" lon="116.42212497276948">
        <time>2026-09-12T01:14:48.165000Z</time>
      </trkpt>
      <trkpt lat="39.87443635925439" lon="116.42217508817325">
        <time>2026-09-12T01:15:00.165000Z</time>
      </trkpt>
      <trkpt lat="39.87415835836495" lon="116.42216210355191">
        <time>2026-09-12T01:15:12.165000Z</time>
      </trkpt>
      <trkpt lat="39.873955343327786" lon="116.42214009561619">
        <time>2026-09-12T01:15:21.165000Z</time>
      </trkpt>
      <trkpt lat="39.8739062917435" lon="116.42209302987676">
        <time>2026-09-12T01:15:24.165000Z</time>
      </trkpt>
      <trkpt lat="39.87377495779855" lon="116.4217945930646">
        <time>2026-09-12T01:15:36.165000Z</time>
      </trkpt>
      <trkpt lat="39.873659823065275" lon="116.42167042043266">
        <time>2026-09-12T01:15:42.165000Z</time>
      </trkpt>
      <trkpt lat="39.87352275210291" lon="116.4216013340155">
        <time>2026-09-12T01:15:48.165000Z</time>
      </trkpt>
      <trkpt lat="39.873231685830966" lon="116.42152926293232">
        <time>2026-09-12T01:16:00.165000Z</time>
      </trkpt>
      <trkpt lat="39.87296067043237" lon="116.42150325841544">
        <time>2026-09-12T01:16:12.165000Z</time>
      </trkpt>
      <trkpt lat="39.872701515609" lon="116.4213530673396">
        <time>2026-09-12T01:16:24.165000Z</time>
      </trkpt>
      <trkpt lat="39.87258541895436" lon="116.42126094531696">
        <time>2026-09-12T01:16:30.165000Z</time>
      </trkpt>
      <trkpt lat="39.872401137151186" lon="116.42099758031826">
        <time>2026-09-12T01:16:42.165000Z</time>
      </trkpt>
      <trkpt lat="39.87229501400322" lon="116.42088042224101">
        <time>2026-09-12T01:16:48.165000Z</time>
      </trkpt>
      <trkpt lat="39.87221699937039" lon="116.42086340728999">
        <time>2026-09-12T01:16:51.265000Z</time>
      </trkpt>
      <trkpt lat="39.87214505570657" lon="116.42091148668004">
        <time>2026-09-12T01:16:54.165000Z</time>
      </trkpt>
      <trkpt lat="39.872011316234506" lon="116.42114184204763">
        <time>2026-09-12T01:17:03.265000Z</time>
      </trkpt>
      <trkpt lat="39.871891697120645" lon="116.42147835682387">
        <time>2026-09-12T01:17:15.265000Z</time>
      </trkpt>
      <trkpt lat="39.871757062129014" lon="116.42179585097284">
        <time>2026-09-12T01:17:27.265000Z</time>
      </trkpt>
      <trkpt lat="39.87177439152885" lon="116.42208528850641">
        <time>2026-09-12T01:17:36.265000Z</time>
      </trkpt>
      <trkpt lat="39.871799485772236" lon="116.42216841245954">
        <time>2026-09-12T01:17:39.265000Z</time>
      </trkpt>
      <trkpt lat="39.872089638484596" lon="116.42231359862139">
        <time>2026-09-12T01:17:51.265000Z</time>
      </trkpt>
      <trkpt lat="39.87214669937557" lon="116.42236867627047">
        <time>2026-09-12T01:17:54.365000Z</time>
      </trkpt>
      <trkpt lat="39.872167803009496" lon="116.42245881287296">
        <time>2026-09-12T01:17:57.365000Z</time>
      </trkpt>
      <trkpt lat="39.8721381867944" lon="116.42278532487776">
        <time>2026-09-12T01:18:09.465000Z</time>
      </trkpt>
      <trkpt lat="39.87217740020854" lon="116.4229676061769">
        <time>2026-09-12T01:18:15.565000Z</time>
      </trkpt>
      <trkpt lat="39.872280569967415" lon="116.42311482562405">
        <time>2026-09-12T01:18:21.665000Z</time>
      </trkpt>
      <trkpt lat="39.872403671294975" lon="116.42320495295061">
        <time>2026-09-12T01:18:27.765000Z</time>
      </trkpt>
      <trkpt lat="39.872682652218664" lon="116.42320091114851">
        <time>2026-09-12T01:18:39.865000Z</time>
      </trkpt>
      <trkpt lat="39.872903663682905" lon="116.42321991330738">
        <time>2026-09-12T01:18:48.865000Z</time>
      </trkpt>
      <trkpt lat="39.873040614763276" lon="116.4231848402312">
        <time>2026-09-12T01:18:54.865000Z</time>
      </trkpt>
      <trkpt lat="39.87324046838125" lon="116.42307063395315">
        <time>2026-09-12T01:19:04.165000Z</time>
      </trkpt>
      <trkpt lat="39.873467421068824" lon="116.42304055763744">
        <time>2026-09-12T01:19:13.165000Z</time>
      </trkpt>
      <trkpt lat="39.8735934694725" lon="116.42308661445423">
        <time>2026-09-12T01:19:19.165000Z</time>
      </trkpt>
      <trkpt lat="39.87370757717754" lon="116.4231817507348">
        <time>2026-09-12T01:19:25.165000Z</time>
      </trkpt>
      <trkpt lat="39.87374965772862" lon="116.42325085521044">
        <time>2026-09-12T01:19:28.165000Z</time>
      </trkpt>
      <trkpt lat="39.87385904322406" lon="116.42357536048307">
        <time>2026-09-12T01:19:40.165000Z</time>
      </trkpt>
      <trkpt lat="39.874074365323445" lon="116.42384877503464">
        <time>2026-09-12T01:19:52.165000Z</time>
      </trkpt>
      <trkpt lat="39.87417173627622" lon="116.42415426117978">
        <time>2026-09-12T01:20:04.165000Z</time>
      </trkpt>
      <trkpt lat="39.874175271625084" lon="116.424583970496">
        <time>2026-09-12T01:20:19.165000Z</time>
      </trkpt>
      <trkpt lat="39.874194738895284" lon="116.42495458821169">
        <time>2026-09-12T01:20:31.165000Z</time>
      </trkpt>
      <trkpt lat="39.874207100402636" lon="116.42523806601497">
        <time>2026-09-12T01:20:40.265000Z</time>
      </trkpt>
      <trkpt lat="39.87423032488279" lon="116.42541336166859">
        <time>2026-09-12T01:20:46.165000Z</time>
      </trkpt>
      <trkpt lat="39.874222657747445" lon="116.42566980243953">
        <time>2026-09-12T01:20:55.265000Z</time>
      </trkpt>
      <trkpt lat="39.87420075679628" lon="116.42574493473805">
        <time>2026-09-12T01:20:58.165000Z</time>
      </trkpt>
      <trkpt lat="39.874209247021895" lon="116.42611858230174">
        <time>2026-09-12T01:21:10.165000Z</time>
      </trkpt>
      <trkpt lat="39.87419572423064" lon="116.42647721362358">
        <time>2026-09-12T01:21:22.265000Z</time>
      </trkpt>
      <trkpt lat="39.874195217082644" lon="116.42684386448208">
        <time>2026-09-12T01:21:34.265000Z</time>
      </trkpt>
      <trkpt lat="39.87418470518916" lon="116.4272025093335">
        <time>2026-09-12T01:21:46.265000Z</time>
      </trkpt>
      <trkpt lat="39.87417519315165" lon="116.42755715360789">
        <time>2026-09-12T01:21:58.365000Z</time>
      </trkpt>
      <trkpt lat="39.8741647242781" lon="116.42793885452113">
        <time>2026-09-12T01:22:10.365000Z</time>
      </trkpt>
      <trkpt lat="39.874169854465556" lon="116.42803202580835">
        <time>2026-09-12T01:22:13.365000Z</time>
      </trkpt>
      <trkpt lat="39.8742119817324" lon="116.42812419100363">
        <time>2026-09-12T01:22:16.365000Z</time>
      </trkpt>
      <trkpt lat="39.87435016667172" lon="116.42826042639525">
        <time>2026-09-12T01:22:22.365000Z</time>
      </trkpt>
      <trkpt lat="39.8746152821108" lon="116.42835156253619">
        <time>2026-09-12T01:22:34.465000Z</time>
      </trkpt>
      <trkpt lat="39.874801443164664" lon="116.42847176347902">
        <time>2026-09-12T01:22:43.565000Z</time>
      </trkpt>
      <trkpt lat="39.874972728567336" lon="116.42867812903268">
        <time>2026-09-12T01:22:52.565000Z</time>
      </trkpt>
      <trkpt lat="39.87510583365355" lon="116.4287562593716">
        <time>2026-09-12T01:22:58.665000Z</time>
      </trkpt>
      <trkpt lat="39.875235831396935" lon="116.42875924854278">
        <time>2026-09-12T01:23:04.765000Z</time>
      </trkpt>
      <trkpt lat="39.87530880045387" lon="116.42874020338539">
        <time>2026-09-12T01:23:07.765000Z</time>
      </trkpt>
      <trkpt lat="39.875380847051225" lon="116.42877526038252">
        <time>2026-09-12T01:23:10.765000Z</time>
      </trkpt>
      <trkpt lat="39.875446931387835" lon="116.4288363674244">
        <time>2026-09-12T01:23:13.765000Z</time>
      </trkpt>
      <trkpt lat="39.87547004399261" lon="116.42891551427323">
        <time>2026-09-12T01:23:16.765000Z</time>
      </trkpt>
      <trkpt lat="39.8754526526578" lon="116.42933531640202">
        <time>2026-09-12T01:23:32.065000Z</time>
      </trkpt>
      <trkpt lat="39.875429918631404" lon="116.42951666769964">
        <time>2026-09-12T01:23:38.065000Z</time>
      </trkpt>
      <trkpt lat="39.87544546495042" lon="116.4298883852607">
        <time>2026-09-12T01:23:50.065000Z</time>
      </trkpt>
      <trkpt lat="39.87544559852953" lon="116.42997856088262">
        <time>2026-09-12T01:23:53.165000Z</time>
      </trkpt>
      <trkpt lat="39.87549389117212" lon="116.4301769426551">
        <time>2026-09-12T01:23:59.165000Z</time>
      </trkpt>
      <trkpt lat="39.8756463593072" lon="116.4304945486141">
        <time>2026-09-12T01:24:11.165000Z</time>
      </trkpt>
      <trkpt lat="39.87577767323612" lon="116.43070695306736">
        <time>2026-09-12T01:24:20.165000Z</time>
      </trkpt>
      <trkpt lat="39.87593995240756" lon="116.43089630988194">
        <time>2026-09-12T01:24:29.165000Z</time>
      </trkpt>
      <trkpt lat="39.87600400561148" lon="116.43093337585691">
        <time>2026-09-12T01:24:32.165000Z</time>
      </trkpt>
      <trkpt lat="39.87615898714723" lon="116.43092634217204">
        <time>2026-09-12T01:24:38.165000Z</time>
      </trkpt>
      <trkpt lat="39.87623194078891" lon="116.43089827684474">
        <time>2026-09-12T01:24:41.165000Z</time>
      </trkpt>
      <trkpt lat="39.87644092268472" lon="116.4308932403249">
        <time>2026-09-12T01:24:50.165000Z</time>
      </trkpt>
      <trkpt lat="39.8765637886512" lon="116.43080905678622">
        <time>2026-09-12T01:24:56.165000Z</time>
      </trkpt>
      <trkpt lat="39.876664389658934" lon="116.43054852650124">
        <time>2026-09-12T01:25:05.165000Z</time>
      </trkpt>
      <trkpt lat="39.87681192071724" lon="116.43024090124993">
        <time>2026-09-12T01:25:17.165000Z</time>
      </trkpt>
      <trkpt lat="39.87688152346007" lon="116.4299763747806">
        <time>2026-09-12T01:25:26.165000Z</time>
      </trkpt>
      <trkpt lat="39.87709417065914" lon="116.42974489786012">
        <time>2026-09-12T01:25:38.165000Z</time>
      </trkpt>
      <trkpt lat="39.87724289814868" lon="116.4295645303276">
        <time>2026-09-12T01:25:47.165000Z</time>
      </trkpt>
      <trkpt lat="39.87731466299871" lon="116.42940621657854">
        <time>2026-09-12T01:25:53.165000Z</time>
      </trkpt>
      <trkpt lat="39.877568383443965" lon="116.42922283317667">
        <time>2026-09-12T01:26:05.165000Z</time>
      </trkpt>
      <trkpt lat="39.877766213832814" lon="116.42911259781273">
        <time>2026-09-12T01:26:14.165000Z</time>
      </trkpt>
      <trkpt lat="39.8779718021141" lon="116.42883404318906">
        <time>2026-09-12T01:26:26.165000Z</time>
      </trkpt>
      <trkpt lat="39.87810851563506" lon="116.4286386575417">
        <time>2026-09-12T01:26:35.165000Z</time>
      </trkpt>
      <trkpt lat="39.8783503152124" lon="116.42850637868435">
        <time>2026-09-12T01:26:47.165000Z</time>
      </trkpt>
      <trkpt lat="39.878403224341945" lon="116.42844425572429">
        <time>2026-09-12T01:26:50.165000Z</time>
      </trkpt>
      <trkpt lat="39.87842708683978" lon="116.42834807310658">
        <time>2026-09-12T01:26:53.165000Z</time>
      </trkpt>
      <trkpt lat="39.87842856641157" lon="116.42797838718">
        <time>2026-09-12T01:27:05.165000Z</time>
      </trkpt>
      <trkpt lat="39.87843703752628" lon="116.42759868932336">
        <time>2026-09-12T01:27:17.165000Z</time>
      </trkpt>
      <trkpt lat="39.878435523445525" lon="116.42722501124625">
        <time>2026-09-12T01:27:29.165000Z</time>
      </trkpt>
      <trkpt lat="39.87836403907056" lon="116.42686637632731">
        <time>2026-09-12T01:27:41.165000Z</time>
      </trkpt>
      <trkpt lat="39.87823855345544" lon="116.42650074274815">
        <time>2026-09-12T01:27:53.165000Z</time>
      </trkpt>
      <trkpt lat="39.87819432984608" lon="116.42633145005432">
        <time>2026-09-12T01:27:59.165000Z</time>
      </trkpt>
      <trkpt lat="39.8781527628814" lon="116.42590070325235">
        <time>2026-09-12T01:28:14.165000Z</time>
      </trkpt>
      <trkpt lat="39.87811766356453" lon="116.42582357408718">
        <time>2026-09-12T01:28:17.165000Z</time>
      </trkpt>
      <trkpt lat="39.87806259296189" lon="116.42576748410198">
        <time>2026-09-12T01:28:20.165000Z</time>
      </trkpt>
      <trkpt lat="39.87799356108115" lon="116.42574044617183">
        <time>2026-09-12T01:28:23.165000Z</time>
      </trkpt>
      <trkpt lat="39.87772234126024" lon="116.42556117202818">
        <time>2026-09-12T01:28:35.165000Z</time>
      </trkpt>
      <trkpt lat="39.87747910464792" lon="116.42536887384611">
        <time>2026-09-12T01:28:47.165000Z</time>
      </trkpt>
      <trkpt lat="39.87724778189016" lon="116.42510846078622">
        <time>2026-09-12T01:28:59.165000Z</time>
      </trkpt>
      <trkpt lat="39.877141651733226" lon="116.42500229493811">
        <time>2026-09-12T01:29:05.165000Z</time>
      </trkpt>
      <trkpt lat="39.877017543303495" lon="116.42491215892062">
        <time>2026-09-12T01:29:11.165000Z</time>
      </trkpt>
      <trkpt lat="39.87681822785945" lon="116.42465475323905">
        <time>2026-09-12T01:29:23.165000Z</time>
      </trkpt>
      <trkpt lat="39.87658184099022" lon="116.42433625493855">
        <time>2026-09-12T01:29:38.165000Z</time>
      </trkpt>
      <trkpt lat="39.876373534872954" lon="116.42408086171878">
        <time>2026-09-12T01:29:50.165000Z</time>
      </trkpt>
      <trkpt lat="39.87613816197255" lon="116.4237673813298">
        <time>2026-09-12T01:30:05.165000Z</time>
      </trkpt>
      <trkpt lat="39.87598892222979" lon="116.42356407219496">
        <time>2026-09-12T01:30:14.165000Z</time>
      </trkpt>
      <trkpt lat="39.875787644760386" lon="116.4233257159738">
        <time>2026-09-12T01:30:26.165000Z</time>
      </trkpt>
      <trkpt lat="39.8755863339991" lon="116.4230573153455">
        <time>2026-09-12T01:30:38.165000Z</time>
      </trkpt>
      <trkpt lat="39.87538801796468" lon="116.42278190729915">
        <time>2026-09-12T01:30:50.165000Z</time>
      </trkpt>
      <trkpt lat="39.8751767269138" lon="116.42252453301333">
        <time>2026-09-12T01:31:02.165000Z</time>
      </trkpt>
      <trkpt lat="39.87501950321244" lon="116.42232524488045">
        <time>2026-09-12T01:31:11.165000Z</time>
      </trkpt>
      <trkpt lat="39.87496145168865" lon="116.42227817980502">
        <time>2026-09-12T01:31:14.165000Z</time>
      </trkpt>
      <trkpt lat="39.874915368472905" lon="116.42220407183424">
        <time>2026-09-12T01:31:17.165000Z</time>
      </trkpt>
      <trkpt lat="39.87485331394473" lon="116.42215400298021">
        <time>2026-09-12T01:31:20.165000Z</time>
      </trkpt>
      <trkpt lat="39.87478629084462" lon="116.4221309762428">
        <time>2026-09-12T01:31:23.165000Z</time>
      </trkpt>
      <trkpt lat="39.8744693322256" lon="116.42215305023687">
        <time>2026-09-12T01:31:35.165000Z</time>
      </trkpt>
      <trkpt lat="39.87451738514557" lon="116.42220111779488">
        <time>2026-09-12T01:31:41.165000Z</time>
      </trkpt>
      <trkpt lat="39.87470236539464" lon="116.42219208046924">
        <time>2026-09-12T01:31:47.165000Z</time>
      </trkpt>
      <trkpt lat="39.87484441595785" lon="116.42224213926333">
        <time>2026-09-12T01:31:53.165000Z</time>
      </trkpt>
      <trkpt lat="39.874906460256256" lon="116.42228319449418">
        <time>2026-09-12T01:31:56.165000Z</time>
      </trkpt>
      <trkpt lat="39.87512375062531" lon="116.42254256772101">
        <time>2026-09-12T01:32:08.165000Z</time>
      </trkpt>
      <trkpt lat="39.875322054335335" lon="116.42280995960226">
        <time>2026-09-12T01:32:20.165000Z</time>
      </trkpt>
      <trkpt lat="39.87551836603171" lon="116.4230813619878">
        <time>2026-09-12T01:32:32.265000Z</time>
      </trkpt>
      <trkpt lat="39.87572166733631" lon="116.42334174992531">
        <time>2026-09-12T01:32:44.265000Z</time>
      </trkpt>
      <trkpt lat="39.87592799939702" lon="116.4236251782876">
        <time>2026-09-12T01:32:56.265000Z</time>
      </trkpt>
      <trkpt lat="39.87615029362744" lon="116.42387555525858">
        <time>2026-09-12T01:33:08.365000Z</time>
      </trkpt>
      <trkpt lat="39.87635462739493" lon="116.42415498554519">
        <time>2026-09-12T01:33:20.365000Z</time>
      </trkpt>
      <trkpt lat="39.87646477585184" lon="116.42427917569053">
        <time>2026-09-12T01:33:26.365000Z</time>
      </trkpt>
      <trkpt lat="39.87665811253674" lon="116.42455661017291">
        <time>2026-09-12T01:33:38.465000Z</time>
      </trkpt>
      <trkpt lat="39.876874433641426" lon="116.42482002239838">
        <time>2026-09-12T01:33:50.665000Z</time>
      </trkpt>
      <trkpt lat="39.87710769937835" lon="116.42503836008599">
        <time>2026-09-12T01:34:02.865000Z</time>
      </trkpt>
      <trkpt lat="39.87732398603834" lon="116.42527072635156">
        <time>2026-09-12T01:34:14.965000Z</time>
      </trkpt>
      <trkpt lat="39.877632314565425" lon="116.42553714221857">
        <time>2026-09-12T01:34:30.065000Z</time>
      </trkpt>
      <trkpt lat="39.87792860354811" lon="116.42577050630975">
        <time>2026-09-12T01:34:45.165000Z</time>
      </trkpt>
      <trkpt lat="39.87805170880995" lon="116.42585563795605">
        <time>2026-09-12T01:34:51.265000Z</time>
      </trkpt>
      <trkpt lat="39.87810679934633" lon="116.42592675428124">
        <time>2026-09-12T01:34:54.265000Z</time>
      </trkpt>
      <trkpt lat="39.87814903600711" lon="116.42610806453042">
        <time>2026-09-12T01:35:00.265000Z</time>
      </trkpt>
      <trkpt lat="39.87815825841374" lon="116.42627635788331">
        <time>2026-09-12T01:35:06.265000Z</time>
      </trkpt>
      <trkpt lat="39.87814837479087" lon="116.4263635122568">
        <time>2026-09-12T01:35:09.265000Z</time>
      </trkpt>
      <trkpt lat="39.878212741372096" lon="116.42663999253139">
        <time>2026-09-12T01:35:18.265000Z</time>
      </trkpt>
      <trkpt lat="39.87834113382358" lon="116.42693550282368">
        <time>2026-09-12T01:35:30.265000Z</time>
      </trkpt>
      <trkpt lat="39.87839147905719" lon="116.42719095538206">
        <time>2026-09-12T01:35:39.265000Z</time>
      </trkpt>
      <trkpt lat="39.878402996258494" lon="116.42756763699126">
        <time>2026-09-12T01:35:51.365000Z</time>
      </trkpt>
      <trkpt lat="39.878390487033336" lon="116.42792028488698">
        <time>2026-09-12T01:36:03.465000Z</time>
      </trkpt>
      <trkpt lat="39.87838800094613" lon="116.42828596234367">
        <time>2026-09-12T01:36:15.465000Z</time>
      </trkpt>
      <trkpt lat="39.87839511821206" lon="116.42836911640786">
        <time>2026-09-12T01:36:18.465000Z</time>
      </trkpt>
      <trkpt lat="39.878371240150905" lon="116.4284542785195">
        <time>2026-09-12T01:36:21.465000Z</time>
      </trkpt>
      <trkpt lat="39.8782433803913" lon="116.42854847111957">
        <time>2026-09-12T01:36:27.465000Z</time>
      </trkpt>
      <trkpt lat="39.87810846846452" lon="116.42860559541994">
        <time>2026-09-12T01:36:33.465000Z</time>
      </trkpt>
      <trkpt lat="39.877995652998585" lon="116.42873084537602">
        <time>2026-09-12T01:36:39.465000Z</time>
      </trkpt>
      <trkpt lat="39.877916898427536" lon="116.42889917336927">
        <time>2026-09-12T01:36:45.665000Z</time>
      </trkpt>
      <trkpt lat="39.87775718239156" lon="116.42909055698416">
        <time>2026-09-12T01:36:54.765000Z</time>
      </trkpt>
      <trkpt lat="39.87749244544846" lon="116.429262919429">
        <time>2026-09-12T01:37:06.765000Z</time>
      </trkpt>
      <trkpt lat="39.877360562827306" lon="116.42933908196662">
        <time>2026-09-12T01:37:12.765000Z</time>
      </trkpt>
      <trkpt lat="39.877256741986415" lon="116.42945832404583">
        <time>2026-09-12T01:37:18.765000Z</time>
      </trkpt>
      <trkpt lat="39.87722987530131" lon="116.42954850107064">
        <time>2026-09-12T01:37:21.765000Z</time>
      </trkpt>
      <trkpt lat="39.877014244091896" lon="116.4297919993212">
        <time>2026-09-12T01:37:33.965000Z</time>
      </trkpt>
      <trkpt lat="39.8768675256463" lon="116.4299773785106">
        <time>2026-09-12T01:37:43.065000Z</time>
      </trkpt>
      <trkpt lat="39.87682466319976" lon="116.43006856196999">
        <time>2026-09-12T01:37:46.065000Z</time>
      </trkpt>
      <trkpt lat="39.87682466319976" lon="116.43006856196999">
        <time>2026-09-12T01:37:48.165000Z</time>
      </trkpt>
    </trkseg>
  </trk>
</gpx>