<?xml version="1.0" encoding="UTF-8"?>
<gpx xmlns="http://www.topografix.com/GPX/1/1" xmlns:gpxtpx="http://www.garmin.com/xmlschemas/TrackPointExtension/v1" xmlns:xsi="http://www.w3.org/2001/XMLSchema-instance" xsi:schemaLocation="http://www.topografix.com/GPX/1/1 http://www.topografix.com/GPX/1/1/gpx.xsd" version="1.1" creator="gpx.py -- https://github.com/tkrajina/gpxpy">
  <trk>
    <name>gpx from keep</name>
    <type>Run</type>
    <trkseg>
      <trkpt lat="39.86750270082668" lon="116.46704277438573">
        <time>2026-08-28T23:40:39.322000Z</time>
      </trkpt>
      <trkpt lat="39.867527202924734" lon="116.46685813357723">
        <time>2026-08-28T23:40:45.322000Z</time>
      </trkpt>
      <trkpt lat="39.867513740074926" lon="116.46668553992804">
        <time>2026-08-28T23:40:51.322000Z</time>
      </trkpt>
      <trkpt lat="39.867514839003135" lon="116.46634938252546">
        <time>2026-08-28T23:41:03.522000Z</time>
      </trkpt>
      <trkpt lat="39.86747970390325" lon="116.46629821101484">
        <time>2026-08-28T23:41:06.622000Z</time>
      </trkpt>
      <trkpt lat="39.86718769784519" lon="116.46629022004831">
        <time>2026-08-28T23:41:18.622000Z</time>
      </trkpt>
      <trkpt lat="39.8669747023837" lon="116.46625672436112">
        <time>2026-08-28T23:41:27.622000Z</time>
      </trkpt>
      <trkpt lat="39.86675679582454" lon="116.46631837065526">
        <time>2026-08-28T23:41:36.622000Z</time>
      </trkpt>
      <trkpt lat="39.866670760107674" lon="116.46630332971057">
        <time>2026-08-28T23:41:39.622000Z</time>
      </trkpt>
      <trkpt lat="39.86664002227721" lon="116.46640066822165">
        <time>2026-08-28T23:41:42.622000Z</time>
      </trkpt>
      <trkpt lat="39.866656879664326" lon="116.46672076845277">
        <time>2026-08-28T23:41:51.622000Z</time>
      </trkpt>
      <trkpt lat="39.86661837777076" lon="116.46690541034432">
        <time>2026-08-28T23:41:57.722000Z</time>
      </trkpt>
      <trkpt lat="39.866589392567796" lon="116.46728171509557">
        <time>2026-08-28T23:42:09.822000Z</time>
      </trkpt>
      <trkpt lat="39.86656936375231" lon="116.46764096314833">
        <time>2026-08-28T23:42:22.022000Z</time>
      </trkpt>
      <trkpt lat="39.86658239302893" lon="116.46802128369923">
        <time>2026-08-28T23:42:34.222000Z</time>
      </trkpt>
      <trkpt lat="39.86657556283572" lon="116.4684517855471">
        <time>2026-08-28T23:42:49.322000Z</time>
      </trkpt>
      <trkpt lat="39.86656453672866" lon="116.4688090359838">
        <time>2026-08-28T23:43:01.422000Z</time>
      </trkpt>
      <trkpt lat="39.86652769202162" lon="116.46886523736435">
        <time>2026-08-28T23:43:04.422000Z</time>
      </trkpt>
      <trkpt lat="39.86651292177522" lon="116.46931481607704">
        <time>2026-08-28T23:43:19.522000Z</time>
      </trkpt>
      <trkpt lat="39.86650297336222" lon="116.46969816569204">
        <time>2026-08-28T23:43:31.522000Z</time>
      </trkpt>
      <trkpt lat="39.86650229260548" lon="116.47017785785886">
        <time>2026-08-28T23:43:46.522000Z</time>
      </trkpt>
      <trkpt lat="39.86645036940517" lon="116.47056724174898">
        <time>2026-08-28T23:43:58.522000Z</time>
      </trkpt>
      <trkpt lat="39.86643240000156" lon="116.47093956424922">
        <time>2026-08-28T23:44:10.522000Z</time>
      </trkpt>
      <trkpt lat="39.866435231534496" lon="116.47123963017447">
        <time>2026-08-28T23:44:19.522000Z</time>
      </trkpt>
      <trkpt lat="39.86649402268359" lon="116.47152564101378">
        <time>2026-08-28T23:44:28.522000Z</time>
      </trkpt>
      <trkpt lat="39.86650724831266" lon="116.47196621120756">
        <time>2026-08-28T23:44:43.522000Z</time>
      </trkpt>
      <trkpt lat="39.866519261493806" lon="116.47232950896398">
        <time>2026-08-28T23:44:55.522000Z</time>
      </trkpt>
      <trkpt lat="39.86650735693052" lon="116.47272091329613">
        <time>2026-08-28T23:45:07.522000Z</time>
      </trkpt>
      <trkpt lat="39.866475379994114" lon="116.47308522584592">
        <time>2026-08-28T23:45:19.522000Z</time>
      </trkpt>
      <trkpt lat="39.86647341498982" lon="116.47345355178204">
        <time>2026-08-28T23:45:31.522000Z</time>
      </trkpt>
      <trkpt lat="39.86647147486138" lon="116.47382990938769">
        <time>2026-08-28T23:45:43.522000Z</time>
      </trkpt>
      <trkpt lat="39.8664845390743" lon="116.47420727150019">
        <time>2026-08-28T23:45:55.522000Z</time>
      </trkpt>
      <trkpt lat="39.86645426418824" lon="116.47446320171265">
        <time>2026-08-28T23:46:04.522000Z</time>
      </trkpt>
      <trkpt lat="39.86646254723988" lon="116.47483109489289">
        <time>2026-08-28T23:46:16.522000Z</time>
      </trkpt>
      <trkpt lat="39.86649414798974" lon="116.47512861116013">
        <time>2026-08-28T23:46:25.522000Z</time>
      </trkpt>
      <trkpt lat="39.86648120695626" lon="116.47550096736113">
        <time>2026-08-28T23:46:37.522000Z</time>
      </trkpt>
      <trkpt lat="39.86645478829816" lon="116.47570471289428">
        <time>2026-08-28T23:46:43.522000Z</time>
      </trkpt>
      <trkpt lat="39.866423073033104" lon="116.47580407909656">
        <time>2026-08-28T23:46:46.522000Z</time>
      </trkpt>
      <trkpt lat="39.866430191977145" lon="116.47619651054592">
        <time>2026-08-28T23:46:58.622000Z</time>
      </trkpt>
      <trkpt lat="39.866444229516034" lon="116.47655983723857">
        <time>2026-08-28T23:47:10.622000Z</time>
      </trkpt>
      <trkpt lat="39.8664053004934" lon="116.47693320953665">
        <time>2026-08-28T23:47:22.722000Z</time>
      </trkpt>
      <trkpt lat="39.86641660483004" lon="116.47703959818918">
        <time>2026-08-28T23:47:25.722000Z</time>
      </trkpt>
      <trkpt lat="39.86640939416575" lon="116.47731460821457">
        <time>2026-08-28T23:47:34.822000Z</time>
      </trkpt>
      <trkpt lat="39.866424923724644" lon="116.47749928461309">
        <time>2026-08-28T23:47:40.922000Z</time>
      </trkpt>
      <trkpt lat="39.86641197787951" lon="116.47786563342464">
        <time>2026-08-28T23:47:53.222000Z</time>
      </trkpt>
      <trkpt lat="39.86644705439136" lon="116.47824000789751">
        <time>2026-08-28T23:48:05.322000Z</time>
      </trkpt>
      <trkpt lat="39.86644414051341" lon="116.47861639661977">
        <time>2026-08-28T23:48:17.522000Z</time>
      </trkpt>
      <trkpt lat="39.86644654627032" lon="116.47875691517248">
        <time>2026-08-28T23:48:20.522000Z</time>
      </trkpt>
      <trkpt lat="39.86642264174102" lon="116.47913531676048">
        <time>2026-08-28T23:48:32.522000Z</time>
      </trkpt>
      <trkpt lat="39.86639677687067" lon="116.4795267689351">
        <time>2026-08-28T23:48:44.522000Z</time>
      </trkpt>
      <trkpt lat="39.86641006618489" lon="116.47997141566573">
        <time>2026-08-28T23:48:59.522000Z</time>
      </trkpt>
      <trkpt lat="39.86640263805918" lon="116.48016814673841">
        <time>2026-08-28T23:49:05.522000Z</time>
      </trkpt>
      <trkpt lat="39.866318681626446" lon="116.48052548466944">
        <time>2026-08-28T23:49:17.522000Z</time>
      </trkpt>
      <trkpt lat="39.8663108015274" lon="116.48090991558742">
        <time>2026-08-28T23:49:29.522000Z</time>
      </trkpt>
      <trkpt lat="39.86632092498042" lon="116.48129534980549">
        <time>2026-08-28T23:49:41.622000Z</time>
      </trkpt>
      <trkpt lat="39.86632578045859" lon="116.48158844194037">
        <time>2026-08-28T23:49:50.622000Z</time>
      </trkpt>
      <trkpt lat="39.86629607529914" lon="116.48168882009672">
        <time>2026-08-28T23:49:53.622000Z</time>
      </trkpt>
      <trkpt lat="39.86624527747561" lon="116.4817570811216">
        <time>2026-08-28T23:49:56.622000Z</time>
      </trkpt>
      <trkpt lat="39.86617032840384" lon="116.48177315039726">
        <time>2026-08-28T23:49:59.622000Z</time>
      </trkpt>
      <trkpt lat="39.86586707759878" lon="116.48168184734315">
        <time>2026-08-28T23:50:11.622000Z</time>
      </trkpt>
      <trkpt lat="39.86556896738535" lon="116.4816387234689">
        <time>2026-08-28T23:50:23.722000Z</time>
      </trkpt>
      <trkpt lat="39.86528776835296" lon="116.4815654851948">
        <time>2026-08-28T23:50:35.922000Z</time>
      </trkpt>
      <trkpt lat="39.8649976607463" lon="116.48152336412633">
        <time>2026-08-28T23:50:48.122000Z</time>
      </trkpt>
      <trkpt lat="39.86471554396208" lon="116.48147823085554">
        <time>2026-08-28T23:51:00.322000Z</time>
      </trkpt>
      <trkpt lat="39.86443040101169" lon="116.48142406430846">
        <time>2026-08-28T23:51:12.422000Z</time>
      </trkpt>
      <trkpt lat="39.864127279593596" lon="116.48137692622686">
        <time>2026-08-28T23:51:24.522000Z</time>
      </trkpt>
      <trkpt lat="39.8638361195002" lon="116.48131673805209">
        <time>2026-08-28T23:51:36.522000Z</time>
      </trkpt>
      <trkpt lat="39.86356198491001" lon="116.48126558145943">
        <time>2026-08-28T23:51:48.622000Z</time>
      </trkpt>
      <trkpt lat="39.86328592661257" lon="116.48124052236733">
        <time>2026-08-28T23:52:00.622000Z</time>
      </trkpt>
      <trkpt lat="39.86301780349669" lon="116.48119338002999">
        <time>2026-08-28T23:52:12.622000Z</time>
      </trkpt>
      <trkpt lat="39.86272766405629" lon="116.48114021803283">
        <time>2026-08-28T23:52:24.622000Z</time>
      </trkpt>
      <trkpt lat="39.86245651778611" lon="116.48108504622792">
        <time>2026-08-28T23:52:36.722000Z</time>
      </trkpt>
      <trkpt lat="39.862166422351464" lon="116.48104694035551">
        <time>2026-08-28T23:52:48.922000Z</time>
      </trkpt>
      <trkpt lat="39.86189034960322" lon="116.4810168626489">
        <time>2026-08-28T23:53:01.222000Z</time>
      </trkpt>
      <trkpt lat="39.861558168779595" lon="116.48094864996574">
        <time>2026-08-28T23:53:16.422000Z</time>
      </trkpt>
      <trkpt lat="39.86124701321275" lon="116.48088946833832">
        <time>2026-08-28T23:53:28.522000Z</time>
      </trkpt>
      <trkpt lat="39.86096581513477" lon="116.48081623073786">
        <time>2026-08-28T23:53:40.522000Z</time>
      </trkpt>
      <trkpt lat="39.860685707704995" lon="116.48077410881457">
        <time>2026-08-28T23:53:52.522000Z</time>
      </trkpt>
      <trkpt lat="39.860388583717345" lon="116.48072596663499">
        <time>2026-08-28T23:54:04.522000Z</time>
      </trkpt>
      <trkpt lat="39.860317605161036" lon="116.48073199788176">
        <time>2026-08-28T23:54:07.522000Z</time>
      </trkpt>
      <trkpt lat="39.860175811763305" lon="116.48080026945225">
        <time>2026-08-28T23:54:13.522000Z</time>
      </trkpt>
      <trkpt lat="39.85988063508582" lon="116.48073405981177">
        <time>2026-08-28T23:54:25.522000Z</time>
      </trkpt>
      <trkpt lat="39.85969057834913" lon="116.4807109976358">
        <time>2026-08-28T23:54:34.522000Z</time>
      </trkpt>
      <trkpt lat="39.85962038349751" lon="116.48064275256483">
        <time>2026-08-28T23:54:37.522000Z</time>
      </trkpt>
      <trkpt lat="39.859590139749386" lon="116.48055844287273">
        <time>2026-08-28T23:54:40.522000Z</time>
      </trkpt>
      <trkpt lat="39.859561892061116" lon="116.48012885063314">
        <time>2026-08-28T23:54:55.522000Z</time>
      </trkpt>
      <trkpt lat="39.85951584253831" lon="116.47976651228218">
        <time>2026-08-28T23:55:07.622000Z</time>
      </trkpt>
      <trkpt lat="39.859440772881534" lon="116.47939614958337">
        <time>2026-08-28T23:55:19.622000Z</time>
      </trkpt>
      <trkpt lat="39.85937372764208" lon="116.47903381746113">
        <time>2026-08-28T23:55:31.622000Z</time>
      </trkpt>
      <trkpt lat="39.859307681049735" lon="116.47867048336876">
        <time>2026-08-28T23:55:43.622000Z</time>
      </trkpt>
      <trkpt lat="39.85925760338398" lon="116.47829610850337">
        <time>2026-08-28T23:55:55.722000Z</time>
      </trkpt>
      <trkpt lat="39.859231546404644" lon="116.47792875859197">
        <time>2026-08-28T23:56:07.822000Z</time>
      </trkpt>
      <trkpt lat="39.85925226363959" lon="116.4774831172384">
        <time>2026-08-28T23:56:23.122000Z</time>
      </trkpt>
      <trkpt lat="39.85929016965198" lon="116.47710271611724">
        <time>2026-08-28T23:56:35.422000Z</time>
      </trkpt>
      <trkpt lat="39.85931903792748" lon="116.47670826700625">
        <time>2026-08-28T23:56:47.422000Z</time>
      </trkpt>
      <trkpt lat="39.85940298849419" lon="116.47634291997468">
        <time>2026-08-28T23:56:59.522000Z</time>
      </trkpt>
      <trkpt lat="39.859488969485355" lon="116.47598761156775">
        <time>2026-08-28T23:57:11.522000Z</time>
      </trkpt>
      <trkpt lat="39.859564910017475" lon="116.47561725174535">
        <time>2026-08-28T23:57:23.522000Z</time>
      </trkpt>
      <trkpt lat="39.85964287814361" lon="116.47525592693226">
        <time>2026-08-28T23:57:35.522000Z</time>
      </trkpt>
      <trkpt lat="39.859705854770205" lon="116.47489661362522">
        <time>2026-08-28T23:57:47.522000Z</time>
      </trkpt>
      <trkpt lat="39.85976781072357" lon="116.47452927372211">
        <time>2026-08-28T23:57:59.522000Z</time>
      </trkpt>
      <trkpt lat="39.85980800531999" lon="116.47424524036876">
        <time>2026-08-28T23:58:08.522000Z</time>
      </trkpt>
      <trkpt lat="39.859903005690505" lon="116.4738929552071">
        <time>2026-08-28T23:58:20.622000Z</time>
      </trkpt>
      <trkpt lat="39.85998302584785" lon="116.47354669602197">
        <time>2026-08-28T23:58:32.622000Z</time>
      </trkpt>
      <trkpt lat="39.86004335076673" lon="116.47330782809948">
        <time>2026-08-28T23:58:41.622000Z</time>
      </trkpt>
      <trkpt lat="39.86004871628108" lon="116.47308201508939">
        <time>2026-08-28T23:58:47.722000Z</time>
      </trkpt>
      <trkpt lat="39.86011070838237" lon="116.47272372054076">
        <time>2026-08-28T23:58:59.722000Z</time>
      </trkpt>
      <trkpt lat="39.86021577603493" lon="116.4723925202659">
        <time>2026-08-28T23:59:11.822000Z</time>
      </trkpt>
      <trkpt lat="39.86035172355224" lon="116.47201816419287">
        <time>2026-08-28T23:59:23.922000Z</time>
      </trkpt>
      <trkpt lat="39.86046176710534" lon="116.4716769324154">
        <time>2026-08-28T23:59:36.122000Z</time>
      </trkpt>
      <trkpt lat="39.86049631031291" lon="116.47151334505197">
        <time>2026-08-28T23:59:42.322000Z</time>
      </trkpt>
      <trkpt lat="39.86053008258477" lon="116.47143205130983">
        <time>2026-08-28T23:59:45.322000Z</time>
      </trkpt>
      <trkpt lat="39.86065283615852" lon="116.47134572871967">
        <time>2026-08-28T23:59:51.422000Z</time>
      </trkpt>
      <trkpt lat="39.86072282117216" lon="116.47134170567675">
        <time>2026-08-28T23:59:54.422000Z</time>
      </trkpt>
      <trkpt lat="39.860883907076285" lon="116.47137580696163">
        <time>2026-08-29T00:00:03.422000Z</time>
      </trkpt>
      <trkpt lat="39.86097762892157" lon="116.47127744526638">
        <time>2026-08-29T00:00:06.422000Z</time>
      </trkpt>
      <trkpt lat="39.86099442474539" lon="116.47120418261207">
        <time>2026-08-29T00:00:09.522000Z</time>
      </trkpt>
      <trkpt lat="39.860935119123006" lon="116.4710927940776">
        <time>2026-08-29T00:00:12.522000Z</time>
      </trkpt>
      <trkpt lat="39.86061894736187" lon="116.47102459121281">
        <time>2026-08-29T00:00:24.522000Z</time>
      </trkpt>
      <trkpt lat="39.860474891332466" lon="116.47100152726533">
        <time>2026-08-29T00:00:30.522000Z</time>
      </trkpt>
      <trkpt lat="39.86045766438762" lon="116.47091923725858">
        <time>2026-08-29T00:00:33.522000Z</time>
      </trkpt>
      <trkpt lat="39.86056569547049" lon="116.47057098906845">
        <time>2026-08-29T00:00:45.522000Z</time>
      </trkpt>
      <trkpt lat="39.86062968147453" lon="116.47020468530557">
        <time>2026-08-29T00:00:57.622000Z</time>
      </trkpt>
      <trkpt lat="39.8606484261495" lon="116.47011235684295">
        <time>2026-08-29T00:01:00.622000Z</time>
      </trkpt>
      <trkpt lat="39.86068340592174" lon="116.46974204643938">
        <time>2026-08-29T00:01:12.722000Z</time>
      </trkpt>
      <trkpt lat="39.86072943722361" lon="116.4693898013419">
        <time>2026-08-29T00:01:24.822000Z</time>
      </trkpt>
      <trkpt lat="39.860804455659036" lon="116.4690325379726">
        <time>2026-08-29T00:01:36.922000Z</time>
      </trkpt>
      <trkpt lat="39.860865430912725" lon="116.46865821978317">
        <time>2026-08-29T00:01:49.222000Z</time>
      </trkpt>
      <trkpt lat="39.860939421913336" lon="116.46828892089054">
        <time>2026-08-29T00:02:01.422000Z</time>
      </trkpt>
      <trkpt lat="39.860990346266924" lon="116.46789353752695">
        <time>2026-08-29T00:02:13.522000Z</time>
      </trkpt>
      <trkpt lat="39.861001856574106" lon="116.46771290831403">
        <time>2026-08-29T00:02:19.522000Z</time>
      </trkpt>
      <trkpt lat="39.86106689588562" lon="116.46735867144503">
        <time>2026-08-29T00:02:31.522000Z</time>
      </trkpt>
      <trkpt lat="39.86112392478532" lon="116.46699942147075">
        <time>2026-08-29T00:02:43.522000Z</time>
      </trkpt>
      <trkpt lat="39.861192988094174" lon="116.46665221484064">
        <time>2026-08-29T00:02:55.522000Z</time>
      </trkpt>
      <trkpt lat="39.86128205560188" lon="116.46630601232971">
        <time>2026-08-29T00:03:07.522000Z</time>
      </trkpt>
      <trkpt lat="39.86133710349808" lon="116.46595078633149">
        <time>2026-08-29T00:03:19.522000Z</time>
      </trkpt>
      <trkpt lat="39.86138993734681" lon="116.46588956997931">
        <time>2026-08-29T00:03:22.522000Z</time>
      </trkpt>
      <trkpt lat="39.86166008318042" lon="116.46594974239098">
        <time>2026-08-29T00:03:34.522000Z</time>
      </trkpt>
      <trkpt lat="39.8619371002037" lon="116.46596174892234">
        <time>2026-08-29T00:03:46.522000Z</time>
      </trkpt>
      <trkpt lat="39.86214599513614" lon="116.4659266023672">
        <time>2026-08-29T00:03:55.522000Z</time>
      </trkpt>
      <trkpt lat="39.862426078957945" lon="116.46596369448172">
        <time>2026-08-29T00:04:07.522000Z</time>
      </trkpt>
      <trkpt lat="39.86270712528974" lon="116.46598673835044">
        <time>2026-08-29T00:04:19.622000Z</time>
      </trkpt>
      <trkpt lat="39.862979169467266" lon="116.46600877992198">
        <time>2026-08-29T00:04:31.622000Z</time>
      </trkpt>
      <trkpt lat="39.863266298599676" lon="116.46606292974884">
        <time>2026-08-29T00:04:43.622000Z</time>
      </trkpt>
      <trkpt lat="39.86355474369645" lon="116.4660728843157">
        <time>2026-08-29T00:04:55.722000Z</time>
      </trkpt>
      <trkpt lat="39.86377000102173" lon="116.46609857278251">
        <time>2026-08-29T00:05:04.822000Z</time>
      </trkpt>
      <trkpt lat="39.86382226745113" lon="116.46615578750536">
        <time>2026-08-29T00:05:07.822000Z</time>
      </trkpt>
      <trkpt lat="39.86375166070914" lon="116.46658165207012">
        <time>2026-08-29T00:05:20.122000Z</time>
      </trkpt>
      <trkpt lat="39.863756638702924" lon="116.46694590773447">
        <time>2026-08-29T00:05:32.322000Z</time>
      </trkpt>
      <trkpt lat="39.863720727316824" lon="116.46734930753881">
        <time>2026-08-29T00:05:44.422000Z</time>
      </trkpt>
      <trkpt lat="39.86369170494384" lon="116.46771056425659">
        <time>2026-08-29T00:05:56.522000Z</time>
      </trkpt>
      <trkpt lat="39.863658734515255" lon="116.4680898876876">
        <time>2026-08-29T00:06:08.622000Z</time>
      </trkpt>
      <trkpt lat="39.86363875269309" lon="116.46846419556962">
        <time>2026-08-29T00:06:20.622000Z</time>
      </trkpt>
      <trkpt lat="39.863640739672675" lon="116.46882646199525">
        <time>2026-08-29T00:06:32.722000Z</time>
      </trkpt>
      <trkpt lat="39.86360882720431" lon="116.46922385914492">
        <time>2026-08-29T00:06:44.822000Z</time>
      </trkpt>
      <trkpt lat="39.86359756442446" lon="116.46949280554496">
        <time>2026-08-29T00:06:54.022000Z</time>
      </trkpt>
      <trkpt lat="39.86356156634286" lon="116.46985709274793">
        <time>2026-08-29T00:07:06.122000Z</time>
      </trkpt>
      <trkpt lat="39.86354358090733" lon="116.47022539497652">
        <time>2026-08-29T00:07:18.322000Z</time>
      </trkpt>
      <trkpt lat="39.863508576788796" lon="116.47058567401353">
        <time>2026-08-29T00:07:30.522000Z</time>
      </trkpt>
      <trkpt lat="39.863490668670856" lon="116.4709800749946">
        <time>2026-08-29T00:07:42.522000Z</time>
      </trkpt>
      <trkpt lat="39.86347094500038" lon="116.47107943036524">
        <time>2026-08-29T00:07:45.522000Z</time>
      </trkpt>
      <trkpt lat="39.86342118417077" lon="116.47116473976402">
        <time>2026-08-29T00:07:48.522000Z</time>
      </trkpt>
      <trkpt lat="39.86335629344158" lon="116.47120288347227">
        <time>2026-08-29T00:07:51.522000Z</time>
      </trkpt>
      <trkpt lat="39.86307422519648" lon="116.4711728117281">
        <time>2026-08-29T00:08:03.522000Z</time>
      </trkpt>
      <trkpt lat="39.86277721067476" lon="116.47116180965452">
        <time>2026-08-29T00:08:15.522000Z</time>
      </trkpt>
      <trkpt lat="39.862496228705794" lon="116.4711628483863">
        <time>2026-08-29T00:08:27.522000Z</time>
      </trkpt>
      <trkpt lat="39.86235828072976" lon="116.47117892273387">
        <time>2026-08-29T00:08:33.622000Z</time>
      </trkpt>
      <trkpt lat="39.862078184654" lon="116.47113881508793">
        <time>2026-08-29T00:08:45.622000Z</time>
      </trkpt>
      <trkpt lat="39.86200719408482" lon="116.47114083110614">
        <time>2026-08-29T00:08:48.622000Z</time>
      </trkpt>
      <trkpt lat="39.86186310734199" lon="116.47110672787103">
        <time>2026-08-29T00:08:54.622000Z</time>
      </trkpt>
      <trkpt lat="39.86165417437959" lon="116.47112682534818">
        <time>2026-08-29T00:09:03.622000Z</time>
      </trkpt>
      <trkpt lat="39.86137216752692" lon="116.47111883210643">
        <time>2026-08-29T00:09:15.722000Z</time>
      </trkpt>
      <trkpt lat="39.86116511487022" lon="116.4710957759933">
        <time>2026-08-29T00:09:24.822000Z</time>
      </trkpt>
      <trkpt lat="39.86095396790992" lon="116.47103859919088">
        <time>2026-08-29T00:09:33.822000Z</time>
      </trkpt>
      <trkpt lat="39.8606619589023" lon="116.47102960365248">
        <time>2026-08-29T00:09:46.022000Z</time>
      </trkpt>
      <trkpt lat="39.86047782723768" lon="116.47097844493463">
        <time>2026-08-29T00:09:55.322000Z</time>
      </trkpt>
      <trkpt lat="39.86045361182403" lon="116.47090017009106">
        <time>2026-08-29T00:09:58.322000Z</time>
      </trkpt>
      <trkpt lat="39.860551574300686" lon="116.47052683447365">
        <time>2026-08-29T00:10:10.522000Z</time>
      </trkpt>
      <trkpt lat="39.86063958969702" lon="116.47017156706622">
        <time>2026-08-29T00:10:22.522000Z</time>
      </trkpt>
      <trkpt lat="39.86068283337648" lon="116.46989759472336">
        <time>2026-08-29T00:10:31.522000Z</time>
      </trkpt>
      <trkpt lat="39.86066607353249" lon="116.46962062104446">
        <time>2026-08-29T00:10:40.522000Z</time>
      </trkpt>
      <trkpt lat="39.86074511484527" lon="116.46927238692095">
        <time>2026-08-29T00:10:52.522000Z</time>
      </trkpt>
      <trkpt lat="39.86083587306281" lon="116.4688197887484">
        <time>2026-08-29T00:11:07.522000Z</time>
      </trkpt>
      <trkpt lat="39.860895899117416" lon="116.46846353569151">
        <time>2026-08-29T00:11:19.522000Z</time>
      </trkpt>
      <trkpt lat="39.86093186915966" lon="116.46808521188757">
        <time>2026-08-29T00:11:31.522000Z</time>
      </trkpt>
      <trkpt lat="39.860996699414606" lon="116.46765470685483">
        <time>2026-08-29T00:11:46.522000Z</time>
      </trkpt>
      <trkpt lat="39.86106969001117" lon="116.46728240697564">
        <time>2026-08-29T00:11:58.522000Z</time>
      </trkpt>
      <trkpt lat="39.8611177253827" lon="116.4669251657687">
        <time>2026-08-29T00:12:10.522000Z</time>
      </trkpt>
      <trkpt lat="39.86120380715201" lon="116.46658498187323">
        <time>2026-08-29T00:12:22.522000Z</time>
      </trkpt>
      <trkpt lat="39.861276838477" lon="116.46622473373941">
        <time>2026-08-29T00:12:34.522000Z</time>
      </trkpt>
      <trkpt lat="39.86132313371159" lon="116.46596182591365">
        <time>2026-08-29T00:12:43.522000Z</time>
      </trkpt>
      <trkpt lat="39.86137295700579" lon="116.46589659617054">
        <time>2026-08-29T00:12:46.522000Z</time>
      </trkpt>
      <trkpt lat="39.86165206220198" lon="116.46594171588599">
        <time>2026-08-29T00:12:58.522000Z</time>
      </trkpt>
      <trkpt lat="39.86192810337122" lon="116.46596275348988">
        <time>2026-08-29T00:13:10.522000Z</time>
      </trkpt>
      <trkpt lat="39.862164028952506" lon="116.46593964480668">
        <time>2026-08-29T00:13:19.522000Z</time>
      </trkpt>
      <trkpt lat="39.86244409136687" lon="116.46596870942014">
        <time>2026-08-29T00:13:31.522000Z</time>
      </trkpt>
      <trkpt lat="39.862722151255234" lon="116.46599677086768">
        <time>2026-08-29T00:13:43.522000Z</time>
      </trkpt>
      <trkpt lat="39.863010186537366" lon="116.46601580011739">
        <time>2026-08-29T00:13:55.522000Z</time>
      </trkpt>
      <trkpt lat="39.86323028982813" lon="116.46605892049625">
        <time>2026-08-29T00:14:04.522000Z</time>
      </trkpt>
      <trkpt lat="39.86338737888248" lon="116.4660407947829">
        <time>2026-08-29T00:14:10.622000Z</time>
      </trkpt>
      <trkpt lat="39.863665675697746" lon="116.4660811264297">
        <time>2026-08-29T00:14:22.622000Z</time>
      </trkpt>
      <trkpt lat="39.8637400964223" lon="116.4660960023231">
        <time>2026-08-29T00:14:25.722000Z</time>
      </trkpt>
      <trkpt lat="39.863803700053744" lon="116.46615385745905">
        <time>2026-08-29T00:14:28.722000Z</time>
      </trkpt>
      <trkpt lat="39.863828192342396" lon="116.46623529021822">
        <time>2026-08-29T00:14:31.722000Z</time>
      </trkpt>
      <trkpt lat="39.86376203710225" lon="116.46672213487477">
        <time>2026-08-29T00:14:46.822000Z</time>
      </trkpt>
      <trkpt lat="39.86376881621855" lon="116.46701213499759">
        <time>2026-08-29T00:14:56.022000Z</time>
      </trkpt>
      <trkpt lat="39.863720841043275" lon="116.46739145354509">
        <time>2026-08-29T00:15:08.322000Z</time>
      </trkpt>
      <trkpt lat="39.863721345138366" lon="116.46757810069192">
        <time>2026-08-29T00:15:14.422000Z</time>
      </trkpt>
      <trkpt lat="39.8636785102354" lon="116.46800759870466">
        <time>2026-08-29T00:15:26.522000Z</time>
      </trkpt>
      <trkpt lat="39.86363255374536" lon="116.46839094059649">
        <time>2026-08-29T00:15:38.522000Z</time>
      </trkpt>
      <trkpt lat="39.86363155676941" lon="116.46875922781379">
        <time>2026-08-29T00:15:50.522000Z</time>
      </trkpt>
      <trkpt lat="39.863603668253965" lon="116.46916565550576">
        <time>2026-08-29T00:16:02.522000Z</time>
      </trkpt>
      <trkpt lat="39.86359168856541" lon="116.46953796512291">
        <time>2026-08-29T00:16:14.522000Z</time>
      </trkpt>
      <trkpt lat="39.86356567922715" lon="116.46989823730578">
        <time>2026-08-29T00:16:26.522000Z</time>
      </trkpt>
      <trkpt lat="39.86353070606299" lon="116.47027055620158">
        <time>2026-08-29T00:16:38.522000Z</time>
      </trkpt>
      <trkpt lat="39.8634987769637" lon="116.47065793123632">
        <time>2026-08-29T00:16:50.522000Z</time>
      </trkpt>
      <trkpt lat="39.863474822428834" lon="116.47103527300756">
        <time>2026-08-29T00:17:02.522000Z</time>
      </trkpt>
      <trkpt lat="39.86345909586093" lon="116.47113362443241">
        <time>2026-08-29T00:17:05.522000Z</time>
      </trkpt>
      <trkpt lat="39.863413276444774" lon="116.47119785849863">
        <time>2026-08-29T00:17:08.522000Z</time>
      </trkpt>
      <trkpt lat="39.863345324655434" lon="116.47121392409987">
        <time>2026-08-29T00:17:11.522000Z</time>
      </trkpt>
      <trkpt lat="39.863069350717616" lon="116.4712179729126">
        <time>2026-08-29T00:17:23.522000Z</time>
      </trkpt>
      <trkpt lat="39.86277533324107" lon="116.47120596688374">
        <time>2026-08-29T00:17:35.522000Z</time>
      </trkpt>
      <trkpt lat="39.86247831039082" lon="116.47119195409759">
        <time>2026-08-29T00:17:47.522000Z</time>
      </trkpt>
      <trkpt lat="39.86218629286618" lon="116.47117994782518">
        <time>2026-08-29T00:17:59.522000Z</time>
      </trkpt>
      <trkpt lat="39.8619013000361" lon="116.47117697278651">
        <time>2026-08-29T00:18:11.622000Z</time>
      </trkpt>
      <trkpt lat="39.86175736633432" lon="116.47119806572836">
        <time>2026-08-29T00:18:17.622000Z</time>
      </trkpt>
      <trkpt lat="39.861460246183874" lon="116.47114892809019">
        <time>2026-08-29T00:18:29.722000Z</time>
      </trkpt>
      <trkpt lat="39.86118306382082" lon="116.4710777095625">
        <time>2026-08-29T00:18:41.722000Z</time>
      </trkpt>
      <trkpt lat="39.860875000045766" lon="116.47104864472165">
        <time>2026-08-29T00:18:53.822000Z</time>
      </trkpt>
      <trkpt lat="39.86068094951854" lon="116.4710265905825">
        <time>2026-08-29T00:19:02.922000Z</time>
      </trkpt>
      <trkpt lat="39.86047578843853" lon="116.4709643953049">
        <time>2026-08-29T00:19:12.022000Z</time>
      </trkpt>
      <trkpt lat="39.86044056253942" lon="116.47088210761882">
        <time>2026-08-29T00:19:15.122000Z</time>
      </trkpt>
      <trkpt lat="39.860522891901375" lon="116.47064124327503">
        <time>2026-08-29T00:19:24.322000Z</time>
      </trkpt>
      <trkpt lat="39.860613898066795" lon="116.47028296392459">
        <time>2026-08-29T00:19:36.522000Z</time>
      </trkpt>
      <trkpt lat="39.86067679784144" lon="116.46988454947822">
        <time>2026-08-29T00:19:48.622000Z</time>
      </trkpt>
      <trkpt lat="39.860732045129254" lon="116.46961158099532">
        <time>2026-08-29T00:19:57.622000Z</time>
      </trkpt>
      <trkpt lat="39.86074627413283" lon="116.46933059120092">
        <time>2026-08-29T00:20:06.622000Z</time>
      </trkpt>
      <trkpt lat="39.860807299236164" lon="116.46897533712442">
        <time>2026-08-29T00:20:18.722000Z</time>
      </trkpt>
      <trkpt lat="39.860868313186685" lon="116.46861506855925">
        <time>2026-08-29T00:20:30.722000Z</time>
      </trkpt>
      <trkpt lat="39.860921305661805" lon="116.46824577269055">
        <time>2026-08-29T00:20:42.922000Z</time>
      </trkpt>
      <trkpt lat="39.86096830397497" lon="116.46787748445368">
        <time>2026-08-29T00:20:55.122000Z</time>
      </trkpt>
      <trkpt lat="39.86104436315253" lon="116.4675312725641">
        <time>2026-08-29T00:21:07.322000Z</time>
      </trkpt>
      <trkpt lat="39.86109926921001" lon="116.46712686506947">
        <time>2026-08-29T00:21:19.522000Z</time>
      </trkpt>
      <trkpt lat="39.86116332645266" lon="116.46677765098778">
        <time>2026-08-29T00:21:31.522000Z</time>
      </trkpt>
      <trkpt lat="39.861238326600585" lon="116.4664063628019">
        <time>2026-08-29T00:21:43.622000Z</time>
      </trkpt>
      <trkpt lat="39.86131238339126" lon="116.46605514723166">
        <time>2026-08-29T00:21:55.622000Z</time>
      </trkpt>
      <trkpt lat="39.86137993254212" lon="116.46588756435936">
        <time>2026-08-29T00:22:01.622000Z</time>
      </trkpt>
      <trkpt lat="39.861450931338155" lon="116.46588855889323">
        <time>2026-08-29T00:22:04.622000Z</time>
      </trkpt>
      <trkpt lat="39.86177811690104" lon="116.46596477917704">
        <time>2026-08-29T00:22:19.722000Z</time>
      </trkpt>
      <trkpt lat="39.86191954131595" lon="116.46598657724475">
        <time>2026-08-29T00:22:25.822000Z</time>
      </trkpt>
      <trkpt lat="39.862132113196274" lon="116.46597267462224">
        <time>2026-08-29T00:22:34.922000Z</time>
      </trkpt>
      <trkpt lat="39.86241114938931" lon="116.46598978578704">
        <time>2026-08-29T00:22:47.222000Z</time>
      </trkpt>
      <trkpt lat="39.862689179826006" lon="116.46600680940671">
        <time>2026-08-29T00:22:59.522000Z</time>
      </trkpt>
      <trkpt lat="39.863014250609446" lon="116.46603988219535">
        <time>2026-08-29T00:23:11.522000Z</time>
      </trkpt>
      <trkpt lat="39.863302767614634" lon="116.46606697707401">
        <time>2026-08-29T00:23:23.522000Z</time>
      </trkpt>
      <trkpt lat="39.86344254715673" lon="116.46604788187605">
        <time>2026-08-29T00:23:29.522000Z</time>
      </trkpt>
      <trkpt lat="39.86373097359174" lon="116.46608233310391">
        <time>2026-08-29T00:23:41.522000Z</time>
      </trkpt>
      <trkpt lat="39.86380024288126" lon="116.46612617125919">
        <time>2026-08-29T00:23:44.522000Z</time>
      </trkpt>
      <trkpt lat="39.863825740361875" lon="116.46623946582774">
        <time>2026-08-29T00:23:47.522000Z</time>
      </trkpt>
      <trkpt lat="39.8638229901717" lon="116.46633278685074">
        <time>2026-08-29T00:23:50.522000Z</time>
      </trkpt>
      <trkpt lat="39.863759536522046" lon="116.4665354921332">
        <time>2026-08-29T00:23:56.522000Z</time>
      </trkpt>
      <trkpt lat="39.863747029829206" lon="116.46671912637714">
        <time>2026-08-29T00:24:02.522000Z</time>
      </trkpt>
      <trkpt lat="39.863768013440016" lon="116.4670853882866">
        <time>2026-08-29T00:24:14.522000Z</time>
      </trkpt>
      <trkpt lat="39.863724762298204" lon="116.46736235222501">
        <time>2026-08-29T00:24:23.522000Z</time>
      </trkpt>
      <trkpt lat="39.86372427717935" lon="116.467553013282">
        <time>2026-08-29T00:24:29.522000Z</time>
      </trkpt>
      <trkpt lat="39.86368975392387" lon="116.46772862724245">
        <time>2026-08-29T00:24:35.522000Z</time>
      </trkpt>
      <trkpt lat="39.86367675532765" lon="116.46809791339024">
        <time>2026-08-29T00:24:47.522000Z</time>
      </trkpt>
      <trkpt lat="39.86363577743017" lon="116.46847322748238">
        <time>2026-08-29T00:24:59.522000Z</time>
      </trkpt>
      <trkpt lat="39.86362880329525" lon="116.46884954430143">
        <time>2026-08-29T00:25:11.522000Z</time>
      </trkpt>
      <trkpt lat="39.86360279183496" lon="116.4692108141057">
        <time>2026-08-29T00:25:23.522000Z</time>
      </trkpt>
      <trkpt lat="39.86357882413532" lon="116.46958713975016">
        <time>2026-08-29T00:25:35.622000Z</time>
      </trkpt>
      <trkpt lat="39.86354380458636" lon="116.4699433993165">
        <time>2026-08-29T00:25:47.622000Z</time>
      </trkpt>
      <trkpt lat="39.86353883565766" lon="116.47031772194076">
        <time>2026-08-29T00:25:59.722000Z</time>
      </trkpt>
      <trkpt lat="39.86350836616899" lon="116.47050940395">
        <time>2026-08-29T00:26:05.822000Z</time>
      </trkpt>
      <trkpt lat="39.86350040417354" lon="116.47088473533903">
        <time>2026-08-29T00:26:18.022000Z</time>
      </trkpt>
      <trkpt lat="39.86347788344013" lon="116.47105735105525">
        <time>2026-08-29T00:26:24.222000Z</time>
      </trkpt>
      <trkpt lat="39.86345409613096" lon="116.47113362505814">
        <time>2026-08-29T00:26:27.222000Z</time>
      </trkpt>
      <trkpt lat="39.86339324134271" lon="116.47118481461878">
        <time>2026-08-29T00:26:30.322000Z</time>
      </trkpt>
      <trkpt lat="39.86317129787698" lon="116.47120089948734">
        <time>2026-08-29T00:26:39.422000Z</time>
      </trkpt>
      <trkpt lat="39.86287027520763" lon="116.47118688720374">
        <time>2026-08-29T00:26:51.522000Z</time>
      </trkpt>
      <trkpt lat="39.86253628775858" lon="116.47118492186502">
        <time>2026-08-29T00:27:03.522000Z</time>
      </trkpt>
      <trkpt lat="39.86224926439234" lon="116.47117090783411">
        <time>2026-08-29T00:27:15.622000Z</time>
      </trkpt>
      <trkpt lat="39.86196332170563" lon="116.47118599713653">
        <time>2026-08-29T00:27:27.622000Z</time>
      </trkpt>
      <trkpt lat="39.86182341005543" lon="116.4712151181281">
        <time>2026-08-29T00:27:33.622000Z</time>
      </trkpt>
      <trkpt lat="39.86153131187333" lon="116.47117400838411">
        <time>2026-08-29T00:27:45.722000Z</time>
      </trkpt>
      <trkpt lat="39.861236183310524" lon="116.47112185982354">
        <time>2026-08-29T00:27:57.722000Z</time>
      </trkpt>
      <trkpt lat="39.86093704670172" lon="116.47106670112964">
        <time>2026-08-29T00:28:09.922000Z</time>
      </trkpt>
      <trkpt lat="39.860635885268515" lon="116.47100251068174">
        <time>2026-08-29T00:28:22.222000Z</time>
      </trkpt>
      <trkpt lat="39.86044373184051" lon="116.47094332449758">
        <time>2026-08-29T00:28:31.322000Z</time>
      </trkpt>
      <trkpt lat="39.860437490493965" lon="116.47085601541954">
        <time>2026-08-29T00:28:34.422000Z</time>
      </trkpt>
      <trkpt lat="39.860554460544044" lon="116.47048568845098">
        <time>2026-08-29T00:28:46.522000Z</time>
      </trkpt>
      <trkpt lat="39.86064229663673" lon="116.47006519108344">
        <time>2026-08-29T00:29:01.522000Z</time>
      </trkpt>
      <trkpt lat="39.860685152350726" lon="116.46964972109824">
        <time>2026-08-29T00:29:13.522000Z</time>
      </trkpt>
      <trkpt lat="39.860752174893605" lon="116.46929446356786">
        <time>2026-08-29T00:29:25.522000Z</time>
      </trkpt>
      <trkpt lat="39.86082310107294" lon="116.46890308200524">
        <time>2026-08-29T00:29:37.522000Z</time>
      </trkpt>
      <trkpt lat="39.86087812680389" lon="116.46854682884931">
        <time>2026-08-29T00:29:49.522000Z</time>
      </trkpt>
      <trkpt lat="39.860925079253796" lon="116.46816248190748">
        <time>2026-08-29T00:30:01.522000Z</time>
      </trkpt>
      <trkpt lat="39.86095031311657" lon="116.46788049717658">
        <time>2026-08-29T00:30:10.522000Z</time>
      </trkpt>
      <trkpt lat="39.86103427424322" lon="116.4674981589801">
        <time>2026-08-29T00:30:22.522000Z</time>
      </trkpt>
      <trkpt lat="39.861088269812235" lon="116.46712686644814">
        <time>2026-08-29T00:30:34.522000Z</time>
      </trkpt>
      <trkpt lat="39.86115131632918" lon="116.4667736386492">
        <time>2026-08-29T00:30:46.522000Z</time>
      </trkpt>
      <trkpt lat="39.86122359623282" lon="116.46650670990611">
        <time>2026-08-29T00:30:55.522000Z</time>
      </trkpt>
      <trkpt lat="39.861313375298806" lon="116.466052136782">
        <time>2026-08-29T00:31:10.622000Z</time>
      </trkpt>
      <trkpt lat="39.86133512502398" lon="116.46595881409226">
        <time>2026-08-29T00:31:13.522000Z</time>
      </trkpt>
      <trkpt lat="39.86137992451549" lon="116.46588455404871">
        <time>2026-08-29T00:31:16.522000Z</time>
      </trkpt>
      <trkpt lat="39.8616530567939" lon="116.46593970888382">
        <time>2026-08-29T00:31:28.622000Z</time>
      </trkpt>
      <trkpt lat="39.86192816495381" lon="116.46598583259393">
        <time>2026-08-29T00:31:40.622000Z</time>
      </trkpt>
      <trkpt lat="39.86222308195965" lon="116.46596070962028">
        <time>2026-08-29T00:31:52.722000Z</time>
      </trkpt>
      <trkpt lat="39.862359069212" lon="116.46595868568846">
        <time>2026-08-29T00:31:58.822000Z</time>
      </trkpt>
      <trkpt lat="39.86264015302483" lon="116.46599577771029">
        <time>2026-08-29T00:32:11.022000Z</time>
      </trkpt>
      <trkpt lat="39.86290923754306" lon="116.4660328712747">
        <time>2026-08-29T00:32:23.222000Z</time>
      </trkpt>
      <trkpt lat="39.86317930866258" lon="116.46606494754197">
        <time>2026-08-29T00:32:35.522000Z</time>
      </trkpt>
      <trkpt lat="39.86341936000672" lon="116.46608900005859">
        <time>2026-08-29T00:32:44.522000Z</time>
      </trkpt>
      <trkpt lat="39.863635340308626" lon="116.4660859626454">
        <time>2026-08-29T00:32:53.522000Z</time>
      </trkpt>
      <trkpt lat="39.86370738734946" lon="116.46610501902764">
        <time>2026-08-29T00:32:56.522000Z</time>
      </trkpt>
      <trkpt lat="39.86377254202774" lon="116.46616421405733">
        <time>2026-08-29T00:32:59.522000Z</time>
      </trkpt>
      <trkpt lat="39.86380776011585" lon="116.4662464922114">
        <time>2026-08-29T00:33:02.522000Z</time>
      </trkpt>
      <trkpt lat="39.86378422061281" lon="116.46641808500829">
        <time>2026-08-29T00:33:08.522000Z</time>
      </trkpt>
      <trkpt lat="39.86384341904138" lon="116.46649333653707">
        <time>2026-08-29T00:33:14.522000Z</time>
      </trkpt>
      <trkpt lat="39.863892209419696" lon="116.46641606456429">
        <time>2026-08-29T00:33:17.522000Z</time>
      </trkpt>
      <trkpt lat="39.86391358002374" lon="116.46618125493772">
        <time>2026-08-29T00:33:23.522000Z</time>
      </trkpt>
      <trkpt lat="39.86394936895016" lon="116.46610298179543">
        <time>2026-08-29T00:33:26.522000Z</time>
      </trkpt>
      <trkpt lat="39.864012250324045" lon="116.46605982587579">
        <time>2026-08-29T00:33:29.522000Z</time>
      </trkpt>
      <trkpt lat="39.86434333435971" lon="116.46609791517362">
        <time>2026-08-29T00:33:44.522000Z</time>
      </trkpt>
      <trkpt lat="39.8644153492551" lon="116.46610493024485">
        <time>2026-08-29T00:33:47.522000Z</time>
      </trkpt>
      <trkpt lat="39.864490283585496" lon="116.46608184165846">
        <time>2026-08-29T00:33:50.522000Z</time>
      </trkpt>
      <trkpt lat="39.86483735610901" lon="116.46611591519952">
        <time>2026-08-29T00:34:05.522000Z</time>
      </trkpt>
      <trkpt lat="39.86513341801537" lon="116.46614497794715">
        <time>2026-08-29T00:34:17.522000Z</time>
      </trkpt>
      <trkpt lat="39.86541744574478" lon="116.46616099744146">
        <time>2026-08-29T00:34:29.522000Z</time>
      </trkpt>
      <trkpt lat="39.86570945966857" lon="116.4661719987149">
        <time>2026-08-29T00:34:41.522000Z</time>
      </trkpt>
      <trkpt lat="39.8660619098045" lon="116.46621381066566">
        <time>2026-08-29T00:34:56.622000Z</time>
      </trkpt>
      <trkpt lat="39.86628267332264" lon="116.46626324045221">
        <time>2026-08-29T00:35:05.522000Z</time>
      </trkpt>
      <trkpt lat="39.866425553025486" lon="116.466221077755">
        <time>2026-08-29T00:35:11.522000Z</time>
      </trkpt>
      <trkpt lat="39.8664706418708" lon="116.46625518929831">
        <time>2026-08-29T00:35:14.622000Z</time>
      </trkpt>
      <trkpt lat="39.86652986693578" lon="116.46634047500238">
        <time>2026-08-29T00:35:17.622000Z</time>
      </trkpt>
      <trkpt lat="39.86655516384504" lon="116.4664518549177">
        <time>2026-08-29T00:35:20.622000Z</time>
      </trkpt>
      <trkpt lat="39.866554324514546" lon="116.46688434562189">
        <time>2026-08-29T00:35:32.622000Z</time>
      </trkpt>
      <trkpt lat="39.86656781510886" lon="116.46706697484593">
        <time>2026-08-29T00:35:38.722000Z</time>
      </trkpt>
      <trkpt lat="39.866539324873585" lon="116.46725563104302">
        <time>2026-08-29T00:35:44.722000Z</time>
      </trkpt>
      <trkpt lat="39.86652643116272" lon="116.46766505214767">
        <time>2026-08-29T00:35:56.922000Z</time>
      </trkpt>
      <trkpt lat="39.86652545320638" lon="116.46804236420269">
        <time>2026-08-29T00:36:09.122000Z</time>
      </trkpt>
      <trkpt lat="39.86655021213088" lon="116.46832233689211">
        <time>2026-08-29T00:36:18.422000Z</time>
      </trkpt>
      <trkpt lat="39.866512656286794" lon="116.46848490908087">
        <time>2026-08-29T00:36:24.622000Z</time>
      </trkpt>
      <trkpt lat="39.866583791823864" lon="116.46853607895453">
        <time>2026-08-29T00:36:27.522000Z</time>
      </trkpt>
      <trkpt lat="39.866624568428094" lon="116.46845478991914">
        <time>2026-08-29T00:36:30.622000Z</time>
      </trkpt>
      <trkpt lat="39.86665337293624" lon="116.46801525384348">
        <time>2026-08-29T00:36:42.622000Z</time>
      </trkpt>
      <trkpt lat="39.866642921767344" lon="116.46764644153357">
        <time>2026-08-29T00:36:54.722000Z</time>
      </trkpt>
      <trkpt lat="39.86663360720194" lon="116.46747019961828">
        <time>2026-08-29T00:37:00.822000Z</time>
      </trkpt>
      <trkpt lat="39.8666448337118" lon="116.46708716608877">
        <time>2026-08-29T00:37:13.022000Z</time>
      </trkpt>
      <trkpt lat="39.86668584580234" lon="116.46670872330411">
        <time>2026-08-29T00:37:25.222000Z</time>
      </trkpt>
      <trkpt lat="39.86670657274588" lon="116.46660737142544">
        <time>2026-08-29T00:37:28.322000Z</time>
      </trkpt>
      <trkpt lat="39.8666858237535" lon="116.46632741059948">
        <time>2026-08-29T00:37:37.322000Z</time>
      </trkpt>
    </trkseg>
  </trk>
</gpx>