<?xml version="1.0" encoding="UTF-8"?>
<gpx xmlns="http://www.topografix.com/GPX/1/1" xmlns:gpxtpx="http://www.garmin.com/xmlschemas/TrackPointExtension/v1" xmlns:xsi="http://www.w3.org/2001/XMLSchema-instance" xsi:schemaLocation="http://www.topografix.com/GPX/1/1 http://www.topografix.com/GPX/1/1/gpx.xsd" version="1.1" creator="gpx.py -- https://github.com/tkrajina/gpxpy">
  <trk>
    <name>gpx from keep</name>
    <type>Run</type>
    <trkseg>
      <trkpt lat="39.89566784508193" lon="116.34347504833643">
        <time>2026-07-08T03:35:13.977000Z</time>
      </trkpt>
      <trkpt lat="39.89566784508193" lon="116.34347504833643">
        <time>2026-07-08T03:35:13.977000Z</time>
      </trkpt>
      <trkpt lat="39.89584686822614" lon="116.34345706334159">
        <time>2026-07-08T03:35:13.977000Z</time>
      </trkpt>
      <trkpt lat="39.896159860963635" lon="116.34345303211646">
        <time>2026-07-08T03:35:13.977000Z</time>
      </trkpt>
      <trkpt lat="39.89633788939323" lon="116.34343205353258">
        <time>2026-07-08T03:35:13.977000Z</time>
      </trkpt>
      <trkpt lat="39.896522992304995" lon="116.34336816407423">
        <time>2026-07-08T03:35:13.977000Z</time>
      </trkpt>
      <trkpt lat="39.896708883014774" lon="116.34342601915685">
        <time>2026-07-08T03:35:13.977000Z</time>
      </trkpt>
      <trkpt lat="39.896700036482656" lon="116.34333820449935">
        <time>2026-07-08T03:35:13.977000Z</time>
      </trkpt>
      <trkpt lat="39.89663542787142" lon="116.34311568020544">
        <time>2026-07-08T03:35:13.977000Z</time>
      </trkpt>
      <trkpt lat="39.896625433506216" lon="116.34295424154473">
        <time>2026-07-08T03:35:13.977000Z</time>
      </trkpt>
      <trkpt lat="39.89640802368524" lon="116.3426617293639">
        <time>2026-07-08T03:35:13.977000Z</time>
      </trkpt>
      <trkpt lat="39.89592381085524" lon="116.34348798876901">
        <time>2026-07-08T03:35:13.977000Z</time>
      </trkpt>
      <trkpt lat="39.89561585787427" lon="116.34346906746222">
        <time>2026-07-08T03:35:13.977000Z</time>
      </trkpt>
      <trkpt lat="39.895335856718425" lon="116.34347708614855">
        <time>2026-07-08T03:35:13.977000Z</time>
      </trkpt>
      <trkpt lat="39.89502688644427" lon="116.34346814405559">
        <time>2026-07-08T03:35:13.977000Z</time>
      </trkpt>
      <trkpt lat="39.89470887141922" lon="116.34348514872683">
        <time>2026-07-08T03:35:13.977000Z</time>
      </trkpt>
      <trkpt lat="39.89437982739151" lon="116.34351911925548">
        <time>2026-07-08T03:35:13.977000Z</time>
      </trkpt>
      <trkpt lat="39.89421580537057" lon="116.34353610446537">
        <time>2026-07-08T03:35:13.977000Z</time>
      </trkpt>
      <trkpt lat="39.89401486842493" lon="116.34350519468947">
        <time>2026-07-08T03:35:13.977000Z</time>
      </trkpt>
      <trkpt lat="39.893736809959805" lon="116.34354614415173">
        <time>2026-07-08T03:35:13.977000Z</time>
      </trkpt>
      <trkpt lat="39.89344479905763" lon="116.34356015182898">
        <time>2026-07-08T03:35:13.977000Z</time>
      </trkpt>
      <trkpt lat="39.89314878488884" lon="116.3435761558375">
        <time>2026-07-08T03:35:13.977000Z</time>
      </trkpt>
      <trkpt lat="39.89287272122588" lon="116.34362009884133">
        <time>2026-07-08T03:35:13.977000Z</time>
      </trkpt>
      <trkpt lat="39.89258370505164" lon="116.34363709989596">
        <time>2026-07-08T03:35:13.977000Z</time>
      </trkpt>
      <trkpt lat="39.892369749633566" lon="116.34361716872498">
        <time>2026-07-08T03:35:13.977000Z</time>
      </trkpt>
      <trkpt lat="39.892084684729085" lon="116.34366211081662">
        <time>2026-07-08T03:35:13.977000Z</time>
      </trkpt>
      <trkpt lat="39.89179966496251" lon="116.34368110720537">
        <time>2026-07-08T03:35:13.977000Z</time>
      </trkpt>
      <trkpt lat="39.89151164882691" lon="116.34369810815407">
        <time>2026-07-08T03:35:13.977000Z</time>
      </trkpt>
      <trkpt lat="39.89122370554562" lon="116.3436731967512">
        <time>2026-07-08T03:35:13.977000Z</time>
      </trkpt>
      <trkpt lat="39.89093075038212" lon="116.34365527137939">
        <time>2026-07-08T03:35:13.977000Z</time>
      </trkpt>
      <trkpt lat="39.89059778149112" lon="116.34364633228208">
        <time>2026-07-08T03:35:13.977000Z</time>
      </trkpt>
      <trkpt lat="39.89030779674091" lon="116.34364537104528">
        <time>2026-07-08T03:35:13.977000Z</time>
      </trkpt>
      <trkpt lat="39.88995481148233" lon="116.34364641359994">
        <time>2026-07-08T03:35:13.977000Z</time>
      </trkpt>
      <trkpt lat="39.88967181430263" lon="116.3436524368636">
        <time>2026-07-08T03:35:13.977000Z</time>
      </trkpt>
      <trkpt lat="39.889390846540024" lon="116.34364149536357">
        <time>2026-07-08T03:35:13.977000Z</time>
      </trkpt>
      <trkpt lat="39.889101858351985" lon="116.34364252982292">
        <time>2026-07-08T03:35:13.977000Z</time>
      </trkpt>
      <trkpt lat="39.88881886296156" lon="116.34364755517245">
        <time>2026-07-08T03:35:13.977000Z</time>
      </trkpt>
      <trkpt lat="39.88850488813182" lon="116.34364160740607">
        <time>2026-07-08T03:35:13.977000Z</time>
      </trkpt>
      <trkpt lat="39.88821589132788" lon="116.34364763142578">
        <time>2026-07-08T03:35:13.977000Z</time>
      </trkpt>
      <trkpt lat="39.88792694659445" lon="116.34362371807893">
        <time>2026-07-08T03:35:13.977000Z</time>
      </trkpt>
      <trkpt lat="39.8876449737907" lon="116.34361577044349">
        <time>2026-07-08T03:35:13.977000Z</time>
      </trkpt>
      <trkpt lat="39.88734099336993" lon="116.34361281514902">
        <time>2026-07-08T03:35:13.977000Z</time>
      </trkpt>
      <trkpt lat="39.88701098990759" lon="116.34362383390713">
        <time>2026-07-08T03:35:13.977000Z</time>
      </trkpt>
      <trkpt lat="39.886730020587684" lon="116.34361389032003">
        <time>2026-07-08T03:35:13.977000Z</time>
      </trkpt>
      <trkpt lat="39.886400069238285" lon="116.34359497172677">
        <time>2026-07-08T03:35:13.977000Z</time>
      </trkpt>
      <trkpt lat="39.886023948321935" lon="116.34367485224584">
        <time>2026-07-08T03:35:13.977000Z</time>
      </trkpt>
      <trkpt lat="39.8857509838815" lon="116.343661913897">
        <time>2026-07-08T03:35:13.977000Z</time>
      </trkpt>
      <trkpt lat="39.885522095446035" lon="116.34360406394524">
        <time>2026-07-08T03:35:13.977000Z</time>
      </trkpt>
      <trkpt lat="39.88520612790275" lon="116.3435941247845">
        <time>2026-07-08T03:35:13.977000Z</time>
      </trkpt>
      <trkpt lat="39.88489712186322" lon="116.3436061387915">
        <time>2026-07-08T03:35:13.977000Z</time>
      </trkpt>
      <trkpt lat="39.8845971206237" lon="116.3436151579276">
        <time>2026-07-08T03:35:13.977000Z</time>
      </trkpt>
      <trkpt lat="39.884295154212346" lon="116.34360421908113">
        <time>2026-07-08T03:35:13.977000Z</time>
      </trkpt>
      <trkpt lat="39.883985170853144" lon="116.34360326036307">
        <time>2026-07-08T03:35:13.977000Z</time>
      </trkpt>
      <trkpt lat="39.88368920246428" lon="116.34359331867077">
        <time>2026-07-08T03:35:13.977000Z</time>
      </trkpt>
      <trkpt lat="39.88335619943319" lon="116.34360433779806">
        <time>2026-07-08T03:35:13.977000Z</time>
      </trkpt>
      <trkpt lat="39.88304020255137" lon="116.34361136313075">
        <time>2026-07-08T03:35:13.977000Z</time>
      </trkpt>
      <trkpt lat="39.88270919600976" lon="116.34362437783257">
        <time>2026-07-08T03:35:13.977000Z</time>
      </trkpt>
      <trkpt lat="39.88243622659538" lon="116.34361443322601">
        <time>2026-07-08T03:35:13.977000Z</time>
      </trkpt>
      <trkpt lat="39.88210819913728" lon="116.34363942249603">
        <time>2026-07-08T03:35:13.977000Z</time>
      </trkpt>
      <trkpt lat="39.881783214940924" lon="116.34363946358243">
        <time>2026-07-08T03:35:13.977000Z</time>
      </trkpt>
      <trkpt lat="39.88149624974036" lon="116.34362752491667">
        <time>2026-07-08T03:35:13.977000Z</time>
      </trkpt>
      <trkpt lat="39.88116220010768" lon="116.34366548781792">
        <time>2026-07-08T03:35:13.977000Z</time>
      </trkpt>
      <trkpt lat="39.88089120120707" lon="116.34367250746787">
        <time>2026-07-08T03:35:13.977000Z</time>
      </trkpt>
      <trkpt lat="39.88060817516639" lon="116.34369549525056">
        <time>2026-07-08T03:35:13.977000Z</time>
      </trkpt>
      <trkpt lat="39.88033513479595" lon="116.34372646509321">
        <time>2026-07-08T03:35:13.977000Z</time>
      </trkpt>
      <trkpt lat="39.8800110900339" lon="116.3437614330624">
        <time>2026-07-08T03:35:13.977000Z</time>
      </trkpt>
      <trkpt lat="39.87973709657106" lon="116.3437654593594">
        <time>2026-07-08T03:35:13.977000Z</time>
      </trkpt>
      <trkpt lat="39.87973709657106" lon="116.3437654593594">
        <time>2026-07-08T03:35:13.977000Z</time>
      </trkpt>
      <trkpt lat="39.87955003127628" lon="116.34380839336515">
        <time>2026-07-08T03:35:13.977000Z</time>
      </trkpt>
      <trkpt lat="39.87926993771322" lon="116.34387029958923">
        <time>2026-07-08T03:35:13.977000Z</time>
      </trkpt>
      <trkpt lat="39.879070847157024" lon="116.34392820397977">
        <time>2026-07-08T03:35:13.977000Z</time>
      </trkpt>
      <trkpt lat="39.87899684216049" lon="116.34393320292673">
        <time>2026-07-08T03:35:13.977000Z</time>
      </trkpt>
      <trkpt lat="39.878874908748514" lon="116.34389829121257">
        <time>2026-07-08T03:35:13.977000Z</time>
      </trkpt>
      <trkpt lat="39.87878699445604" lon="116.34385140022161">
        <time>2026-07-08T03:35:13.977000Z</time>
      </trkpt>
      <trkpt lat="39.878453090646936" lon="116.34380553828761">
        <time>2026-07-08T03:35:13.977000Z</time>
      </trkpt>
      <trkpt lat="39.878165037379055" lon="116.34384449342919">
        <time>2026-07-08T03:35:13.977000Z</time>
      </trkpt>
      <trkpt lat="39.87788799746012" lon="116.34387546387211">
        <time>2026-07-08T03:35:13.977000Z</time>
      </trkpt>
      <trkpt lat="39.87760397869323" lon="116.34389446020492">
        <time>2026-07-08T03:35:13.977000Z</time>
      </trkpt>
      <trkpt lat="39.87731796351444" lon="116.34391146096154">
        <time>2026-07-08T03:35:13.977000Z</time>
      </trkpt>
      <trkpt lat="39.87699201265374" lon="116.34389254172733">
        <time>2026-07-08T03:35:13.977000Z</time>
      </trkpt>
      <trkpt lat="39.87669502056827" lon="116.34389657093917">
        <time>2026-07-08T03:35:13.977000Z</time>
      </trkpt>
      <trkpt lat="39.87641503630872" lon="116.34389560841271">
        <time>2026-07-08T03:35:13.977000Z</time>
      </trkpt>
      <trkpt lat="39.876258004372694" lon="116.34391858037284">
        <time>2026-07-08T03:35:13.977000Z</time>
      </trkpt>
      <trkpt lat="39.87616294339685" lon="116.34395651329164">
        <time>2026-07-08T03:35:13.977000Z</time>
      </trkpt>
      <trkpt lat="39.875908785387914" lon="116.3439698913677">
        <time>2026-07-08T03:35:13.977000Z</time>
      </trkpt>
      <trkpt lat="39.87555288238771" lon="116.34400948013581">
        <time>2026-07-08T03:35:14.077000Z</time>
      </trkpt>
      <trkpt lat="39.875395890289354" lon="116.34400949997989">
        <time>2026-07-08T03:35:14.077000Z</time>
      </trkpt>
      <trkpt lat="39.875266796550335" lon="116.34406739569309">
        <time>2026-07-08T03:35:14.077000Z</time>
      </trkpt>
      <trkpt lat="39.874934764924284" lon="116.34409537946489">
        <time>2026-07-08T03:35:14.077000Z</time>
      </trkpt>
      <trkpt lat="39.87464881046509" lon="116.34407745302036">
        <time>2026-07-08T03:35:14.077000Z</time>
      </trkpt>
      <trkpt lat="39.874298767723225" lon="116.34411242452884">
        <time>2026-07-08T03:35:14.077000Z</time>
      </trkpt>
      <trkpt lat="39.87402873306215" lon="116.34414040049013">
        <time>2026-07-08T03:35:14.077000Z</time>
      </trkpt>
      <trkpt lat="39.873743704375016" lon="116.34416538459305">
        <time>2026-07-08T03:35:14.077000Z</time>
      </trkpt>
      <trkpt lat="39.87343766298591" lon="116.3441983547563">
        <time>2026-07-08T03:35:14.077000Z</time>
      </trkpt>
      <trkpt lat="39.87311666725951" lon="116.34420538079732">
        <time>2026-07-08T03:35:14.077000Z</time>
      </trkpt>
      <trkpt lat="39.87280359353735" lon="116.34425731245314">
        <time>2026-07-08T03:35:14.077000Z</time>
      </trkpt>
      <trkpt lat="39.87250152794492" lon="116.34430425314319">
        <time>2026-07-08T03:35:14.077000Z</time>
      </trkpt>
      <trkpt lat="39.872230524583856" lon="116.34431426666002">
        <time>2026-07-08T03:35:14.077000Z</time>
      </trkpt>
      <trkpt lat="39.871955492157625" lon="116.34434124544478">
        <time>2026-07-08T03:35:14.077000Z</time>
      </trkpt>
      <trkpt lat="39.8718925108984" lon="116.34433227206252">
        <time>2026-07-08T03:35:14.077000Z</time>
      </trkpt>
      <trkpt lat="39.87176040226604" lon="116.34439914990732">
        <time>2026-07-08T03:35:14.077000Z</time>
      </trkpt>
      <trkpt lat="39.871432400190024" lon="116.34441016857679">
        <time>2026-07-08T03:35:14.077000Z</time>
      </trkpt>
      <trkpt lat="39.87107733241096" lon="116.34446010990716">
        <time>2026-07-08T03:35:14.077000Z</time>
      </trkpt>
      <trkpt lat="39.870805279345845" lon="116.34449906356257">
        <time>2026-07-08T03:35:14.077000Z</time>
      </trkpt>
      <trkpt lat="39.870523218248636" lon="116.34454300817197">
        <time>2026-07-08T03:35:14.077000Z</time>
      </trkpt>
      <trkpt lat="39.87024919632805" lon="116.34456399936923">
        <time>2026-07-08T03:35:14.077000Z</time>
      </trkpt>
      <trkpt lat="39.86992614089097" lon="116.34460595335564">
        <time>2026-07-08T03:35:14.077000Z</time>
      </trkpt>
      <trkpt lat="39.86959609446761" lon="116.3446429185956">
        <time>2026-07-08T03:35:14.077000Z</time>
      </trkpt>
      <trkpt lat="39.869262032856206" lon="116.34468886578217">
        <time>2026-07-08T03:35:14.077000Z</time>
      </trkpt>
      <trkpt lat="39.86892698681245" lon="116.34472583172">
        <time>2026-07-08T03:35:14.077000Z</time>
      </trkpt>
      <trkpt lat="39.86861291228137" lon="116.34477876201747">
        <time>2026-07-08T03:35:27.077000Z</time>
      </trkpt>
      <trkpt lat="39.868284835134084" lon="116.34483369002075">
        <time>2026-07-08T03:35:27.177000Z</time>
      </trkpt>
      <trkpt lat="39.86809574221415" lon="116.3448935902182">
        <time>2026-07-08T03:35:27.277000Z</time>
      </trkpt>
      <trkpt lat="39.86798257861951" lon="116.34499240058358">
        <time>2026-07-08T03:35:27.377000Z</time>
      </trkpt>
      <trkpt lat="39.867793970118996" lon="116.3453536805296">
        <time>2026-07-08T03:35:27.477000Z</time>
      </trkpt>
      <trkpt lat="39.867779800451785" lon="116.34545347733227">
        <time>2026-07-08T03:35:27.577000Z</time>
      </trkpt>
      <trkpt lat="39.86778867740193" lon="116.34552532875541">
        <time>2026-07-08T03:35:27.577000Z</time>
      </trkpt>
      <trkpt lat="39.86791020460362" lon="116.34521295524544">
        <time>2026-07-08T03:35:27.677000Z</time>
      </trkpt>
      <trkpt lat="39.86803551081616" lon="116.3450303156708">
        <time>2026-07-08T03:35:27.777000Z</time>
      </trkpt>
      <trkpt lat="39.86814366090764" lon="116.34493948937654">
        <time>2026-07-08T03:35:27.877000Z</time>
      </trkpt>
      <trkpt lat="39.868257723443655" lon="116.34489955737963">
        <time>2026-07-08T03:35:27.877000Z</time>
      </trkpt>
      <trkpt lat="39.868517732103854" lon="116.34488655131094">
        <time>2026-07-08T03:35:27.977000Z</time>
      </trkpt>
      <trkpt lat="39.86864579053034" lon="116.34484861346714">
        <time>2026-07-08T03:35:28.077000Z</time>
      </trkpt>
      <trkpt lat="39.868969376561246" lon="116.34479924213126">
        <time>2026-07-08T03:35:28.177000Z</time>
      </trkpt>
      <trkpt lat="39.86909487853749" lon="116.34478369078465">
        <time>2026-07-08T03:35:28.277000Z</time>
      </trkpt>
      <trkpt lat="39.868819906610305" lon="116.3447757420465">
        <time>2026-07-08T03:35:28.477000Z</time>
      </trkpt>
      <trkpt lat="39.86855189317433" lon="116.34479174290541">
        <time>2026-07-08T03:35:28.577000Z</time>
      </trkpt>
      <trkpt lat="39.86823781016998" lon="116.34484966296941">
        <time>2026-07-08T03:35:28.677000Z</time>
      </trkpt>
      <trkpt lat="39.86817878755379" lon="116.34486463950164">
        <time>2026-07-08T03:35:28.777000Z</time>
      </trkpt>
      <trkpt lat="39.868083689741894" lon="116.3449245278595">
        <time>2026-07-08T03:35:28.777000Z</time>
      </trkpt>
      <trkpt lat="39.86822877465121" lon="116.34487062081419">
        <time>2026-07-08T03:35:28.877000Z</time>
      </trkpt>
      <trkpt lat="39.86850774976146" lon="116.34487657318577">
        <time>2026-07-08T03:35:28.977000Z</time>
      </trkpt>
      <trkpt lat="39.868812828089574" lon="116.34482164803798">
        <time>2026-07-08T03:35:29.077000Z</time>
      </trkpt>
      <trkpt lat="39.868945764939745" lon="116.34478974431245">
        <time>2026-07-08T03:35:29.177000Z</time>
      </trkpt>
      <trkpt lat="39.869144930346266" lon="116.34477298676504">
        <time>2026-07-08T03:35:29.277000Z</time>
      </trkpt>
      <trkpt lat="39.8694635833238" lon="116.34469862806823">
        <time>2026-07-08T03:35:29.377000Z</time>
      </trkpt>
      <trkpt lat="39.86979501543301" lon="116.3446828108118">
        <time>2026-07-08T03:35:29.577000Z</time>
      </trkpt>
      <trkpt lat="39.87007505413648" lon="116.34465183946212">
        <time>2026-07-08T03:35:29.677000Z</time>
      </trkpt>
      <trkpt lat="39.87039310637589" lon="116.34461188193202">
        <time>2026-07-08T03:35:29.877000Z</time>
      </trkpt>
      <trkpt lat="39.870120127391274" lon="116.3446079247031">
        <time>2026-07-08T03:35:29.977000Z</time>
      </trkpt>
      <trkpt lat="39.86978508121018" lon="116.3446448905767">
        <time>2026-07-08T03:35:30.177000Z</time>
      </trkpt>
      <trkpt lat="39.86947303388929" lon="116.34468185357287">
        <time>2026-07-08T03:35:30.277000Z</time>
      </trkpt>
      <trkpt lat="39.86942102114317" lon="116.34469084155684">
        <time>2026-07-08T03:35:30.377000Z</time>
      </trkpt>
      <trkpt lat="39.86959697422124" lon="116.34471277388336">
        <time>2026-07-08T03:35:30.377000Z</time>
      </trkpt>
      <trkpt lat="39.86985417358058" lon="116.34467776612428">
        <time>2026-07-08T03:35:30.577000Z</time>
      </trkpt>
      <trkpt lat="39.870120096464774" lon="116.34462588750017">
        <time>2026-07-08T04:03:07.077000Z</time>
      </trkpt>
      <trkpt lat="39.87042213408728" lon="116.34459491340799">
        <time>2026-07-08T04:03:22.077000Z</time>
      </trkpt>
      <trkpt lat="39.870740198433964" lon="116.34454797040453">
        <time>2026-07-08T04:03:37.077000Z</time>
      </trkpt>
      <trkpt lat="39.87104223787323" lon="116.34451599843307">
        <time>2026-07-08T04:03:52.177000Z</time>
      </trkpt>
      <trkpt lat="39.87134826854868" lon="116.34448901562965">
        <time>2026-07-08T04:04:07.177000Z</time>
      </trkpt>
      <trkpt lat="39.871654328521004" lon="116.34444506803761">
        <time>2026-07-08T04:04:22.177000Z</time>
      </trkpt>
      <trkpt lat="39.871792942353" lon="116.34444551070159">
        <time>2026-07-08T04:04:28.277000Z</time>
      </trkpt>
      <trkpt lat="39.8720753533848" lon="116.34441807074022">
        <time>2026-07-08T04:04:40.377000Z</time>
      </trkpt>
      <trkpt lat="39.872375167950636" lon="116.34436301602004">
        <time>2026-07-08T04:04:55.677000Z</time>
      </trkpt>
      <trkpt lat="39.87263272143321" lon="116.34435153061526">
        <time>2026-07-08T04:05:07.877000Z</time>
      </trkpt>
      <trkpt lat="39.872964805673405" lon="116.34430915397256">
        <time>2026-07-08T04:05:22.977000Z</time>
      </trkpt>
      <trkpt lat="39.87321372894638" lon="116.344268980248">
        <time>2026-07-08T04:05:35.077000Z</time>
      </trkpt>
      <trkpt lat="39.87352126037186" lon="116.34424763558312">
        <time>2026-07-08T04:05:50.077000Z</time>
      </trkpt>
      <trkpt lat="39.87379726884444" lon="116.34422368486585">
        <time>2026-07-08T04:06:02.077000Z</time>
      </trkpt>
      <trkpt lat="39.87411409123454" lon="116.34420270211672">
        <time>2026-07-08T04:06:17.077000Z</time>
      </trkpt>
      <trkpt lat="39.874424642225215" lon="116.34418126529845">
        <time>2026-07-08T04:06:32.077000Z</time>
      </trkpt>
      <trkpt lat="39.874621132693754" lon="116.34417488880266">
        <time>2026-07-08T04:06:41.177000Z</time>
      </trkpt>
      <trkpt lat="39.87474435179765" lon="116.3441475611466">
        <time>2026-07-08T04:06:47.177000Z</time>
      </trkpt>
      <trkpt lat="39.87507242423433" lon="116.34414072554648">
        <time>2026-07-08T04:07:02.177000Z</time>
      </trkpt>
      <trkpt lat="39.875408703033955" lon="116.34411727384231">
        <time>2026-07-08T04:07:17.177000Z</time>
      </trkpt>
      <trkpt lat="39.875713780966215" lon="116.344063347508">
        <time>2026-07-08T04:07:32.277000Z</time>
      </trkpt>
      <trkpt lat="39.87603979051353" lon="116.34404833748424">
        <time>2026-07-08T04:07:47.377000Z</time>
      </trkpt>
      <trkpt lat="39.87634187389961" lon="116.34399141784759">
        <time>2026-07-08T04:08:05.777000Z</time>
      </trkpt>
      <trkpt lat="39.8765217966095" lon="116.34398502901982">
        <time>2026-07-08T04:08:14.977000Z</time>
      </trkpt>
      <trkpt lat="39.87662680653683" lon="116.34395739916368">
        <time>2026-07-08T04:08:18.077000Z</time>
      </trkpt>
      <trkpt lat="39.87686386334999" lon="116.34398237058878">
        <time>2026-07-08T04:08:27.077000Z</time>
      </trkpt>
      <trkpt lat="39.87704390451642" lon="116.3439534081761">
        <time>2026-07-08T04:08:36.077000Z</time>
      </trkpt>
      <trkpt lat="39.87717640712377" lon="116.34395035963925">
        <time>2026-07-08T04:08:42.077000Z</time>
      </trkpt>
      <trkpt lat="39.87749091375219" lon="116.34395776137895">
        <time>2026-07-08T04:08:57.077000Z</time>
      </trkpt>
      <trkpt lat="39.877809833508366" lon="116.34397227181486">
        <time>2026-07-08T04:09:12.077000Z</time>
      </trkpt>
      <trkpt lat="39.8781268904151" lon="116.34393031914797">
        <time>2026-07-08T04:09:27.077000Z</time>
      </trkpt>
      <trkpt lat="39.878378675674966" lon="116.34389950279704">
        <time>2026-07-08T04:09:39.077000Z</time>
      </trkpt>
      <trkpt lat="39.87850419432921" lon="116.34390928149449">
        <time>2026-07-08T04:09:45.077000Z</time>
      </trkpt>
      <trkpt lat="39.87877482283392" lon="116.34388160475287">
        <time>2026-07-08T04:09:57.077000Z</time>
      </trkpt>
      <trkpt lat="39.87908798131791" lon="116.34385036425546">
        <time>2026-07-08T04:10:12.077000Z</time>
      </trkpt>
      <trkpt lat="39.87929500920146" lon="116.34382838392325">
        <time>2026-07-08T04:10:21.077000Z</time>
      </trkpt>
      <trkpt lat="39.879363461953886" lon="116.34380408348082">
        <time>2026-07-08T04:10:24.077000Z</time>
      </trkpt>
      <trkpt lat="39.87967006348073" lon="116.34378642404982">
        <time>2026-07-08T04:10:39.077000Z</time>
      </trkpt>
      <trkpt lat="39.87999609077074" lon="116.3437614349586">
        <time>2026-07-08T04:10:54.077000Z</time>
      </trkpt>
      <trkpt lat="39.88032811433791" lon="116.34373844095053">
        <time>2026-07-08T04:11:09.177000Z</time>
      </trkpt>
      <trkpt lat="39.88059213260346" lon="116.3437204451197">
        <time>2026-07-08T04:11:21.177000Z</time>
      </trkpt>
      <trkpt lat="39.8808691069132" lon="116.34372739550183">
        <time>2026-07-08T04:11:33.277000Z</time>
      </trkpt>
      <trkpt lat="39.881202127051445" lon="116.34370639721031">
        <time>2026-07-08T04:11:48.477000Z</time>
      </trkpt>
      <trkpt lat="39.88151705274508" lon="116.34374028646947">
        <time>2026-07-08T04:12:03.677000Z</time>
      </trkpt>
      <trkpt lat="39.881845085312854" lon="116.34371230340567">
        <time>2026-07-08T04:12:18.977000Z</time>
      </trkpt>
      <trkpt lat="39.882186110352826" lon="116.34368831036787">
        <time>2026-07-08T04:12:34.077000Z</time>
      </trkpt>
      <trkpt lat="39.88246763029496" lon="116.3436867154761">
        <time>2026-07-08T04:12:46.077000Z</time>
      </trkpt>
      <trkpt lat="39.882803668748224" lon="116.34366886789712">
        <time>2026-07-08T04:13:01.077000Z</time>
      </trkpt>
      <trkpt lat="39.88313808330846" lon="116.34367721296506">
        <time>2026-07-08T04:13:16.077000Z</time>
      </trkpt>
      <trkpt lat="39.883462048586004" lon="116.34368814904808">
        <time>2026-07-08T04:13:31.077000Z</time>
      </trkpt>
      <trkpt lat="39.88378706934012" lon="116.34366715178204">
        <time>2026-07-08T04:13:46.077000Z</time>
      </trkpt>
      <trkpt lat="39.88391107724609" lon="116.3436591528018">
        <time>2026-07-08T04:13:52.077000Z</time>
      </trkpt>
      <trkpt lat="39.88422098949364" lon="116.34370102596156">
        <time>2026-07-08T04:14:07.177000Z</time>
      </trkpt>
      <trkpt lat="39.884509017282205" lon="116.34367703962764">
        <time>2026-07-08T04:14:19.177000Z</time>
      </trkpt>
      <trkpt lat="39.884758041765565" lon="116.34365605197436">
        <time>2026-07-08T04:14:31.177000Z</time>
      </trkpt>
      <trkpt lat="39.88503132079072" lon="116.34368126454739">
        <time>2026-07-08T04:14:43.177000Z</time>
      </trkpt>
      <trkpt lat="39.885310982340116" lon="116.34367494239868">
        <time>2026-07-08T04:14:55.177000Z</time>
      </trkpt>
      <trkpt lat="39.88563699625852" lon="116.34365793666039">
        <time>2026-07-08T04:15:10.277000Z</time>
      </trkpt>
      <trkpt lat="39.885827236090975" lon="116.34364436884738">
        <time>2026-07-08T04:15:19.377000Z</time>
      </trkpt>
      <trkpt lat="39.885962970307105" lon="116.34366388291681">
        <time>2026-07-08T04:15:25.377000Z</time>
      </trkpt>
      <trkpt lat="39.88625498416192" lon="116.34364787939316">
        <time>2026-07-08T04:15:40.577000Z</time>
      </trkpt>
      <trkpt lat="39.886481665914864" lon="116.34364611243102">
        <time>2026-07-08T04:15:49.777000Z</time>
      </trkpt>
      <trkpt lat="39.88655594556731" lon="116.34366181210967">
        <time>2026-07-08T04:15:52.877000Z</time>
      </trkpt>
      <trkpt lat="39.88668197948521" lon="116.3436388441898">
        <time>2026-07-08T04:15:58.877000Z</time>
      </trkpt>
      <trkpt lat="39.88702396673439" lon="116.34363680512044">
        <time>2026-07-08T04:16:14.077000Z</time>
      </trkpt>
      <trkpt lat="39.887359905719165" lon="116.34366270835794">
        <time>2026-07-08T04:16:29.177000Z</time>
      </trkpt>
      <trkpt lat="39.887662893129445" lon="116.34366167213041">
        <time>2026-07-08T04:16:44.277000Z</time>
      </trkpt>
      <trkpt lat="39.88779292168625" lon="116.34364169744157">
        <time>2026-07-08T04:16:50.277000Z</time>
      </trkpt>
      <trkpt lat="39.888107865192374" lon="116.34366560750955">
        <time>2026-07-08T04:17:05.377000Z</time>
      </trkpt>
      <trkpt lat="39.88826184232571" lon="116.3436745692512">
        <time>2026-07-08T04:17:14.477000Z</time>
      </trkpt>
      <trkpt lat="39.88837593889885" lon="116.34370847256642">
        <time>2026-07-08T04:17:20.677000Z</time>
      </trkpt>
      <trkpt lat="39.88846481369149" lon="116.34368552062418">
        <time>2026-07-08T04:17:23.677000Z</time>
      </trkpt>
      <trkpt lat="39.888560746754194" lon="116.34372143337158">
        <time>2026-07-08T04:17:26.777000Z</time>
      </trkpt>
      <trkpt lat="39.88883675978827" lon="116.34370642976249">
        <time>2026-07-08T04:17:38.877000Z</time>
      </trkpt>
      <trkpt lat="39.88910977645259" lon="116.34368943071071">
        <time>2026-07-08T04:17:50.977000Z</time>
      </trkpt>
      <trkpt lat="39.88944321500753" lon="116.34368813226918">
        <time>2026-07-08T04:18:05.977000Z</time>
      </trkpt>
      <trkpt lat="39.88976270945765" lon="116.34371030431234">
        <time>2026-07-08T04:18:21.077000Z</time>
      </trkpt>
      <trkpt lat="39.89009166981484" lon="116.34372423349775">
        <time>2026-07-08T04:18:36.077000Z</time>
      </trkpt>
      <trkpt lat="39.890400669269255" lon="116.34371621110832">
        <time>2026-07-08T04:18:51.077000Z</time>
      </trkpt>
      <trkpt lat="39.89071361655243" lon="116.34373812563031">
        <time>2026-07-08T04:19:06.077000Z</time>
      </trkpt>
      <trkpt lat="39.89084255009523" lon="116.3437158203072">
        <time>2026-07-08T04:19:12.177000Z</time>
      </trkpt>
      <trkpt lat="39.89115440060487" lon="116.34371361080525">
        <time>2026-07-08T04:19:27.177000Z</time>
      </trkpt>
      <trkpt lat="39.891474555197895" lon="116.34375299809847">
        <time>2026-07-08T04:19:42.277000Z</time>
      </trkpt>
      <trkpt lat="39.891807541499766" lon="116.34375195806706">
        <time>2026-07-08T04:19:57.577000Z</time>
      </trkpt>
      <trkpt lat="39.892125592656086" lon="116.34371399711326">
        <time>2026-07-08T04:20:12.977000Z</time>
      </trkpt>
      <trkpt lat="39.89240020539384" lon="116.34370156946103">
        <time>2026-07-08T04:20:25.077000Z</time>
      </trkpt>
      <trkpt lat="39.892472348207164" lon="116.34370834558045">
        <time>2026-07-08T04:20:28.077000Z</time>
      </trkpt>
      <trkpt lat="39.892791261160305" lon="116.34369466669308">
        <time>2026-07-08T04:20:43.077000Z</time>
      </trkpt>
      <trkpt lat="39.893114654560875" lon="116.34365200141788">
        <time>2026-07-08T04:20:58.077000Z</time>
      </trkpt>
      <trkpt lat="39.89343365897498" lon="116.34364098403519">
        <time>2026-07-08T04:21:13.077000Z</time>
      </trkpt>
      <trkpt lat="39.89370606988877" lon="116.34361733346373">
        <time>2026-07-08T04:21:25.077000Z</time>
      </trkpt>
      <trkpt lat="39.89397603997617" lon="116.34360148113095">
        <time>2026-07-08T04:21:37.177000Z</time>
      </trkpt>
      <trkpt lat="39.89429236229829" lon="116.34359576979551">
        <time>2026-07-08T04:21:52.177000Z</time>
      </trkpt>
      <trkpt lat="39.89447351189266" lon="116.34357152980597">
        <time>2026-07-08T04:22:01.177000Z</time>
      </trkpt>
      <trkpt lat="39.894789751338166" lon="116.34355199842385">
        <time>2026-07-08T04:22:16.177000Z</time>
      </trkpt>
      <trkpt lat="39.895090715029454" lon="116.34356493318562">
        <time>2026-07-08T04:22:31.277000Z</time>
      </trkpt>
      <trkpt lat="39.89537078215422" lon="116.34351899390592">
        <time>2026-07-08T04:22:43.577000Z</time>
      </trkpt>
      <trkpt lat="39.89570002517498" lon="116.34351720777458">
        <time>2026-07-08T04:22:58.777000Z</time>
      </trkpt>
      <trkpt lat="39.895900834489765" lon="116.34347501886388">
        <time>2026-07-08T04:23:08.077000Z</time>
      </trkpt>
      <trkpt lat="39.89560488444462" lon="116.34345410022749">
        <time>2026-07-08T04:23:20.077000Z</time>
      </trkpt>
      <trkpt lat="39.89545686511051" lon="116.34346908757415">
        <time>2026-07-08T04:23:26.077000Z</time>
      </trkpt>
    </trkseg>
  </trk>
</gpx>