<?xml version="1.0" encoding="UTF-8"?>
<gpx xmlns="http://www.topografix.com/GPX/1/1" xmlns:gpxtpx="http://www.garmin.com/xmlschemas/TrackPointExtension/v1" xmlns:xsi="http://www.w3.org/2001/XMLSchema-instance" xsi:schemaLocation="http://www.topografix.com/GPX/1/1 http://www.topografix.com/GPX/1/1/gpx.xsd" version="1.1" creator="gpx.py -- https://github.com/tkrajina/gpxpy">
  <trk>
    <name>gpx from keep</name>
    <type>Run</type>
    <trkseg>
      <trkpt lat="39.89032120570307" lon="116.34113867592848">
        <time>2026-07-20T22:40:16.288000Z</time>
      </trkpt>
      <trkpt lat="39.890324438211074" lon="116.34100795549396">
        <time>2026-07-20T22:40:16.288000Z</time>
      </trkpt>
      <trkpt lat="39.89034560610601" lon="116.34091315604442">
        <time>2026-07-20T22:40:16.288000Z</time>
      </trkpt>
      <trkpt lat="39.890292969882466" lon="116.34071059749236">
        <time>2026-07-20T22:40:16.288000Z</time>
      </trkpt>
      <trkpt lat="39.89029231042822" lon="116.34052000732768">
        <time>2026-07-20T22:40:16.288000Z</time>
      </trkpt>
      <trkpt lat="39.890323398206164" lon="116.34047011076859">
        <time>2026-07-20T22:40:16.288000Z</time>
      </trkpt>
      <trkpt lat="39.89037537258" lon="116.34048307628028">
        <time>2026-07-20T22:40:16.288000Z</time>
      </trkpt>
      <trkpt lat="39.89042629882844" lon="116.34052298395441">
        <time>2026-07-20T22:40:16.288000Z</time>
      </trkpt>
      <trkpt lat="39.89069025085318" lon="116.34054290766288">
        <time>2026-07-20T22:40:16.288000Z</time>
      </trkpt>
      <trkpt lat="39.89071914606885" lon="116.3406007795392">
        <time>2026-07-20T22:40:16.288000Z</time>
      </trkpt>
      <trkpt lat="39.89069085160717" lon="116.34076642719158">
        <time>2026-07-20T22:40:16.288000Z</time>
      </trkpt>
      <trkpt lat="39.89069911000849" lon="116.34118253419513">
        <time>2026-07-20T22:40:16.288000Z</time>
      </trkpt>
      <trkpt lat="39.89069943682085" lon="116.34156172406212">
        <time>2026-07-20T22:40:16.288000Z</time>
      </trkpt>
      <trkpt lat="39.8907287909369" lon="116.34192594472971">
        <time>2026-07-20T22:40:16.288000Z</time>
      </trkpt>
      <trkpt lat="39.890758479514254" lon="116.34210156786513">
        <time>2026-07-20T22:40:16.288000Z</time>
      </trkpt>
      <trkpt lat="39.89082941637539" lon="116.34213548688565">
        <time>2026-07-20T22:40:16.288000Z</time>
      </trkpt>
      <trkpt lat="39.89090639519889" lon="116.34214545597777">
        <time>2026-07-20T22:40:16.288000Z</time>
      </trkpt>
      <trkpt lat="39.89118143696956" lon="116.34211448685548">
        <time>2026-07-20T22:40:16.288000Z</time>
      </trkpt>
      <trkpt lat="39.89145146140058" lon="116.34209349720015">
        <time>2026-07-20T22:40:16.288000Z</time>
      </trkpt>
      <trkpt lat="39.89170239872486" lon="116.34212240404625">
        <time>2026-07-20T22:40:16.288000Z</time>
      </trkpt>
      <trkpt lat="39.89198341563481" lon="116.34210540452426">
        <time>2026-07-20T22:40:16.288000Z</time>
      </trkpt>
      <trkpt lat="39.89226041866914" lon="116.342096388567">
        <time>2026-07-20T22:40:16.288000Z</time>
      </trkpt>
      <trkpt lat="39.89254437739445" lon="116.34211231877202">
        <time>2026-07-20T22:40:16.288000Z</time>
      </trkpt>
      <trkpt lat="39.892621386162226" lon="116.34210532386281">
        <time>2026-07-20T22:40:16.288000Z</time>
      </trkpt>
      <trkpt lat="39.8927455089714" lon="116.34203246285405">
        <time>2026-07-20T22:40:16.288000Z</time>
      </trkpt>
      <trkpt lat="39.89282264813247" lon="116.34195162485513">
        <time>2026-07-20T22:40:16.288000Z</time>
      </trkpt>
      <trkpt lat="39.892885657567476" lon="116.34194463173743">
        <time>2026-07-20T22:40:16.288000Z</time>
      </trkpt>
      <trkpt lat="39.89322065272224" lon="116.34193860211111">
        <time>2026-07-20T22:40:16.288000Z</time>
      </trkpt>
      <trkpt lat="39.89350162570446" lon="116.34194654961533">
        <time>2026-07-20T22:40:16.288000Z</time>
      </trkpt>
      <trkpt lat="39.8935445638112" lon="116.3419804720731">
        <time>2026-07-20T22:40:16.288000Z</time>
      </trkpt>
      <trkpt lat="39.893257566429405" lon="116.34198649563649">
        <time>2026-07-20T22:40:16.288000Z</time>
      </trkpt>
      <trkpt lat="39.89307158908313" lon="116.34197853611549">
        <time>2026-07-20T22:40:16.288000Z</time>
      </trkpt>
      <trkpt lat="39.893022401834806" lon="116.34205814780725">
        <time>2026-07-20T22:40:16.288000Z</time>
      </trkpt>
      <trkpt lat="39.89300143052458" lon="116.34234456896085">
        <time>2026-07-20T22:40:16.288000Z</time>
      </trkpt>
      <trkpt lat="39.89304681209491" lon="116.3425206249541">
        <time>2026-07-20T22:40:16.288000Z</time>
      </trkpt>
      <trkpt lat="39.89323307677353" lon="116.34273359598257">
        <time>2026-07-20T22:40:16.288000Z</time>
      </trkpt>
      <trkpt lat="39.893415137146505" lon="116.34279476431374">
        <time>2026-07-20T22:40:16.288000Z</time>
      </trkpt>
      <trkpt lat="39.893278201171064" lon="116.3427618511074">
        <time>2026-07-20T22:40:16.288000Z</time>
      </trkpt>
      <trkpt lat="39.89297821672579" lon="116.3427608911491">
        <time>2026-07-20T22:40:16.288000Z</time>
      </trkpt>
      <trkpt lat="39.89291215329337" lon="116.34279881950181">
        <time>2026-07-20T22:40:16.288000Z</time>
      </trkpt>
      <trkpt lat="39.892816923456245" lon="116.34293254965972">
        <time>2026-07-20T22:40:16.288000Z</time>
      </trkpt>
      <trkpt lat="39.89279476383632" lon="116.3430243591338">
        <time>2026-07-20T22:40:16.288000Z</time>
      </trkpt>
      <trkpt lat="39.89283111925265" lon="116.34339258081057">
        <time>2026-07-20T22:40:16.288000Z</time>
      </trkpt>
      <trkpt lat="39.89283149766537" lon="116.3437498327217">
        <time>2026-07-20T22:40:16.288000Z</time>
      </trkpt>
      <trkpt lat="39.89276629453933" lon="116.343868592898">
        <time>2026-07-20T22:40:16.288000Z</time>
      </trkpt>
      <trkpt lat="39.892463346604465" lon="116.34384667705834">
        <time>2026-07-20T22:40:16.288000Z</time>
      </trkpt>
      <trkpt lat="39.89218131461776" lon="116.34387265855958">
        <time>2026-07-20T22:40:16.288000Z</time>
      </trkpt>
      <trkpt lat="39.89188131291554" lon="116.34388167775768">
        <time>2026-07-20T22:40:16.288000Z</time>
      </trkpt>
      <trkpt lat="39.89159528981796" lon="116.34390267019546">
        <time>2026-07-20T22:40:16.288000Z</time>
      </trkpt>
      <trkpt lat="39.891446274231214" lon="116.34391566197111">
        <time>2026-07-20T22:40:16.288000Z</time>
      </trkpt>
      <trkpt lat="39.891378220295195" lon="116.34394860187122">
        <time>2026-07-20T22:40:16.288000Z</time>
      </trkpt>
      <trkpt lat="39.891378220295195" lon="116.34394860187122">
        <time>2026-07-20T22:40:16.288000Z</time>
      </trkpt>
      <trkpt lat="39.891548699139285" lon="116.34366816608346">
        <time>2026-07-20T22:40:16.288000Z</time>
      </trkpt>
      <trkpt lat="39.89121069227434" lon="116.34368118169873">
        <time>2026-07-20T22:40:16.288000Z</time>
      </trkpt>
      <trkpt lat="39.89091575628387" lon="116.34365227953909">
        <time>2026-07-20T22:40:16.288000Z</time>
      </trkpt>
      <trkpt lat="39.890626748915444" lon="116.34366429103936">
        <time>2026-07-20T22:40:16.288000Z</time>
      </trkpt>
      <trkpt lat="39.89032979051035" lon="116.34364836200001">
        <time>2026-07-20T22:40:16.288000Z</time>
      </trkpt>
      <trkpt lat="39.89005679630958" lon="116.34365238817485">
        <time>2026-07-20T22:40:16.288000Z</time>
      </trkpt>
      <trkpt lat="39.88972283447085" lon="116.34363945755369">
        <time>2026-07-20T22:40:16.288000Z</time>
      </trkpt>
      <trkpt lat="39.889429858593644" lon="116.34363350713426">
        <time>2026-07-20T22:40:16.288000Z</time>
      </trkpt>
      <trkpt lat="39.88914288766084" lon="116.34362456222041">
        <time>2026-07-20T22:40:16.288000Z</time>
      </trkpt>
      <trkpt lat="39.888856897612726" lon="116.34362659421143">
        <time>2026-07-20T22:40:16.288000Z</time>
      </trkpt>
      <trkpt lat="39.888567907724486" lon="116.34362862658148">
        <time>2026-07-20T22:40:16.288000Z</time>
      </trkpt>
      <trkpt lat="39.888258925738256" lon="116.34362666983222">
        <time>2026-07-20T22:40:16.288000Z</time>
      </trkpt>
      <trkpt lat="39.88804685939552" lon="116.34367060478743">
        <time>2026-07-20T22:40:16.288000Z</time>
      </trkpt>
      <trkpt lat="39.88788424839173" lon="116.34363125532788">
        <time>2026-07-20T22:40:16.288000Z</time>
      </trkpt>
      <trkpt lat="39.887636017606376" lon="116.3435908237936">
        <time>2026-07-20T22:40:16.288000Z</time>
      </trkpt>
      <trkpt lat="39.88733598492942" lon="116.34361780534012">
        <time>2026-07-20T22:40:16.288000Z</time>
      </trkpt>
      <trkpt lat="39.88705199664127" lon="116.34361883916327">
        <time>2026-07-20T22:40:16.288000Z</time>
      </trkpt>
      <trkpt lat="39.88677800269166" lon="116.34362286545728">
        <time>2026-07-20T22:40:16.288000Z</time>
      </trkpt>
      <trkpt lat="39.88648105323869" lon="116.34360194686505">
        <time>2026-07-20T22:40:16.288000Z</time>
      </trkpt>
      <trkpt lat="39.88615601142732" lon="116.3436349190507">
        <time>2026-07-20T22:40:16.288000Z</time>
      </trkpt>
      <trkpt lat="39.8858180778525" lon="116.3436060223424">
        <time>2026-07-20T22:40:16.288000Z</time>
      </trkpt>
      <trkpt lat="39.885539115462905" lon="116.34359208685812">
        <time>2026-07-20T22:40:16.288000Z</time>
      </trkpt>
      <trkpt lat="39.8853131175799" lon="116.34359710499007">
        <time>2026-07-20T22:40:16.288000Z</time>
      </trkpt>
      <trkpt lat="39.88501507456413" lon="116.34363007375764">
        <time>2026-07-20T22:40:16.288000Z</time>
      </trkpt>
      <trkpt lat="39.884728112606346" lon="116.34361613927659">
        <time>2026-07-20T22:40:16.288000Z</time>
      </trkpt>
      <trkpt lat="39.88443208516173" lon="116.34364012659178">
        <time>2026-07-20T22:40:16.288000Z</time>
      </trkpt>
      <trkpt lat="39.88429108325875" lon="116.34364513398094">
        <time>2026-07-20T22:40:16.288000Z</time>
      </trkpt>
      <trkpt lat="39.88395716872937" lon="116.34360525972639">
        <time>2026-07-20T22:40:16.288000Z</time>
      </trkpt>
      <trkpt lat="39.8836571935921" lon="116.34359931018541">
        <time>2026-07-20T22:40:16.288000Z</time>
      </trkpt>
      <trkpt lat="39.88336217831747" lon="116.34361631198091">
        <time>2026-07-20T22:40:16.288000Z</time>
      </trkpt>
      <trkpt lat="39.88306520654918" lon="116.34360836623479">
        <time>2026-07-20T22:40:16.288000Z</time>
      </trkpt>
      <trkpt lat="39.88277421021556" lon="116.34361439049516">
        <time>2026-07-20T22:40:16.288000Z</time>
      </trkpt>
      <trkpt lat="39.88249721322482" lon="116.343620412986">
        <time>2026-07-20T22:40:16.288000Z</time>
      </trkpt>
      <trkpt lat="39.88220922025855" lon="116.34362444104363">
        <time>2026-07-20T22:40:16.288000Z</time>
      </trkpt>
      <trkpt lat="39.88188524815258" lon="116.34361749661933">
        <time>2026-07-20T22:40:16.288000Z</time>
      </trkpt>
      <trkpt lat="39.88165829038655" lon="116.34361193247241">
        <time>2026-07-20T22:40:16.288000Z</time>
      </trkpt>
      <trkpt lat="39.88138322054864" lon="116.34364749744968">
        <time>2026-07-20T22:40:16.288000Z</time>
      </trkpt>
      <trkpt lat="39.88108221268761" lon="116.34366050836655">
        <time>2026-07-20T22:40:16.288000Z</time>
      </trkpt>
      <trkpt lat="39.88080218995025" lon="116.34368149993777">
        <time>2026-07-20T22:40:16.288000Z</time>
      </trkpt>
      <trkpt lat="39.8804691403625" lon="116.34371946275455">
        <time>2026-07-20T22:40:16.288000Z</time>
      </trkpt>
      <trkpt lat="39.88013615149376" lon="116.34372249859254">
        <time>2026-07-20T22:40:16.288000Z</time>
      </trkpt>
      <trkpt lat="39.879850148208384" lon="116.34373251388905">
        <time>2026-07-20T22:40:16.288000Z</time>
      </trkpt>
      <trkpt lat="39.87956211211528" lon="116.34376148982119">
        <time>2026-07-20T22:40:16.288000Z</time>
      </trkpt>
      <trkpt lat="39.87927806373401" lon="116.34379745067463">
        <time>2026-07-20T22:40:16.288000Z</time>
      </trkpt>
      <trkpt lat="39.8789831129424" lon="116.34377752965455">
        <time>2026-07-20T22:40:16.288000Z</time>
      </trkpt>
      <trkpt lat="39.87867907426382" lon="116.34380850346766">
        <time>2026-07-20T22:40:16.388000Z</time>
      </trkpt>
      <trkpt lat="39.8783500351331" lon="116.34384047837739">
        <time>2026-07-20T22:40:16.388000Z</time>
      </trkpt>
      <trkpt lat="39.878067988522446" lon="116.3438754411192">
        <time>2026-07-20T22:40:16.388000Z</time>
      </trkpt>
      <trkpt lat="39.877780975083205" lon="116.34389144407815">
        <time>2026-07-20T22:40:16.388000Z</time>
      </trkpt>
      <trkpt lat="39.87750293353703" lon="116.34392341259608">
        <time>2026-07-20T22:40:16.388000Z</time>
      </trkpt>
      <trkpt lat="39.877222928454955" lon="116.34393442509253">
        <time>2026-07-20T22:40:16.388000Z</time>
      </trkpt>
      <trkpt lat="39.87716399714922" lon="116.3438965116576">
        <time>2026-07-20T22:40:16.388000Z</time>
      </trkpt>
      <trkpt lat="39.87682294322859" lon="116.34393746940916">
        <time>2026-07-20T22:40:16.388000Z</time>
      </trkpt>
      <trkpt lat="39.87654892925149" lon="116.3439534707446">
        <time>2026-07-20T22:40:16.388000Z</time>
      </trkpt>
      <trkpt lat="39.876265924397316" lon="116.34396448362615">
        <time>2026-07-20T22:40:16.388000Z</time>
      </trkpt>
      <trkpt lat="39.87616688439901" lon="116.34399044204763">
        <time>2026-07-20T22:40:16.388000Z</time>
      </trkpt>
      <trkpt lat="39.876084772704246" lon="116.34405731308622">
        <time>2026-07-20T22:40:16.388000Z</time>
      </trkpt>
      <trkpt lat="39.87600806196577" lon="116.34402113122249">
        <time>2026-07-20T22:40:16.388000Z</time>
      </trkpt>
      <trkpt lat="39.875688868633695" lon="116.34401345462697">
        <time>2026-07-20T22:40:16.388000Z</time>
      </trkpt>
      <trkpt lat="39.87539180234868" lon="116.34406039444404">
        <time>2026-07-20T22:40:16.388000Z</time>
      </trkpt>
      <trkpt lat="39.875321757501254" lon="116.34408834509598">
        <time>2026-07-20T22:40:16.388000Z</time>
      </trkpt>
      <trkpt lat="39.87504174916169" lon="116.3441013534731">
        <time>2026-07-20T22:40:16.388000Z</time>
      </trkpt>
      <trkpt lat="39.874761737392845" lon="116.34411635769844">
        <time>2026-07-20T22:40:16.388000Z</time>
      </trkpt>
      <trkpt lat="39.87443673483353" lon="116.34412737592498">
        <time>2026-07-20T22:40:16.388000Z</time>
      </trkpt>
      <trkpt lat="39.8741386981364" lon="116.34415735128088">
        <time>2026-07-20T22:40:16.388000Z</time>
      </trkpt>
      <trkpt lat="39.87385467284859" lon="116.3441803394188">
        <time>2026-07-20T22:40:16.388000Z</time>
      </trkpt>
      <trkpt lat="39.873566656422945" lon="116.34419833845195">
        <time>2026-07-20T22:40:16.388000Z</time>
      </trkpt>
      <trkpt lat="39.873294649562354" lon="116.34421034792223">
        <time>2026-07-20T22:40:16.388000Z</time>
      </trkpt>
      <trkpt lat="39.87301162086214" lon="116.34423533180896">
        <time>2026-07-20T22:40:16.388000Z</time>
      </trkpt>
      <trkpt lat="39.872734543612914" lon="116.34428825687387">
        <time>2026-07-20T22:40:16.388000Z</time>
      </trkpt>
      <trkpt lat="39.87245749055755" lon="116.34432721101874">
        <time>2026-07-20T22:40:16.388000Z</time>
      </trkpt>
      <trkpt lat="39.872173467194855" lon="116.34434920131122">
        <time>2026-07-20T22:40:16.388000Z</time>
      </trkpt>
      <trkpt lat="39.8718284418281" lon="116.34437419310723">
        <time>2026-07-20T22:40:16.388000Z</time>
      </trkpt>
      <trkpt lat="39.87176439689476" lon="116.34440214318737">
        <time>2026-07-20T22:40:16.388000Z</time>
      </trkpt>
      <trkpt lat="39.87147436359692" lon="116.34443012184757">
        <time>2026-07-20T22:40:16.388000Z</time>
      </trkpt>
      <trkpt lat="39.87118034775326" lon="116.34444812173336">
        <time>2026-07-20T22:40:16.388000Z</time>
      </trkpt>
      <trkpt lat="39.87089627808789" lon="116.34449705620031">
        <time>2026-07-20T22:40:16.388000Z</time>
      </trkpt>
      <trkpt lat="39.870620237306476" lon="116.34452902487259">
        <time>2026-07-20T22:40:16.388000Z</time>
      </trkpt>
      <trkpt lat="39.87034120015875" lon="116.344558998082">
        <time>2026-07-20T22:40:16.388000Z</time>
      </trkpt>
      <trkpt lat="39.87005915633069" lon="116.34459296342024">
        <time>2026-07-20T22:40:16.388000Z</time>
      </trkpt>
      <trkpt lat="39.86972808417131" lon="116.34464489778057">
        <time>2026-07-20T22:40:16.388000Z</time>
      </trkpt>
      <trkpt lat="39.869457055327025" lon="116.34466988038159">
        <time>2026-07-20T22:40:16.388000Z</time>
      </trkpt>
      <trkpt lat="39.86912199551975" lon="116.344714829786">
        <time>2026-07-20T22:40:16.388000Z</time>
      </trkpt>
      <trkpt lat="39.86878895454974" lon="116.34474880168365">
        <time>2026-07-20T22:40:16.388000Z</time>
      </trkpt>
      <trkpt lat="39.868521865590424" lon="116.34480871162832">
        <time>2026-07-20T22:40:16.388000Z</time>
      </trkpt>
      <trkpt lat="39.868248842163084" lon="116.34483070075694">
        <time>2026-07-20T22:40:16.388000Z</time>
      </trkpt>
      <trkpt lat="39.868182816480385" lon="116.34484767404398">
        <time>2026-07-20T22:40:16.388000Z</time>
      </trkpt>
      <trkpt lat="39.868056668894695" lon="116.34493750449161">
        <time>2026-07-20T22:40:16.388000Z</time>
      </trkpt>
      <trkpt lat="39.867908317442215" lon="116.34514709110123">
        <time>2026-07-20T22:40:16.388000Z</time>
      </trkpt>
      <trkpt lat="39.86795437142393" lon="116.34511415312453">
        <time>2026-07-20T22:40:16.388000Z</time>
      </trkpt>
      <trkpt lat="39.86802153892541" lon="116.34501435036876">
        <time>2026-07-20T22:40:16.388000Z</time>
      </trkpt>
      <trkpt lat="39.86820075384274" lon="116.34488359755746">
        <time>2026-07-20T22:40:16.388000Z</time>
      </trkpt>
      <trkpt lat="39.8685227935346" lon="116.3448506248887">
        <time>2026-07-20T22:40:16.388000Z</time>
      </trkpt>
      <trkpt lat="39.868795849552896" lon="116.34480967493685">
        <time>2026-07-20T22:40:16.388000Z</time>
      </trkpt>
      <trkpt lat="39.86907392423342" lon="116.34475774708983">
        <time>2026-07-20T22:40:16.388000Z</time>
      </trkpt>
      <trkpt lat="39.869342006371774" lon="116.34470182882488">
        <time>2026-07-20T22:40:16.388000Z</time>
      </trkpt>
      <trkpt lat="39.8696230278047" lon="116.34468083668077">
        <time>2026-07-20T22:40:31.788000Z</time>
      </trkpt>
      <trkpt lat="39.86996006868973" lon="116.34464686432707">
        <time>2026-07-20T22:40:31.988000Z</time>
      </trkpt>
      <trkpt lat="39.87024413127506" lon="116.34460192143393">
        <time>2026-07-20T22:40:32.088000Z</time>
      </trkpt>
      <trkpt lat="39.870524161464935" lon="116.34457593979938">
        <time>2026-07-20T22:40:32.188000Z</time>
      </trkpt>
      <trkpt lat="39.87080420372511" lon="116.34454297265769">
        <time>2026-07-20T22:40:32.288000Z</time>
      </trkpt>
      <trkpt lat="39.87108524253554" lon="116.34451200127462">
        <time>2026-07-20T22:40:32.388000Z</time>
      </trkpt>
      <trkpt lat="39.87135527679043" lon="116.34448402509315">
        <time>2026-07-20T22:40:32.588000Z</time>
      </trkpt>
      <trkpt lat="39.87165131318549" lon="116.34445404978288">
        <time>2026-07-20T22:40:32.688000Z</time>
      </trkpt>
      <trkpt lat="39.87198338048636" lon="116.34440510929421">
        <time>2026-07-20T22:40:32.788000Z</time>
      </trkpt>
      <trkpt lat="39.8722774067445" lon="116.3443811218553">
        <time>2026-07-20T22:40:32.988000Z</time>
      </trkpt>
      <trkpt lat="39.8724854787859" lon="116.34433319504198">
        <time>2026-07-20T22:40:32.988000Z</time>
      </trkpt>
      <trkpt lat="39.872764473138375" lon="116.34432817014415">
        <time>2026-07-20T22:40:33.188000Z</time>
      </trkpt>
      <trkpt lat="39.87304352439125" lon="116.34429021367171">
        <time>2026-07-20T22:40:33.288000Z</time>
      </trkpt>
      <trkpt lat="39.87333057873285" lon="116.34425026036801">
        <time>2026-07-20T22:40:33.388000Z</time>
      </trkpt>
      <trkpt lat="39.873625610291846" lon="116.34422327910683">
        <time>2026-07-20T22:40:33.488000Z</time>
      </trkpt>
      <trkpt lat="39.87395861235358" lon="116.3442122598473">
        <time>2026-07-20T22:40:33.688000Z</time>
      </trkpt>
      <trkpt lat="39.87424562713153" lon="116.34419525885887">
        <time>2026-07-20T22:40:33.788000Z</time>
      </trkpt>
      <trkpt lat="39.87460764849915" lon="116.34417226085445">
        <time>2026-07-20T22:40:33.988000Z</time>
      </trkpt>
      <trkpt lat="39.874883670800855" lon="116.34415126957731">
        <time>2026-07-20T22:40:34.088000Z</time>
      </trkpt>
      <trkpt lat="39.875161686123974" lon="116.3441342697477">
        <time>2026-07-20T22:40:34.188000Z</time>
      </trkpt>
      <trkpt lat="39.87538169921294" lon="116.34412027102259">
        <time>2026-07-20T22:40:34.288000Z</time>
      </trkpt>
      <trkpt lat="39.87570676404106" lon="116.3440733276072">
        <time>2026-07-20T22:40:34.388000Z</time>
      </trkpt>
      <trkpt lat="39.87603881130148" lon="116.34403636255995">
        <time>2026-07-20T22:40:34.588000Z</time>
      </trkpt>
      <trkpt lat="39.876325853954086" lon="116.34400339490938">
        <time>2026-07-20T22:40:34.688000Z</time>
      </trkpt>
      <trkpt lat="39.8766146372304" lon="116.34399121181643">
        <time>2026-07-20T22:40:34.888000Z</time>
      </trkpt>
      <trkpt lat="39.87689890137747" lon="116.34395941401888">
        <time>2026-07-20T22:40:34.988000Z</time>
      </trkpt>
      <trkpt lat="39.877172948248905" lon="116.34392445222748">
        <time>2026-07-20T22:40:35.088000Z</time>
      </trkpt>
      <trkpt lat="39.87730086575695" lon="116.34396834447799">
        <time>2026-07-20T22:40:35.188000Z</time>
      </trkpt>
      <trkpt lat="39.877602900879516" lon="116.34393936665238">
        <time>2026-07-20T22:40:35.288000Z</time>
      </trkpt>
      <trkpt lat="39.87788092512058" lon="116.34391737730513">
        <time>2026-07-20T22:40:35.388000Z</time>
      </trkpt>
      <trkpt lat="39.87802991772128" lon="116.3439173584706">
        <time>2026-07-20T22:40:35.488000Z</time>
      </trkpt>
      <trkpt lat="39.878088945940995" lon="116.3438993884876">
        <time>2026-07-20T22:40:35.488000Z</time>
      </trkpt>
      <trkpt lat="39.87840393897568" lon="116.34389435908027">
        <time>2026-07-20T22:40:35.588000Z</time>
      </trkpt>
      <trkpt lat="39.8787009727395" lon="116.34386637984798">
        <time>2026-07-20T22:40:35.688000Z</time>
      </trkpt>
      <trkpt lat="39.87897298180193" lon="116.34385337254321">
        <time>2026-07-20T22:40:35.888000Z</time>
      </trkpt>
      <trkpt lat="39.87930822611951" lon="116.34379806964864">
        <time>2026-07-20T22:40:35.988000Z</time>
      </trkpt>
      <trkpt lat="39.879587067566" lon="116.34378643454198">
        <time>2026-07-20T22:40:36.088000Z</time>
      </trkpt>
      <trkpt lat="39.879913084451594" lon="116.34376743294105">
        <time>2026-07-20T22:40:36.288000Z</time>
      </trkpt>
      <trkpt lat="39.88019710169851" lon="116.3437494345714">
        <time>2026-07-20T22:40:36.388000Z</time>
      </trkpt>
      <trkpt lat="39.880475117532306" lon="116.34373243488108">
        <time>2026-07-20T22:40:36.488000Z</time>
      </trkpt>
      <trkpt lat="39.88076809105232" lon="116.34373938324238">
        <time>2026-07-20T22:40:36.588000Z</time>
      </trkpt>
      <trkpt lat="39.8810431070763" lon="116.3437223839343">
        <time>2026-07-20T22:40:36.788000Z</time>
      </trkpt>
      <trkpt lat="39.88133312065885" lon="116.34370638064954">
        <time>2026-07-20T22:40:36.888000Z</time>
      </trkpt>
      <trkpt lat="39.88162012574269" lon="116.34369536731668">
        <time>2026-07-20T22:40:36.988000Z</time>
      </trkpt>
      <trkpt lat="39.88189412627905" lon="116.34368734936963">
        <time>2026-07-20T22:40:37.088000Z</time>
      </trkpt>
      <trkpt lat="39.88201112405838" lon="116.34368533875158">
        <time>2026-07-20T22:40:37.188000Z</time>
      </trkpt>
      <trkpt lat="39.88213800422579" lon="116.34365553887605">
        <time>2026-07-20T22:40:37.188000Z</time>
      </trkpt>
      <trkpt lat="39.88241616163101" lon="116.3436523564212">
        <time>2026-07-20T22:40:37.388000Z</time>
      </trkpt>
      <trkpt lat="39.88256916982604" lon="116.34364335586528">
        <time>2026-07-20T22:40:37.388000Z</time>
      </trkpt>
      <trkpt lat="39.88290212420767" lon="116.34366027828096">
        <time>2026-07-20T22:40:37.588000Z</time>
      </trkpt>
      <trkpt lat="39.88318410710315" lon="116.34366223845434">
        <time>2026-07-20T22:40:37.688000Z</time>
      </trkpt>
      <trkpt lat="39.88346607787667" lon="116.343671184018">
        <time>2026-07-20T22:40:37.788000Z</time>
      </trkpt>
      <trkpt lat="39.883790076133934" lon="116.34366315975119">
        <time>2026-07-20T22:40:37.988000Z</time>
      </trkpt>
      <trkpt lat="39.884080082992355" lon="116.34365114813339">
        <time>2026-07-20T22:40:38.088000Z</time>
      </trkpt>
      <trkpt lat="39.88435510794524" lon="116.34362915929236">
        <time>2026-07-20T22:40:38.188000Z</time>
      </trkpt>
      <trkpt lat="39.88462905142014" lon="116.34365407245923">
        <time>2026-07-20T22:40:38.288000Z</time>
      </trkpt>
      <trkpt lat="39.88490606590239" lon="116.34363807083697">
        <time>2026-07-20T22:40:38.388000Z</time>
      </trkpt>
      <trkpt lat="39.88524503927007" lon="116.34364401544893">
        <time>2026-07-20T22:40:38.588000Z</time>
      </trkpt>
      <trkpt lat="39.88554101818843" lon="116.34364796967276">
        <time>2026-07-20T22:40:38.688000Z</time>
      </trkpt>
      <trkpt lat="39.88582318030916" lon="116.34365257207013">
        <time>2026-07-20T22:40:38.788000Z</time>
      </trkpt>
      <trkpt lat="39.88609698994625" lon="116.34364889728373">
        <time>2026-07-20T22:40:38.888000Z</time>
      </trkpt>
      <trkpt lat="39.88634496079897" lon="116.34365884505154">
        <time>2026-07-20T22:40:39.088000Z</time>
      </trkpt>
      <trkpt lat="39.88643399300003" lon="116.343637877636">
        <time>2026-07-20T22:40:39.088000Z</time>
      </trkpt>
      <trkpt lat="39.886723958407494" lon="116.34364981591526">
        <time>2026-07-20T22:40:39.188000Z</time>
      </trkpt>
      <trkpt lat="39.88706192329735" lon="116.34366075021451">
        <time>2026-07-20T22:40:39.388000Z</time>
      </trkpt>
      <trkpt lat="39.887399912500214" lon="116.34365771373648">
        <time>2026-07-20T22:40:39.488000Z</time>
      </trkpt>
      <trkpt lat="39.887689928285035" lon="116.34364071255385">
        <time>2026-07-20T22:40:39.588000Z</time>
      </trkpt>
      <trkpt lat="39.88802388649914" lon="116.34365563900496">
        <time>2026-07-20T22:40:39.788000Z</time>
      </trkpt>
      <trkpt lat="39.88832286200178" lon="116.3436615886707">
        <time>2026-07-20T22:40:39.888000Z</time>
      </trkpt>
      <trkpt lat="39.888477903282414" lon="116.34363362752283">
        <time>2026-07-20T22:40:39.988000Z</time>
      </trkpt>
      <trkpt lat="39.888775837225865" lon="116.34366352721098">
        <time>2026-07-20T22:40:40.088000Z</time>
      </trkpt>
      <trkpt lat="39.88906378381307" lon="116.34368644278831">
        <time>2026-07-20T22:40:40.188000Z</time>
      </trkpt>
      <trkpt lat="39.8893517685763" lon="116.34368740428052">
        <time>2026-07-20T22:40:40.388000Z</time>
      </trkpt>
      <trkpt lat="39.8896217403277" lon="116.34369635135488">
        <time>2026-07-20T22:40:40.488000Z</time>
      </trkpt>
      <trkpt lat="39.88989872217349" lon="116.3436993100642">
        <time>2026-07-20T22:40:40.588000Z</time>
      </trkpt>
      <trkpt lat="39.89022467227589" lon="116.34371922710817">
        <time>2026-07-20T22:40:40.788000Z</time>
      </trkpt>
      <trkpt lat="39.89029066052915" lon="116.34372420833056">
        <time>2026-07-20T22:40:40.788000Z</time>
      </trkpt>
      <trkpt lat="39.89039771622524" lon="116.34368926782405">
        <time>2026-07-20T22:40:40.788000Z</time>
      </trkpt>
      <trkpt lat="39.89069367469248" lon="116.34370519700273">
        <time>2026-07-20T22:40:40.888000Z</time>
      </trkpt>
      <trkpt lat="39.890905994727206" lon="116.34370944717996">
        <time>2026-07-20T22:40:40.988000Z</time>
      </trkpt>
      <trkpt lat="39.891066574558884" lon="116.34368847220293">
        <time>2026-07-20T22:40:41.088000Z</time>
      </trkpt>
      <trkpt lat="39.89133863431127" lon="116.3437111029094">
        <time>2026-07-20T22:40:41.188000Z</time>
      </trkpt>
      <trkpt lat="39.89161959527484" lon="116.34372603607626">
        <time>2026-07-20T22:40:41.288000Z</time>
      </trkpt>
      <trkpt lat="39.89195261452827" lon="116.3437060356854">
        <time>2026-07-20T22:40:41.488000Z</time>
      </trkpt>
      <trkpt lat="39.89228760770905" lon="116.34370100374795">
        <time>2026-07-20T22:40:41.588000Z</time>
      </trkpt>
      <trkpt lat="39.892560636724724" lon="116.34367701930388">
        <time>2026-07-20T22:40:41.688000Z</time>
      </trkpt>
      <trkpt lat="39.892830646823064" lon="116.34366401228846">
        <time>2026-07-20T22:40:41.888000Z</time>
      </trkpt>
      <trkpt lat="39.89316208019865" lon="116.34363166407697">
        <time>2026-07-20T22:40:41.988000Z</time>
      </trkpt>
      <trkpt lat="39.89345469791887" lon="116.34361802940569">
        <time>2026-07-20T22:40:42.088000Z</time>
      </trkpt>
      <trkpt lat="39.89372772356515" lon="116.3435960408244">
        <time>2026-07-20T22:40:42.288000Z</time>
      </trkpt>
      <trkpt lat="39.89400872456498" lon="116.34358802199333">
        <time>2026-07-20T22:40:42.388000Z</time>
      </trkpt>
      <trkpt lat="39.89421173609749" lon="116.34357602138597">
        <time>2026-07-20T22:40:42.488000Z</time>
      </trkpt>
      <trkpt lat="39.89449315431379" lon="116.34356507084571">
        <time>2026-07-20T22:40:42.588000Z</time>
      </trkpt>
      <trkpt lat="39.89476709063296" lon="116.34354178596578">
        <time>2026-07-20T22:40:42.688000Z</time>
      </trkpt>
      <trkpt lat="39.89505220045846" lon="116.34352648328888">
        <time>2026-07-20T22:40:42.788000Z</time>
      </trkpt>
      <trkpt lat="39.895327867343994" lon="116.34349564599296">
        <time>2026-07-20T22:40:42.888000Z</time>
      </trkpt>
      <trkpt lat="39.89551583462102" lon="116.34348504665085">
        <time>2026-07-20T22:40:42.988000Z</time>
      </trkpt>
      <trkpt lat="39.89556187771079" lon="116.34345909520809">
        <time>2026-07-20T22:40:43.088000Z</time>
      </trkpt>
      <trkpt lat="39.89525091620717" lon="116.34344516383098">
        <time>2026-07-20T22:40:43.188000Z</time>
      </trkpt>
      <trkpt lat="39.89507191046189" lon="116.34345316973757">
        <time>2026-07-20T22:40:43.288000Z</time>
      </trkpt>
      <trkpt lat="39.89493681931145" lon="116.34350906970744">
        <time>2026-07-20T22:40:43.288000Z</time>
      </trkpt>
      <trkpt lat="39.89472488458965" lon="116.34347716343241">
        <time>2026-07-20T22:40:43.388000Z</time>
      </trkpt>
      <trkpt lat="39.89442984594974" lon="116.34350713801736">
        <time>2026-07-20T22:40:43.488000Z</time>
      </trkpt>
      <trkpt lat="39.89414087307608" lon="116.34349919129697">
        <time>2026-07-20T22:40:43.688000Z</time>
      </trkpt>
      <trkpt lat="39.89385982689413" lon="116.3435331557638">
        <time>2026-07-20T22:40:43.788000Z</time>
      </trkpt>
      <trkpt lat="39.89353276897171" lon="116.34357510935794">
        <time>2026-07-20T22:40:43.888000Z</time>
      </trkpt>
      <trkpt lat="39.89319475846916" lon="116.34359012077267">
        <time>2026-07-20T22:40:44.088000Z</time>
      </trkpt>
      <trkpt lat="39.8928717542462" lon="116.343601138649">
        <time>2026-07-20T22:40:44.188000Z</time>
      </trkpt>
      <trkpt lat="39.892584751857726" lon="116.34361015615116">
        <time>2026-07-20T22:40:44.388000Z</time>
      </trkpt>
      <trkpt lat="39.892256702799685" lon="116.34364712037603">
        <time>2026-07-20T22:40:44.488000Z</time>
      </trkpt>
      <trkpt lat="39.891974695021055" lon="116.34365913099136">
        <time>2026-07-20T22:40:44.588000Z</time>
      </trkpt>
      <trkpt lat="39.89170663805526" lon="116.34369908140472">
        <time>2026-07-20T22:40:44.688000Z</time>
      </trkpt>
      <trkpt lat="39.89170663805526" lon="116.34369908140472">
        <time>2026-07-20T22:40:44.788000Z</time>
      </trkpt>
      <trkpt lat="39.891535301252176" lon="116.34389768819686">
        <time>2026-07-20T22:40:45.388000Z</time>
      </trkpt>
      <trkpt lat="39.89183233422459" lon="116.34387070686839">
        <time>2026-07-20T22:40:45.488000Z</time>
      </trkpt>
      <trkpt lat="39.8919783240053" lon="116.34387268423573">
        <time>2026-07-20T22:40:45.588000Z</time>
      </trkpt>
      <trkpt lat="39.89215923429495" lon="116.34391956345983">
        <time>2026-07-20T22:40:45.588000Z</time>
      </trkpt>
      <trkpt lat="39.89245725167597" lon="116.34390156324858">
        <time>2026-07-20T22:40:45.688000Z</time>
      </trkpt>
      <trkpt lat="39.89279830518253" lon="116.34386160343325">
        <time>2026-07-20T22:40:45.888000Z</time>
      </trkpt>
      <trkpt lat="39.89288641542535" lon="116.34379572984744">
        <time>2026-07-20T22:40:45.888000Z</time>
      </trkpt>
      <trkpt lat="39.892880163958175" lon="116.3433656311292">
        <time>2026-07-20T22:40:45.988000Z</time>
      </trkpt>
      <trkpt lat="39.89288080525592" lon="116.34299840287181">
        <time>2026-07-20T22:40:46.188000Z</time>
      </trkpt>
      <trkpt lat="39.892889953284325" lon="116.34291358037142">
        <time>2026-07-20T22:40:46.188000Z</time>
      </trkpt>
      <trkpt lat="39.89291707612465" lon="116.3428427262811">
        <time>2026-07-20T22:40:46.188000Z</time>
      </trkpt>
      <trkpt lat="39.893025197066756" lon="116.34277086415219">
        <time>2026-07-20T22:40:46.288000Z</time>
      </trkpt>
      <trkpt lat="39.893305170189386" lon="116.34277881190332">
        <time>2026-07-20T22:40:46.388000Z</time>
      </trkpt>
      <trkpt lat="39.893439146538064" lon="116.34278877390797">
        <time>2026-07-20T22:40:46.488000Z</time>
      </trkpt>
      <trkpt lat="39.893367240823295" lon="116.34273689249524">
        <time>2026-07-20T22:40:46.488000Z</time>
      </trkpt>
      <trkpt lat="39.893092262222055" lon="116.34273193779997">
        <time>2026-07-20T23:30:55.588000Z</time>
      </trkpt>
      <trkpt lat="39.89306291397849" lon="116.34236172426185">
        <time>2026-07-20T23:31:13.588000Z</time>
      </trkpt>
      <trkpt lat="39.89305920889454" lon="116.34229803686738">
        <time>2026-07-20T23:31:16.588000Z</time>
      </trkpt>
      <trkpt lat="39.893333819222086" lon="116.34195414329575">
        <time>2026-07-20T23:31:31.588000Z</time>
      </trkpt>
      <trkpt lat="39.89355052477469" lon="116.34200242466942">
        <time>2026-07-20T23:31:43.688000Z</time>
      </trkpt>
      <trkpt lat="39.89355637657254" lon="116.342086245895">
        <time>2026-07-20T23:31:46.788000Z</time>
      </trkpt>
      <trkpt lat="39.893242560071634" lon="116.34199048905184">
        <time>2026-07-20T23:31:58.788000Z</time>
      </trkpt>
      <trkpt lat="39.89294056340017" lon="116.34199651451245">
        <time>2026-07-20T23:32:10.888000Z</time>
      </trkpt>
      <trkpt lat="39.89279556127201" lon="116.34200152224422">
        <time>2026-07-20T23:32:17.088000Z</time>
      </trkpt>
      <trkpt lat="39.89273660275289" lon="116.3419795763484">
        <time>2026-07-20T23:32:20.088000Z</time>
      </trkpt>
      <trkpt lat="39.892697722643305" lon="116.34191272338985">
        <time>2026-07-20T23:32:23.088000Z</time>
      </trkpt>
      <trkpt lat="39.89270089006914" lon="116.3418179246547">
        <time>2026-07-20T23:32:26.188000Z</time>
      </trkpt>
      <trkpt lat="39.89272903175928" lon="116.34173709317568">
        <time>2026-07-20T23:32:29.288000Z</time>
      </trkpt>
      <trkpt lat="39.89270612643012" lon="116.34168420873202">
        <time>2026-07-20T23:32:32.388000Z</time>
      </trkpt>
      <trkpt lat="39.89242718347348" lon="116.34165929715621">
        <time>2026-07-20T23:32:44.388000Z</time>
      </trkpt>
      <trkpt lat="39.89209608570877" lon="116.34172320294884">
        <time>2026-07-20T23:32:56.488000Z</time>
      </trkpt>
      <trkpt lat="39.89181109359798" lon="116.34172623260147">
        <time>2026-07-20T23:33:08.488000Z</time>
      </trkpt>
      <trkpt lat="39.89144109308565" lon="116.3417362581239">
        <time>2026-07-20T23:33:23.488000Z</time>
      </trkpt>
      <trkpt lat="39.89113806830523" lon="116.3417582496826">
        <time>2026-07-20T23:33:35.488000Z</time>
      </trkpt>
      <trkpt lat="39.890859084804525" lon="116.34175628920009">
        <time>2026-07-20T23:33:47.588000Z</time>
      </trkpt>
      <trkpt lat="39.89073808160666" lon="116.34176129387312">
        <time>2026-07-20T23:33:53.588000Z</time>
      </trkpt>
      <trkpt lat="39.89071221395974" lon="116.34168040912022">
        <time>2026-07-20T23:33:56.588000Z</time>
      </trkpt>
      <trkpt lat="39.890765920672024" lon="116.34128730164748">
        <time>2026-07-20T23:34:08.588000Z</time>
      </trkpt>
      <trkpt lat="39.89078255374405" lon="116.34093106230166">
        <time>2026-07-20T23:34:20.688000Z</time>
      </trkpt>
      <trkpt lat="39.890763013906124" lon="116.34067361741529">
        <time>2026-07-20T23:34:29.688000Z</time>
      </trkpt>
      <trkpt lat="39.8908312460757" lon="116.34054189199112">
        <time>2026-07-20T23:34:35.788000Z</time>
      </trkpt>
      <trkpt lat="39.89065920235631" lon="116.34057085148945">
        <time>2026-07-20T23:34:41.788000Z</time>
      </trkpt>
      <trkpt lat="39.89065920235631" lon="116.34057085148945">
        <time>2026-07-20T23:34:44.288000Z</time>
      </trkpt>
    </trkseg>
  </trk>
</gpx>