<?xml version="1.0" encoding="UTF-8"?>
<gpx xmlns="http://www.topografix.com/GPX/1/1" xmlns:gpxtpx="http://www.garmin.com/xmlschemas/TrackPointExtension/v1" xmlns:xsi="http://www.w3.org/2001/XMLSchema-instance" xsi:schemaLocation="http://www.topografix.com/GPX/1/1 http://www.topografix.com/GPX/1/1/gpx.xsd" version="1.1" creator="gpx.py -- https://github.com/tkrajina/gpxpy">
  <trk>
    <name>gpx from keep</name>
    <type>Run</type>
    <trkseg>
      <trkpt lat="39.86781821455775" lon="116.46686813172438">
        <time>2026-08-12T22:35:57.149000Z</time>
      </trkpt>
      <trkpt lat="39.86780152035775" lon="116.46698152539683">
        <time>2026-08-12T22:36:03.049000Z</time>
      </trkpt>
      <trkpt lat="39.867768716514874" lon="116.46705377918656">
        <time>2026-08-12T22:36:06.049000Z</time>
      </trkpt>
      <trkpt lat="39.86760074697736" lon="116.46706182799667">
        <time>2026-08-12T22:36:12.149000Z</time>
      </trkpt>
      <trkpt lat="39.86751363543333" lon="116.46701868978131">
        <time>2026-08-12T22:36:15.149000Z</time>
      </trkpt>
      <trkpt lat="39.86758262334458" lon="116.46664338603618">
        <time>2026-08-12T22:36:27.149000Z</time>
      </trkpt>
      <trkpt lat="39.86760464362191" lon="116.46627812637733">
        <time>2026-08-12T22:36:39.349000Z</time>
      </trkpt>
      <trkpt lat="39.86756648997794" lon="116.46621993121603">
        <time>2026-08-12T22:36:42.349000Z</time>
      </trkpt>
      <trkpt lat="39.867254552058434" lon="116.46623702893426">
        <time>2026-08-12T22:36:54.449000Z</time>
      </trkpt>
      <trkpt lat="39.86694763806414" lon="116.46626315705737">
        <time>2026-08-12T22:37:06.749000Z</time>
      </trkpt>
      <trkpt lat="39.86672567934385" lon="116.46627422282022">
        <time>2026-08-12T22:37:15.849000Z</time>
      </trkpt>
      <trkpt lat="39.866666800593734" lon="116.46631838194158">
        <time>2026-08-12T22:37:18.949000Z</time>
      </trkpt>
      <trkpt lat="39.866643078547995" lon="116.46642174032299">
        <time>2026-08-12T22:37:22.049000Z</time>
      </trkpt>
      <trkpt lat="39.86664492071093" lon="116.46673582185335">
        <time>2026-08-12T22:37:31.049000Z</time>
      </trkpt>
      <trkpt lat="39.86660061082032" lon="116.46699171063608">
        <time>2026-08-12T22:37:40.049000Z</time>
      </trkpt>
      <trkpt lat="39.86659358994284" lon="116.46735496827988">
        <time>2026-08-12T22:37:52.049000Z</time>
      </trkpt>
      <trkpt lat="39.86658030619052" lon="116.46761988862309">
        <time>2026-08-12T22:38:01.149000Z</time>
      </trkpt>
      <trkpt lat="39.86661004881259" lon="116.46789484026252">
        <time>2026-08-12T22:38:10.249000Z</time>
      </trkpt>
      <trkpt lat="39.866593008064285" lon="116.46824807252649">
        <time>2026-08-12T22:38:22.449000Z</time>
      </trkpt>
      <trkpt lat="39.86659903151947" lon="116.46862438569202">
        <time>2026-08-12T22:38:34.749000Z</time>
      </trkpt>
      <trkpt lat="39.86658903675086" lon="116.46899267619678">
        <time>2026-08-12T22:38:46.849000Z</time>
      </trkpt>
      <trkpt lat="39.86659794474291" lon="116.46932484068014">
        <time>2026-08-12T22:38:58.949000Z</time>
      </trkpt>
      <trkpt lat="39.8665750301587" lon="116.46972023442794">
        <time>2026-08-12T22:39:10.949000Z</time>
      </trkpt>
      <trkpt lat="39.866598287512836" lon="116.47017784583852">
        <time>2026-08-12T22:39:25.949000Z</time>
      </trkpt>
      <trkpt lat="39.86660003451918" lon="116.47044880374777">
        <time>2026-08-12T22:39:34.949000Z</time>
      </trkpt>
      <trkpt lat="39.866625526456" lon="116.47062743312623">
        <time>2026-08-12T22:39:40.949000Z</time>
      </trkpt>
      <trkpt lat="39.866614290326154" lon="116.47090341323315">
        <time>2026-08-12T22:39:49.949000Z</time>
      </trkpt>
      <trkpt lat="39.866623573297964" lon="116.4710057755132">
        <time>2026-08-12T22:39:52.949000Z</time>
      </trkpt>
      <trkpt lat="39.86668605120316" lon="116.47117938465102">
        <time>2026-08-12T22:39:58.949000Z</time>
      </trkpt>
      <trkpt lat="39.866691538253775" lon="116.47135500873154">
        <time>2026-08-12T22:40:04.949000Z</time>
      </trkpt>
      <trkpt lat="39.866679761849376" lon="116.47143529603841">
        <time>2026-08-12T22:40:07.949000Z</time>
      </trkpt>
      <trkpt lat="39.86662119729293" lon="116.47159085756833">
        <time>2026-08-12T22:40:13.949000Z</time>
      </trkpt>
      <trkpt lat="39.86661141346078" lon="116.4720274169144">
        <time>2026-08-12T22:40:28.949000Z</time>
      </trkpt>
      <trkpt lat="39.86659841152974" lon="116.47238469670584">
        <time>2026-08-12T22:40:40.949000Z</time>
      </trkpt>
      <trkpt lat="39.86657365705465" lon="116.4728292940412">
        <time>2026-08-12T22:40:55.949000Z</time>
      </trkpt>
      <trkpt lat="39.866563868492676" lon="116.47326084658228">
        <time>2026-08-12T22:41:10.949000Z</time>
      </trkpt>
      <trkpt lat="39.866536245130675" lon="116.47339433062037">
        <time>2026-08-12T22:41:16.949000Z</time>
      </trkpt>
      <trkpt lat="39.86654432955841" lon="116.47377971913636">
        <time>2026-08-12T22:41:28.949000Z</time>
      </trkpt>
      <trkpt lat="39.86655742464423" lon="116.47416812080894">
        <time>2026-08-12T22:41:40.949000Z</time>
      </trkpt>
      <trkpt lat="39.8665324219065" lon="116.47452039919592">
        <time>2026-08-12T22:41:52.949000Z</time>
      </trkpt>
      <trkpt lat="39.866470865597385" lon="116.47467597078214">
        <time>2026-08-12T22:41:58.949000Z</time>
      </trkpt>
      <trkpt lat="39.86648993168278" lon="116.47505233450659">
        <time>2026-08-12T22:42:11.049000Z</time>
      </trkpt>
      <trkpt lat="39.86647097912193" lon="116.47542067633564">
        <time>2026-08-12T22:42:23.049000Z</time>
      </trkpt>
      <trkpt lat="39.86647777564444" lon="116.47570069538999">
        <time>2026-08-12T22:42:32.149000Z</time>
      </trkpt>
      <trkpt lat="39.866439046446985" lon="116.47579504416295">
        <time>2026-08-12T22:42:35.249000Z</time>
      </trkpt>
      <trkpt lat="39.86642061393678" lon="116.4759937714301">
        <time>2026-08-12T22:42:41.349000Z</time>
      </trkpt>
      <trkpt lat="39.86645561489124" lon="116.47634505022282">
        <time>2026-08-12T22:42:53.449000Z</time>
      </trkpt>
      <trkpt lat="39.86646865612351" lon="116.47670938162186">
        <time>2026-08-12T22:43:05.649000Z</time>
      </trkpt>
      <trkpt lat="39.866444819183236" lon="116.47711487076582">
        <time>2026-08-12T22:43:17.949000Z</time>
      </trkpt>
      <trkpt lat="39.86643906717873" lon="116.47754946727116">
        <time>2026-08-12T22:43:32.949000Z</time>
      </trkpt>
      <trkpt lat="39.86644608295706" lon="116.47790276584841">
        <time>2026-08-12T22:43:44.949000Z</time>
      </trkpt>
      <trkpt lat="39.86644515577296" lon="116.47827513762574">
        <time>2026-08-12T22:43:56.949000Z</time>
      </trkpt>
      <trkpt lat="39.866449586880606" lon="116.4784246885413">
        <time>2026-08-12T22:44:02.949000Z</time>
      </trkpt>
      <trkpt lat="39.86643772366532" lon="116.47881814243424">
        <time>2026-08-12T22:44:14.949000Z</time>
      </trkpt>
      <trkpt lat="39.86644077150241" lon="116.4791804815764">
        <time>2026-08-12T22:44:26.949000Z</time>
      </trkpt>
      <trkpt lat="39.866431847746725" lon="116.47955185751374">
        <time>2026-08-12T22:44:38.949000Z</time>
      </trkpt>
      <trkpt lat="39.86642410332995" lon="116.47998446232751">
        <time>2026-08-12T22:44:53.949000Z</time>
      </trkpt>
      <trkpt lat="39.866420616686675" lon="116.48016111841108">
        <time>2026-08-12T22:44:59.949000Z</time>
      </trkpt>
      <trkpt lat="39.86636312158991" lon="116.4803337667195">
        <time>2026-08-12T22:45:05.949000Z</time>
      </trkpt>
      <trkpt lat="39.86634416235918" lon="116.48069109729741">
        <time>2026-08-12T22:45:17.949000Z</time>
      </trkpt>
      <trkpt lat="39.86633821553041" lon="116.4810524427905">
        <time>2026-08-12T22:45:29.949000Z</time>
      </trkpt>
      <trkpt lat="39.86632424413658" lon="116.48140475718095">
        <time>2026-08-12T22:45:41.949000Z</time>
      </trkpt>
      <trkpt lat="39.86632480689971" lon="116.48159747575787">
        <time>2026-08-12T22:45:47.949000Z</time>
      </trkpt>
      <trkpt lat="39.866309977772566" lon="116.4816556947815">
        <time>2026-08-12T22:45:50.949000Z</time>
      </trkpt>
      <trkpt lat="39.86624721869815" lon="116.48173700596409">
        <time>2026-08-12T22:45:53.949000Z</time>
      </trkpt>
      <trkpt lat="39.86618027799849" lon="116.48175608547578">
        <time>2026-08-12T22:45:56.949000Z</time>
      </trkpt>
      <trkpt lat="39.865884082558836" lon="116.48168385271406">
        <time>2026-08-12T22:46:09.049000Z</time>
      </trkpt>
      <trkpt lat="39.86560994467028" lon="116.48163169215104">
        <time>2026-08-12T22:46:21.049000Z</time>
      </trkpt>
      <trkpt lat="39.86533182170549" lon="116.48158455083616">
        <time>2026-08-12T22:46:33.049000Z</time>
      </trkpt>
      <trkpt lat="39.8651587312773" lon="116.48155044512242">
        <time>2026-08-12T22:46:42.149000Z</time>
      </trkpt>
      <trkpt lat="39.864862679703556" lon="116.48152739592068">
        <time>2026-08-12T22:46:54.249000Z</time>
      </trkpt>
      <trkpt lat="39.864587515660986" lon="116.48146620190063">
        <time>2026-08-12T22:47:06.449000Z</time>
      </trkpt>
      <trkpt lat="39.86446536396904" lon="116.48141201504859">
        <time>2026-08-12T22:47:12.649000Z</time>
      </trkpt>
      <trkpt lat="39.86416425123489" lon="116.48136788794723">
        <time>2026-08-12T22:47:24.849000Z</time>
      </trkpt>
      <trkpt lat="39.86387412038099" lon="116.4813177370568">
        <time>2026-08-12T22:47:36.949000Z</time>
      </trkpt>
      <trkpt lat="39.863604994303046" lon="116.48126959105944">
        <time>2026-08-12T22:47:48.949000Z</time>
      </trkpt>
      <trkpt lat="39.863320886652076" lon="116.48122746939491">
        <time>2026-08-12T22:48:00.949000Z</time>
      </trkpt>
      <trkpt lat="39.86304876082857" lon="116.48117932382489">
        <time>2026-08-12T22:48:12.949000Z</time>
      </trkpt>
      <trkpt lat="39.862847628275006" lon="116.48113016569714">
        <time>2026-08-12T22:48:21.949000Z</time>
      </trkpt>
      <trkpt lat="39.86255244818517" lon="116.48106295204278">
        <time>2026-08-12T22:48:33.949000Z</time>
      </trkpt>
      <trkpt lat="39.86228143657788" lon="116.48105395218259">
        <time>2026-08-12T22:48:45.949000Z</time>
      </trkpt>
      <trkpt lat="39.86200435801966" lon="116.48102186712461">
        <time>2026-08-12T22:48:57.949000Z</time>
      </trkpt>
      <trkpt lat="39.86167019776704" lon="116.48096068083721">
        <time>2026-08-12T22:49:12.949000Z</time>
      </trkpt>
      <trkpt lat="39.861385067082836" lon="116.48091052957729">
        <time>2026-08-12T22:49:25.049000Z</time>
      </trkpt>
      <trkpt lat="39.86109893358202" lon="116.48085937473915">
        <time>2026-08-12T22:49:37.049000Z</time>
      </trkpt>
      <trkpt lat="39.86081473278221" lon="116.48078513380678">
        <time>2026-08-12T22:49:49.149000Z</time>
      </trkpt>
      <trkpt lat="39.860535590249384" lon="116.48073096697867">
        <time>2026-08-12T22:50:01.249000Z</time>
      </trkpt>
      <trkpt lat="39.860232685839726" lon="116.48075810553777">
        <time>2026-08-12T22:50:13.449000Z</time>
      </trkpt>
      <trkpt lat="39.85993964644619" lon="116.48073907112378">
        <time>2026-08-12T22:50:25.749000Z</time>
      </trkpt>
      <trkpt lat="39.859641408635305" lon="116.48065178353474">
        <time>2026-08-12T22:50:37.949000Z</time>
      </trkpt>
      <trkpt lat="39.85958823626012" lon="116.48059156624504">
        <time>2026-08-12T22:50:40.949000Z</time>
      </trkpt>
      <trkpt lat="39.859578150766424" lon="116.4802181802399">
        <time>2026-08-12T22:50:52.949000Z</time>
      </trkpt>
      <trkpt lat="39.85953909757355" lon="116.47985483686818">
        <time>2026-08-12T22:51:04.949000Z</time>
      </trkpt>
      <trkpt lat="39.859444046091824" lon="116.47949049851972">
        <time>2026-08-12T22:51:16.949000Z</time>
      </trkpt>
      <trkpt lat="39.859385002903736" lon="116.47912916863554">
        <time>2026-08-12T22:51:28.949000Z</time>
      </trkpt>
      <trkpt lat="39.85932699024352" lon="116.47877787752887">
        <time>2026-08-12T22:51:41.049000Z</time>
      </trkpt>
      <trkpt lat="39.859279961130035" lon="116.47842056462144">
        <time>2026-08-12T22:51:53.049000Z</time>
      </trkpt>
      <trkpt lat="39.85924189266308" lon="116.47804920073604">
        <time>2026-08-12T22:52:05.149000Z</time>
      </trkpt>
      <trkpt lat="39.85923882981843" lon="116.47767984195521">
        <time>2026-08-12T22:52:17.249000Z</time>
      </trkpt>
      <trkpt lat="39.859266784352556" lon="116.47731650353116">
        <time>2026-08-12T22:52:29.449000Z</time>
      </trkpt>
      <trkpt lat="39.85929874045345" lon="116.47695316670658">
        <time>2026-08-12T22:52:41.649000Z</time>
      </trkpt>
      <trkpt lat="39.85934564587351" lon="116.47657176405338">
        <time>2026-08-12T22:52:53.749000Z</time>
      </trkpt>
      <trkpt lat="39.85944054209851" lon="116.47618734683148">
        <time>2026-08-12T22:53:05.949000Z</time>
      </trkpt>
      <trkpt lat="39.859508461969135" lon="116.47580996111198">
        <time>2026-08-12T22:53:17.949000Z</time>
      </trkpt>
      <trkpt lat="39.85959240874185" lon="116.47544160874827">
        <time>2026-08-12T22:53:29.949000Z</time>
      </trkpt>
      <trkpt lat="39.85967745151268" lon="116.47510637900301">
        <time>2026-08-12T22:53:42.049000Z</time>
      </trkpt>
      <trkpt lat="39.85974145165915" lon="116.47475509567177">
        <time>2026-08-12T22:53:54.049000Z</time>
      </trkpt>
      <trkpt lat="39.85981846152224" lon="116.47440682389747">
        <time>2026-08-12T22:54:06.149000Z</time>
      </trkpt>
      <trkpt lat="39.859894433704106" lon="116.47404450375467">
        <time>2026-08-12T22:54:18.249000Z</time>
      </trkpt>
      <trkpt lat="39.85997246442451" lon="116.4737022582795">
        <time>2026-08-12T22:54:30.249000Z</time>
      </trkpt>
      <trkpt lat="39.86005049424124" lon="116.47335901147842">
        <time>2026-08-12T22:54:42.449000Z</time>
      </trkpt>
      <trkpt lat="39.86012551492136" lon="116.47301175296798">
        <time>2026-08-12T22:54:54.549000Z</time>
      </trkpt>
      <trkpt lat="39.860174485694195" lon="116.47264543176503">
        <time>2026-08-12T22:55:06.849000Z</time>
      </trkpt>
      <trkpt lat="39.86021098671467" lon="116.47246779046885">
        <time>2026-08-12T22:55:12.949000Z</time>
      </trkpt>
      <trkpt lat="39.86034800927735" lon="116.47212053054413">
        <time>2026-08-12T22:55:24.949000Z</time>
      </trkpt>
      <trkpt lat="39.86044605845843" lon="116.47178130668428">
        <time>2026-08-12T22:55:36.949000Z</time>
      </trkpt>
      <trkpt lat="39.86051912221812" lon="116.47144610271083">
        <time>2026-08-12T22:55:48.949000Z</time>
      </trkpt>
      <trkpt lat="39.86066068808231" lon="116.47129253847835">
        <time>2026-08-12T22:55:57.949000Z</time>
      </trkpt>
      <trkpt lat="39.86095585018693" lon="116.47135673009208">
        <time>2026-08-12T22:56:12.949000Z</time>
      </trkpt>
      <trkpt lat="39.86128291866777" lon="116.47138779990192">
        <time>2026-08-12T22:56:27.949000Z</time>
      </trkpt>
      <trkpt lat="39.86134294325602" lon="116.47139782811686">
        <time>2026-08-12T22:56:30.949000Z</time>
      </trkpt>
      <trkpt lat="39.86139605464244" lon="116.47143896796977">
        <time>2026-08-12T22:56:33.949000Z</time>
      </trkpt>
      <trkpt lat="39.86143190773471" lon="116.47138677768658">
        <time>2026-08-12T22:56:36.949000Z</time>
      </trkpt>
      <trkpt lat="39.86143268757695" lon="116.47130749543436">
        <time>2026-08-12T22:56:39.949000Z</time>
      </trkpt>
      <trkpt lat="39.86137837589609" lon="116.47119409888221">
        <time>2026-08-12T22:56:42.949000Z</time>
      </trkpt>
      <trkpt lat="39.861088141338364" lon="116.47110381415476">
        <time>2026-08-12T22:56:54.949000Z</time>
      </trkpt>
      <trkpt lat="39.86080494827524" lon="116.47102858219372">
        <time>2026-08-12T22:57:06.949000Z</time>
      </trkpt>
      <trkpt lat="39.86051181425215" lon="116.47097442642806">
        <time>2026-08-12T22:57:18.949000Z</time>
      </trkpt>
      <trkpt lat="39.86046467511605" lon="116.47092325062954">
        <time>2026-08-12T22:57:21.949000Z</time>
      </trkpt>
      <trkpt lat="39.86046843047558" lon="116.47083493677927">
        <time>2026-08-12T22:57:24.949000Z</time>
      </trkpt>
      <trkpt lat="39.86051398114372" lon="116.47067335818697">
        <time>2026-08-12T22:57:30.949000Z</time>
      </trkpt>
      <trkpt lat="39.86052174223797" lon="116.47058705143984">
        <time>2026-08-12T22:57:33.949000Z</time>
      </trkpt>
      <trkpt lat="39.860598802081455" lon="116.4702478416622">
        <time>2026-08-12T22:57:45.949000Z</time>
      </trkpt>
      <trkpt lat="39.86067378697158" lon="116.46988053570189">
        <time>2026-08-12T22:57:58.049000Z</time>
      </trkpt>
      <trkpt lat="39.86073076719366" lon="116.46951022454941">
        <time>2026-08-12T22:58:09.949000Z</time>
      </trkpt>
      <trkpt lat="39.86077478922623" lon="116.4691539675553">
        <time>2026-08-12T22:58:22.049000Z</time>
      </trkpt>
      <trkpt lat="39.860845809553076" lon="116.46879670671301">
        <time>2026-08-12T22:58:34.149000Z</time>
      </trkpt>
      <trkpt lat="39.86090482763866" lon="116.46843744347301">
        <time>2026-08-12T22:58:46.249000Z</time>
      </trkpt>
      <trkpt lat="39.860956786117555" lon="116.46805510393494">
        <time>2026-08-12T22:58:58.349000Z</time>
      </trkpt>
      <trkpt lat="39.8610027967949" lon="116.46769083152537">
        <time>2026-08-12T22:59:10.549000Z</time>
      </trkpt>
      <trkpt lat="39.86106688776315" lon="116.46735566101746">
        <time>2026-08-12T22:59:22.849000Z</time>
      </trkpt>
      <trkpt lat="39.86106956556216" lon="116.46723624720248">
        <time>2026-08-12T22:59:25.849000Z</time>
      </trkpt>
      <trkpt lat="39.861159496505344" lon="116.46684086956868">
        <time>2026-08-12T22:59:37.949000Z</time>
      </trkpt>
      <trkpt lat="39.86124177547447" lon="116.46657393909895">
        <time>2026-08-12T22:59:46.949000Z</time>
      </trkpt>
      <trkpt lat="39.8612770451362" lon="116.46630199916393">
        <time>2026-08-12T22:59:55.949000Z</time>
      </trkpt>
      <trkpt lat="39.86134308978546" lon="116.46594576838629">
        <time>2026-08-12T23:00:07.949000Z</time>
      </trkpt>
      <trkpt lat="39.8613868893532" lon="116.4658715084943">
        <time>2026-08-12T23:00:10.949000Z</time>
      </trkpt>
      <trkpt lat="39.86165800834344" lon="116.46592164637089">
        <time>2026-08-12T23:00:22.949000Z</time>
      </trkpt>
      <trkpt lat="39.86193702792673" lon="116.46593465608015">
        <time>2026-08-12T23:00:34.949000Z</time>
      </trkpt>
      <trkpt lat="39.862208026559095" lon="116.4659396392892">
        <time>2026-08-12T23:00:46.949000Z</time>
      </trkpt>
      <trkpt lat="39.862494080619534" lon="116.46596569283285">
        <time>2026-08-12T23:00:58.949000Z</time>
      </trkpt>
      <trkpt lat="39.862769108539425" lon="116.46598171337766">
        <time>2026-08-12T23:01:10.949000Z</time>
      </trkpt>
      <trkpt lat="39.86305014152026" lon="116.46599974005711">
        <time>2026-08-12T23:01:23.049000Z</time>
      </trkpt>
      <trkpt lat="39.86323330574262" lon="116.46606494077055">
        <time>2026-08-12T23:01:32.049000Z</time>
      </trkpt>
      <trkpt lat="39.86352428198463" lon="116.46606189395445">
        <time>2026-08-12T23:01:44.149000Z</time>
      </trkpt>
      <trkpt lat="39.863836342873455" lon="116.46609095465277">
        <time>2026-08-12T23:01:56.249000Z</time>
      </trkpt>
      <trkpt lat="39.86390439281685" lon="116.46611101498239">
        <time>2026-08-12T23:01:59.349000Z</time>
      </trkpt>
      <trkpt lat="39.86393262728168" lon="116.46619931456965">
        <time>2026-08-12T23:02:02.349000Z</time>
      </trkpt>
      <trkpt lat="39.86387861888678" lon="116.46656859122562">
        <time>2026-08-12T23:02:14.649000Z</time>
      </trkpt>
      <trkpt lat="39.86383131366626" lon="116.4668264861474">
        <time>2026-08-12T23:02:23.749000Z</time>
      </trkpt>
      <trkpt lat="39.863800409098054" lon="116.4672328944936">
        <time>2026-08-12T23:02:35.949000Z</time>
      </trkpt>
      <trkpt lat="39.86378841204991" lon="116.46760418282753">
        <time>2026-08-12T23:02:47.949000Z</time>
      </trkpt>
      <trkpt lat="39.86376037794482" lon="116.46796042430594">
        <time>2026-08-12T23:03:00.049000Z</time>
      </trkpt>
      <trkpt lat="39.8637233605857" lon="116.4683216876048">
        <time>2026-08-12T23:03:12.049000Z</time>
      </trkpt>
      <trkpt lat="39.86368637597515" lon="116.46869399274463">
        <time>2026-08-12T23:03:24.049000Z</time>
      </trkpt>
      <trkpt lat="39.86366439060328" lon="116.46906529587481">
        <time>2026-08-12T23:03:36.049000Z</time>
      </trkpt>
      <trkpt lat="39.86364138877349" lon="116.46942957775865">
        <time>2026-08-12T23:03:48.149000Z</time>
      </trkpt>
      <trkpt lat="39.86361241467936" lon="116.46980289536937">
        <time>2026-08-12T23:04:00.249000Z</time>
      </trkpt>
      <trkpt lat="39.8635978955168" lon="116.46997751291369">
        <time>2026-08-12T23:04:06.249000Z</time>
      </trkpt>
      <trkpt lat="39.86352526400612" lon="116.47010998958274">
        <time>2026-08-12T23:04:12.449000Z</time>
      </trkpt>
      <trkpt lat="39.863521524029636" lon="116.47020432326795">
        <time>2026-08-12T23:04:15.449000Z</time>
      </trkpt>
      <trkpt lat="39.86347981670777" lon="116.4703097009419">
        <time>2026-08-12T23:04:21.649000Z</time>
      </trkpt>
      <trkpt lat="39.863442915906184" lon="116.47070711251561">
        <time>2026-08-12T23:04:33.849000Z</time>
      </trkpt>
      <trkpt lat="39.86342895283117" lon="116.4710814427524">
        <time>2026-08-12T23:04:45.949000Z</time>
      </trkpt>
      <trkpt lat="39.86341618722365" lon="116.47116574395707">
        <time>2026-08-12T23:04:48.949000Z</time>
      </trkpt>
      <trkpt lat="39.86333526952584" lon="116.47119385398778">
        <time>2026-08-12T23:04:51.949000Z</time>
      </trkpt>
      <trkpt lat="39.86305326529603" lon="116.47118686430288">
        <time>2026-08-12T23:05:03.949000Z</time>
      </trkpt>
      <trkpt lat="39.862766300327934" lon="116.47119392519329">
        <time>2026-08-12T23:05:15.949000Z</time>
      </trkpt>
      <trkpt lat="39.862481293528525" lon="116.47118593231538">
        <time>2026-08-12T23:05:27.949000Z</time>
      </trkpt>
      <trkpt lat="39.862113302404914" lon="116.4711819640954">
        <time>2026-08-12T23:05:42.949000Z</time>
      </trkpt>
      <trkpt lat="39.861898311331764" lon="116.4711809874321">
        <time>2026-08-12T23:05:51.949000Z</time>
      </trkpt>
      <trkpt lat="39.86161526276182" lon="116.4711579407969">
        <time>2026-08-12T23:06:03.949000Z</time>
      </trkpt>
      <trkpt lat="39.861320234359496" lon="116.47114192064163">
        <time>2026-08-12T23:06:15.949000Z</time>
      </trkpt>
      <trkpt lat="39.86103206374493" lon="116.47107471776246">
        <time>2026-08-12T23:06:27.949000Z</time>
      </trkpt>
      <trkpt lat="39.86075591482125" lon="116.47101554199342">
        <time>2026-08-12T23:06:39.949000Z</time>
      </trkpt>
      <trkpt lat="39.860531910439285" lon="116.47100954864149">
        <time>2026-08-12T23:06:48.949000Z</time>
      </trkpt>
      <trkpt lat="39.86046879438145" lon="116.47096640330632">
        <time>2026-08-12T23:06:51.949000Z</time>
      </trkpt>
      <trkpt lat="39.86045951427921" lon="116.47086504470974">
        <time>2026-08-12T23:06:54.949000Z</time>
      </trkpt>
      <trkpt lat="39.860522839216436" lon="116.47062217572585">
        <time>2026-08-12T23:07:03.949000Z</time>
      </trkpt>
      <trkpt lat="39.86054833346697" lon="116.47043952583871">
        <time>2026-08-12T23:07:09.949000Z</time>
      </trkpt>
      <trkpt lat="39.86062834988963" lon="116.47008426014263">
        <time>2026-08-12T23:07:21.949000Z</time>
      </trkpt>
      <trkpt lat="39.86067935102697" lon="116.46972197625128">
        <time>2026-08-12T23:07:33.949000Z</time>
      </trkpt>
      <trkpt lat="39.86074841144072" lon="116.46938076722665">
        <time>2026-08-12T23:07:45.949000Z</time>
      </trkpt>
      <trkpt lat="39.86080442001544" lon="116.46901949224385">
        <time>2026-08-12T23:07:57.949000Z</time>
      </trkpt>
      <trkpt lat="39.86087144972526" lon="116.46866524359262">
        <time>2026-08-12T23:08:09.949000Z</time>
      </trkpt>
      <trkpt lat="39.860928714412815" lon="116.46839629685705">
        <time>2026-08-12T23:08:18.949000Z</time>
      </trkpt>
      <trkpt lat="39.8609379641386" lon="116.46812033345506">
        <time>2026-08-12T23:08:28.049000Z</time>
      </trkpt>
      <trkpt lat="39.86098400963185" lon="116.46776910576831">
        <time>2026-08-12T23:08:40.049000Z</time>
      </trkpt>
      <trkpt lat="39.86105904797817" lon="116.46741486713849">
        <time>2026-08-12T23:08:52.149000Z</time>
      </trkpt>
      <trkpt lat="39.8611160710473" lon="116.46705360970633">
        <time>2026-08-12T23:09:04.149000Z</time>
      </trkpt>
      <trkpt lat="39.86120714352263" lon="116.46671041366156">
        <time>2026-08-12T23:09:16.249000Z</time>
      </trkpt>
      <trkpt lat="39.861280176550544" lon="116.4663511677774">
        <time>2026-08-12T23:09:28.549000Z</time>
      </trkpt>
      <trkpt lat="39.86133322420346" lon="116.46599594159935">
        <time>2026-08-12T23:09:40.749000Z</time>
      </trkpt>
      <trkpt lat="39.861355008833435" lon="116.46591566373876">
        <time>2026-08-12T23:09:43.749000Z</time>
      </trkpt>
      <trkpt lat="39.86141189333751" lon="116.46587351223243">
        <time>2026-08-12T23:09:46.749000Z</time>
      </trkpt>
      <trkpt lat="39.861736030852875" lon="116.46593167097011">
        <time>2026-08-12T23:10:01.849000Z</time>
      </trkpt>
      <trkpt lat="39.862043984629175" lon="116.4659205945301">
        <time>2026-08-12T23:10:13.849000Z</time>
      </trkpt>
      <trkpt lat="39.86229907782738" lon="116.46596070009014">
        <time>2026-08-12T23:10:25.949000Z</time>
      </trkpt>
      <trkpt lat="39.86260410142292" lon="116.46597571343153">
        <time>2026-08-12T23:10:37.949000Z</time>
      </trkpt>
      <trkpt lat="39.86288709143423" lon="116.4659776848226">
        <time>2026-08-12T23:10:49.949000Z</time>
      </trkpt>
      <trkpt lat="39.863102133350225" lon="116.4659977266563">
        <time>2026-08-12T23:10:58.949000Z</time>
      </trkpt>
      <trkpt lat="39.86322527402258" lon="116.46605290047373">
        <time>2026-08-12T23:11:04.949000Z</time>
      </trkpt>
      <trkpt lat="39.86351824747754" lon="116.46604884996623">
        <time>2026-08-12T23:11:16.949000Z</time>
      </trkpt>
      <trkpt lat="39.86376229594341" lon="116.46607189852853">
        <time>2026-08-12T23:11:25.949000Z</time>
      </trkpt>
      <trkpt lat="39.8638145075855" lon="116.46615216745823">
        <time>2026-08-12T23:11:28.949000Z</time>
      </trkpt>
      <trkpt lat="39.86381978362181" lon="116.46625552172854">
        <time>2026-08-12T23:11:31.949000Z</time>
      </trkpt>
      <trkpt lat="39.86378803502714" lon="116.46634884642776">
        <time>2026-08-12T23:11:34.949000Z</time>
      </trkpt>
      <trkpt lat="39.86383426091786" lon="116.46643413396414">
        <time>2026-08-12T23:11:40.949000Z</time>
      </trkpt>
      <trkpt lat="39.863895069551496" lon="116.46636388475693">
        <time>2026-08-12T23:11:43.949000Z</time>
      </trkpt>
      <trkpt lat="39.863943468461535" lon="116.46614010995344">
        <time>2026-08-12T23:11:49.949000Z</time>
      </trkpt>
      <trkpt lat="39.86398824893644" lon="116.46605882544368">
        <time>2026-08-12T23:11:52.949000Z</time>
      </trkpt>
      <trkpt lat="39.864042181731456" lon="116.46603473607888">
        <time>2026-08-12T23:11:55.949000Z</time>
      </trkpt>
      <trkpt lat="39.864180278800355" lon="116.4660738529953">
        <time>2026-08-12T23:12:01.949000Z</time>
      </trkpt>
      <trkpt lat="39.864450226780434" lon="116.46605977094947">
        <time>2026-08-12T23:12:13.949000Z</time>
      </trkpt>
      <trkpt lat="39.864737248899566" lon="116.46607378314575">
        <time>2026-08-12T23:12:25.949000Z</time>
      </trkpt>
      <trkpt lat="39.86502930562317" lon="116.46610083947559">
        <time>2026-08-12T23:12:37.949000Z</time>
      </trkpt>
      <trkpt lat="39.86524836628936" lon="116.46612790498003">
        <time>2026-08-12T23:12:46.949000Z</time>
      </trkpt>
      <trkpt lat="39.86540727737938" lon="116.4660977817435">
        <time>2026-08-12T23:12:52.949000Z</time>
      </trkpt>
      <trkpt lat="39.86567142146831" lon="116.46615695181067">
        <time>2026-08-12T23:13:04.949000Z</time>
      </trkpt>
      <trkpt lat="39.866010478506595" lon="116.46618500575318">
        <time>2026-08-12T23:13:20.049000Z</time>
      </trkpt>
      <trkpt lat="39.86628356324857" lon="116.4662220990089">
        <time>2026-08-12T23:13:32.049000Z</time>
      </trkpt>
      <trkpt lat="39.8664275395048" lon="116.46621606027348">
        <time>2026-08-12T23:13:38.049000Z</time>
      </trkpt>
      <trkpt lat="39.866495576141524" lon="116.46623110343994">
        <time>2026-08-12T23:13:41.049000Z</time>
      </trkpt>
      <trkpt lat="39.866552790528026" lon="116.46631237554507">
        <time>2026-08-12T23:13:44.049000Z</time>
      </trkpt>
      <trkpt lat="39.8665673137722" lon="116.4665080467888">
        <time>2026-08-12T23:13:50.049000Z</time>
      </trkpt>
      <trkpt lat="39.86654055194275" lon="116.46659635421983">
        <time>2026-08-12T23:13:53.049000Z</time>
      </trkpt>
      <trkpt lat="39.866537055784384" lon="116.4667840015016">
        <time>2026-08-12T23:13:59.049000Z</time>
      </trkpt>
      <trkpt lat="39.86658346596903" lon="116.46693752560643">
        <time>2026-08-12T23:14:05.149000Z</time>
      </trkpt>
      <trkpt lat="39.86665133825342" lon="116.46689135770802">
        <time>2026-08-12T23:14:08.149000Z</time>
      </trkpt>
      <trkpt lat="39.866687267073885" lon="116.4664929799361">
        <time>2026-08-12T23:14:20.149000Z</time>
      </trkpt>
      <trkpt lat="39.866712720297166" lon="116.46628927616823">
        <time>2026-08-12T23:14:26.249000Z</time>
      </trkpt>
      <trkpt lat="39.86674252816632" lon="116.46621802766224">
        <time>2026-08-12T23:14:29.249000Z</time>
      </trkpt>
      <trkpt lat="39.86707056178367" lon="116.46623705200972">
        <time>2026-08-12T23:14:44.549000Z</time>
      </trkpt>
      <trkpt lat="39.86734353930819" lon="116.46623400743277">
        <time>2026-08-12T23:14:56.849000Z</time>
      </trkpt>
      <trkpt lat="39.86770057951453" lon="116.46625603849274">
        <time>2026-08-12T23:15:11.949000Z</time>
      </trkpt>
      <trkpt lat="39.86799762024125" lon="116.46627707364279">
        <time>2026-08-12T23:15:24.049000Z</time>
      </trkpt>
      <trkpt lat="39.86806062498048" lon="116.46628007608528">
        <time>2026-08-12T23:15:27.049000Z</time>
      </trkpt>
      <trkpt lat="39.86828913200454" lon="116.46622865662225">
        <time>2026-08-12T23:15:36.149000Z</time>
      </trkpt>
      <trkpt lat="39.86858916751629" lon="116.46618497098547">
        <time>2026-08-12T23:15:48.249000Z</time>
      </trkpt>
      <trkpt lat="39.868863499898126" lon="116.46620948585733">
        <time>2026-08-12T23:16:00.349000Z</time>
      </trkpt>
      <trkpt lat="39.869192388531495" lon="116.46621370660965">
        <time>2026-08-12T23:16:15.749000Z</time>
      </trkpt>
      <trkpt lat="39.86941392972687" lon="116.46619389971829">
        <time>2026-08-12T23:16:24.949000Z</time>
      </trkpt>
      <trkpt lat="39.869626358946356" lon="116.46618777847927">
        <time>2026-08-12T23:16:33.949000Z</time>
      </trkpt>
      <trkpt lat="39.869784430095365" lon="116.46624072541535">
        <time>2026-08-12T23:16:39.949000Z</time>
      </trkpt>
      <trkpt lat="39.86984057479996" lon="116.46629590801244">
        <time>2026-08-12T23:16:42.949000Z</time>
      </trkpt>
      <trkpt lat="39.86973961496122" lon="116.46630896551135">
        <time>2026-08-12T23:16:48.949000Z</time>
      </trkpt>
      <trkpt lat="39.86959357692915" lon="116.46629192519818">
        <time>2026-08-12T23:16:54.949000Z</time>
      </trkpt>
      <trkpt lat="39.869452388370995" lon="116.46621869123081">
        <time>2026-08-12T23:17:00.949000Z</time>
      </trkpt>
      <trkpt lat="39.86917529285312" lon="116.46617758469792">
        <time>2026-08-12T23:17:12.949000Z</time>
      </trkpt>
      <trkpt lat="39.868850373642246" lon="116.4661583127526">
        <time>2026-08-12T23:17:28.049000Z</time>
      </trkpt>
      <trkpt lat="39.86849528554491" lon="116.46616161486611">
        <time>2026-08-12T23:17:43.149000Z</time>
      </trkpt>
      <trkpt lat="39.86821556316994" lon="116.4661438735638">
        <time>2026-08-12T23:17:55.149000Z</time>
      </trkpt>
      <trkpt lat="39.86792710714461" lon="116.46609360646018">
        <time>2026-08-12T23:18:07.349000Z</time>
      </trkpt>
      <trkpt lat="39.867854683526446" lon="116.46607524231253">
        <time>2026-08-12T23:18:10.449000Z</time>
      </trkpt>
      <trkpt lat="39.86778315938843" lon="116.46607090303037">
        <time>2026-08-12T23:18:13.449000Z</time>
      </trkpt>
      <trkpt lat="39.86770499686502" lon="116.4661166553522">
        <time>2026-08-12T23:18:16.549000Z</time>
      </trkpt>
      <trkpt lat="39.867629633607024" lon="116.46613370149548">
        <time>2026-08-12T23:18:19.649000Z</time>
      </trkpt>
      <trkpt lat="39.867563329199555" lon="116.46615972486686">
        <time>2026-08-12T23:18:22.749000Z</time>
      </trkpt>
      <trkpt lat="39.86728437878683" lon="116.4661728046398">
        <time>2026-08-12T23:18:34.949000Z</time>
      </trkpt>
      <trkpt lat="39.86695845234623" lon="116.466193917874">
        <time>2026-08-12T23:18:49.949000Z</time>
      </trkpt>
      <trkpt lat="39.86674950096759" lon="116.46620799232433">
        <time>2026-08-12T23:18:58.949000Z</time>
      </trkpt>
      <trkpt lat="39.86662944831379" lon="116.4661859315709">
        <time>2026-08-12T23:19:04.949000Z</time>
      </trkpt>
      <trkpt lat="39.86646649182972" lon="116.46619899680329">
        <time>2026-08-12T23:19:10.949000Z</time>
      </trkpt>
      <trkpt lat="39.86619337491302" lon="116.46614986223753">
        <time>2026-08-12T23:19:22.949000Z</time>
      </trkpt>
      <trkpt lat="39.86586338174316" lon="116.46614588984536">
        <time>2026-08-12T23:19:37.949000Z</time>
      </trkpt>
      <trkpt lat="39.86579537463975" lon="116.46614188459667">
        <time>2026-08-12T23:19:40.949000Z</time>
      </trkpt>
      <trkpt lat="39.86550922610723" lon="116.46605957553443">
        <time>2026-08-12T23:19:52.949000Z</time>
      </trkpt>
      <trkpt lat="39.86523224384608" lon="116.466081748608">
        <time>2026-08-12T23:20:04.949000Z</time>
      </trkpt>
      <trkpt lat="39.86494412260489" lon="116.46603060919921">
        <time>2026-08-12T23:20:16.949000Z</time>
      </trkpt>
      <trkpt lat="39.864647036740635" lon="116.46599251570767">
        <time>2026-08-12T23:20:28.949000Z</time>
      </trkpt>
      <trkpt lat="39.86436700089098" lon="116.46597348546797">
        <time>2026-08-12T23:20:40.949000Z</time>
      </trkpt>
      <trkpt lat="39.86416111907925" lon="116.46601364889965">
        <time>2026-08-12T23:20:49.949000Z</time>
      </trkpt>
      <trkpt lat="39.86395005544663" lon="116.46598557903708">
        <time>2026-08-12T23:20:58.949000Z</time>
      </trkpt>
      <trkpt lat="39.8639112450441" lon="116.4660558247746">
        <time>2026-08-12T23:21:01.949000Z</time>
      </trkpt>
      <trkpt lat="39.863957473070165" lon="116.46614211508572">
        <time>2026-08-12T23:21:04.949000Z</time>
      </trkpt>
      <trkpt lat="39.864121418667395" lon="116.46612503597716">
        <time>2026-08-12T23:21:10.949000Z</time>
      </trkpt>
      <trkpt lat="39.86416727146033" lon="116.46607084429927">
        <time>2026-08-12T23:21:13.949000Z</time>
      </trkpt>
      <trkpt lat="39.86439925095466" lon="116.46606780487991">
        <time>2026-08-12T23:21:22.949000Z</time>
      </trkpt>
      <trkpt lat="39.86451818830027" lon="116.46604671768145">
        <time>2026-08-12T23:21:28.949000Z</time>
      </trkpt>
      <trkpt lat="39.86472425763557" lon="116.46607679510258">
        <time>2026-08-12T23:21:37.949000Z</time>
      </trkpt>
      <trkpt lat="39.865018263329624" lon="116.46608478577224">
        <time>2026-08-12T23:21:49.949000Z</time>
      </trkpt>
      <trkpt lat="39.865305365924826" lon="116.4661289012756">
        <time>2026-08-12T23:22:01.949000Z</time>
      </trkpt>
      <trkpt lat="39.865523289950595" lon="116.46610479129676">
        <time>2026-08-12T23:22:11.049000Z</time>
      </trkpt>
      <trkpt lat="39.865846433597234" lon="116.46616495742103">
        <time>2026-08-12T23:22:26.049000Z</time>
      </trkpt>
      <trkpt lat="39.86600051390871" lon="116.46619805179728">
        <time>2026-08-12T23:22:32.149000Z</time>
      </trkpt>
      <trkpt lat="39.86618144527453" lon="116.46617595330272">
        <time>2026-08-12T23:22:41.249000Z</time>
      </trkpt>
      <trkpt lat="39.86655770167084" lon="116.46627926112684">
        <time>2026-08-12T23:22:59.349000Z</time>
      </trkpt>
      <trkpt lat="39.866710725772116" lon="116.4662912833152">
        <time>2026-08-12T23:23:05.449000Z</time>
      </trkpt>
      <trkpt lat="39.866817652998" lon="116.46626618370249">
        <time>2026-08-12T23:23:08.449000Z</time>
      </trkpt>
    </trkseg>
  </trk>
</gpx>