<?xml version="1.0" encoding="UTF-8"?>
<gpx xmlns="http://www.topografix.com/GPX/1/1" xmlns:gpxtpx="http://www.garmin.com/xmlschemas/TrackPointExtension/v1" xmlns:xsi="http://www.w3.org/2001/XMLSchema-instance" xsi:schemaLocation="http://www.topografix.com/GPX/1/1 http://www.topografix.com/GPX/1/1/gpx.xsd" version="1.1" creator="gpx.py -- https://github.com/tkrajina/gpxpy">
  <trk>
    <name>gpx from keep</name>
    <type>Run</type>
    <trkseg>
      <trkpt lat="39.890344346675164" lon="116.34105884394378">
        <time>2026-07-23T22:21:48.828000Z</time>
      </trkpt>
      <trkpt lat="39.890390764117505" lon="116.34082334301435">
        <time>2026-07-23T22:21:48.828000Z</time>
      </trkpt>
      <trkpt lat="39.89032197031139" lon="116.34070959597098">
        <time>2026-07-23T22:21:48.828000Z</time>
      </trkpt>
      <trkpt lat="39.89029947965761" lon="116.34042521046067">
        <time>2026-07-23T22:21:48.828000Z</time>
      </trkpt>
      <trkpt lat="39.890338551056004" lon="116.34038429363028">
        <time>2026-07-23T22:21:48.828000Z</time>
      </trkpt>
      <trkpt lat="39.89043236456917" lon="116.34048606263539">
        <time>2026-07-23T22:21:48.828000Z</time>
      </trkpt>
      <trkpt lat="39.89056926005488" lon="116.34054092724625">
        <time>2026-07-23T22:21:48.828000Z</time>
      </trkpt>
      <trkpt lat="39.89071721392383" lon="116.34056286132744">
        <time>2026-07-23T22:21:48.828000Z</time>
      </trkpt>
      <trkpt lat="39.8906616874345" lon="116.34085923168578">
        <time>2026-07-23T22:21:48.828000Z</time>
      </trkpt>
      <trkpt lat="39.890667957144636" lon="116.34126935243349">
        <time>2026-07-23T22:21:48.828000Z</time>
      </trkpt>
      <trkpt lat="39.89070027590143" lon="116.34165253035141">
        <time>2026-07-23T22:21:48.828000Z</time>
      </trkpt>
      <trkpt lat="39.890711656031854" lon="116.34200278358821">
        <time>2026-07-23T22:21:48.828000Z</time>
      </trkpt>
      <trkpt lat="39.890729547760294" lon="116.34206365203164">
        <time>2026-07-23T22:21:48.828000Z</time>
      </trkpt>
      <trkpt lat="39.89080737165461" lon="116.34216143462007">
        <time>2026-07-23T22:21:48.828000Z</time>
      </trkpt>
      <trkpt lat="39.89109743207191" lon="116.342119486886">
        <time>2026-07-23T22:21:48.828000Z</time>
      </trkpt>
      <trkpt lat="39.89143745852945" lon="116.34209549473364">
        <time>2026-07-23T22:21:48.828000Z</time>
      </trkpt>
      <trkpt lat="39.891547523850235" lon="116.34205556557053">
        <time>2026-07-23T22:21:48.828000Z</time>
      </trkpt>
      <trkpt lat="39.89162743563906" lon="116.34210345376796">
        <time>2026-07-23T22:21:48.828000Z</time>
      </trkpt>
      <trkpt lat="39.89192137098743" lon="116.34213235518267">
        <time>2026-07-23T22:21:48.828000Z</time>
      </trkpt>
      <trkpt lat="39.89206231520043" lon="116.34216027807295">
        <time>2026-07-23T22:21:48.828000Z</time>
      </trkpt>
      <trkpt lat="39.89236437514417" lon="116.34211832882221">
        <time>2026-07-23T22:21:48.828000Z</time>
      </trkpt>
      <trkpt lat="39.89266139487807" lon="116.34209933151428">
        <time>2026-07-23T22:21:48.828000Z</time>
      </trkpt>
      <trkpt lat="39.892731432138376" lon="116.34207637138711">
        <time>2026-07-23T22:21:48.828000Z</time>
      </trkpt>
      <trkpt lat="39.89278055843999" lon="116.34200351990063">
        <time>2026-07-23T22:21:48.828000Z</time>
      </trkpt>
      <trkpt lat="39.89290365850087" lon="116.34194363158285">
        <time>2026-07-23T22:21:48.828000Z</time>
      </trkpt>
      <trkpt lat="39.89318563141863" lon="116.34195157896191">
        <time>2026-07-23T22:21:48.828000Z</time>
      </trkpt>
      <trkpt lat="39.8934636380259" lon="116.34194056714644">
        <time>2026-07-23T22:21:48.828000Z</time>
      </trkpt>
      <trkpt lat="39.89353161727631" lon="116.34195053733828">
        <time>2026-07-23T22:21:48.828000Z</time>
      </trkpt>
      <trkpt lat="39.89347257416682" lon="116.34197648965805">
        <time>2026-07-23T22:21:48.828000Z</time>
      </trkpt>
      <trkpt lat="39.89318260688337" lon="116.34196554964946">
        <time>2026-07-23T22:21:48.828000Z</time>
      </trkpt>
      <trkpt lat="39.89306259654578" lon="116.34197454573533">
        <time>2026-07-23T22:21:48.828000Z</time>
      </trkpt>
      <trkpt lat="39.89298937154428" lon="116.34230057602473">
        <time>2026-07-23T22:21:48.828000Z</time>
      </trkpt>
      <trkpt lat="39.89302260041419" lon="116.34239784216764">
        <time>2026-07-23T22:21:48.828000Z</time>
      </trkpt>
      <trkpt lat="39.89320999470644" lon="116.34264599932068">
        <time>2026-07-23T22:21:48.828000Z</time>
      </trkpt>
      <trkpt lat="39.89325286716854" lon="116.34285581032577">
        <time>2026-07-23T22:21:48.828000Z</time>
      </trkpt>
      <trkpt lat="39.89329609714765" lon="116.34282072464379">
        <time>2026-07-23T22:21:48.828000Z</time>
      </trkpt>
      <trkpt lat="39.893356094389155" lon="116.34282071705636">
        <time>2026-07-23T22:21:48.828000Z</time>
      </trkpt>
      <trkpt lat="39.893413144234636" lon="116.34279077298602">
        <time>2026-07-23T22:21:48.828000Z</time>
      </trkpt>
      <trkpt lat="39.893204230819755" lon="116.34274689204894">
        <time>2026-07-23T22:21:48.828000Z</time>
      </trkpt>
      <trkpt lat="39.89296821893587" lon="116.3427598945191">
        <time>2026-07-23T22:21:48.828000Z</time>
      </trkpt>
      <trkpt lat="39.89291014988762" lon="116.34280081554533">
        <time>2026-07-23T22:21:48.828000Z</time>
      </trkpt>
      <trkpt lat="39.892820752166784" lon="116.34303034324458">
        <time>2026-07-23T22:21:48.828000Z</time>
      </trkpt>
      <trkpt lat="39.892809606137725" lon="116.34311416829314">
        <time>2026-07-23T22:21:48.828000Z</time>
      </trkpt>
      <trkpt lat="39.892834867066945" lon="116.3435372770456">
        <time>2026-07-23T22:21:48.828000Z</time>
      </trkpt>
      <trkpt lat="39.892829418051654" lon="116.3437957370571">
        <time>2026-07-23T22:21:48.828000Z</time>
      </trkpt>
      <trkpt lat="39.89279329329484" lon="116.34386858948285">
        <time>2026-07-23T22:21:48.828000Z</time>
      </trkpt>
      <trkpt lat="39.89250231017822" lon="116.34386663045686">
        <time>2026-07-23T22:21:48.828000Z</time>
      </trkpt>
      <trkpt lat="39.89222531258421" lon="116.34387265299426">
        <time>2026-07-23T22:21:48.828000Z</time>
      </trkpt>
      <trkpt lat="39.8919333035855" lon="116.34388566284915">
        <time>2026-07-23T22:21:48.828000Z</time>
      </trkpt>
      <trkpt lat="39.89165727829228" lon="116.34390765194156">
        <time>2026-07-23T22:21:48.828000Z</time>
      </trkpt>
      <trkpt lat="39.89151418112525" lon="116.34396754512485">
        <time>2026-07-23T22:21:48.828000Z</time>
      </trkpt>
      <trkpt lat="39.89151866757746" lon="116.34368713022323">
        <time>2026-07-23T22:21:48.828000Z</time>
      </trkpt>
      <trkpt lat="39.89117968677688" lon="116.34368517727157">
        <time>2026-07-23T22:21:48.828000Z</time>
      </trkpt>
      <trkpt lat="39.89089270011472" lon="116.34368521356897">
        <time>2026-07-23T22:21:48.828000Z</time>
      </trkpt>
      <trkpt lat="39.89061475988203" lon="116.34365830508129">
        <time>2026-07-23T22:21:48.828000Z</time>
      </trkpt>
      <trkpt lat="39.890325794166614" lon="116.3436463666812">
        <time>2026-07-23T22:21:48.828000Z</time>
      </trkpt>
      <trkpt lat="39.89007478332609" lon="116.34365937128611">
        <time>2026-07-23T22:21:48.828000Z</time>
      </trkpt>
      <trkpt lat="39.88975784324447" lon="116.34363346565468">
        <time>2026-07-23T22:21:48.828000Z</time>
      </trkpt>
      <trkpt lat="39.88946783946393" lon="116.34364348145057">
        <time>2026-07-23T22:21:48.828000Z</time>
      </trkpt>
      <trkpt lat="39.8891768721849" lon="116.34363254121669">
        <time>2026-07-23T22:21:48.828000Z</time>
      </trkpt>
      <trkpt lat="39.888891892498705" lon="116.34362858560935">
        <time>2026-07-23T22:21:48.828000Z</time>
      </trkpt>
      <trkpt lat="39.88860290781377" lon="116.34362762424351">
        <time>2026-07-23T22:21:48.828000Z</time>
      </trkpt>
      <trkpt lat="39.888282900316426" lon="116.34364063756696">
        <time>2026-07-23T22:21:48.828000Z</time>
      </trkpt>
      <trkpt lat="39.88799121773832" lon="116.34367731896823">
        <time>2026-07-23T22:21:48.828000Z</time>
      </trkpt>
      <trkpt lat="39.88790291828254" lon="116.34364443737734">
        <time>2026-07-23T22:21:48.828000Z</time>
      </trkpt>
      <trkpt lat="39.88781905875067" lon="116.34362444232276">
        <time>2026-07-23T22:21:48.828000Z</time>
      </trkpt>
      <trkpt lat="39.88750199443277" lon="116.34360780523234">
        <time>2026-07-23T22:21:48.828000Z</time>
      </trkpt>
      <trkpt lat="39.88716395836715" lon="116.3436377853299">
        <time>2026-07-23T22:21:48.828000Z</time>
      </trkpt>
      <trkpt lat="39.886882995975725" lon="116.34362385009236">
        <time>2026-07-23T22:21:48.828000Z</time>
      </trkpt>
      <trkpt lat="39.88661202271858" lon="116.34361590106413">
        <time>2026-07-23T22:21:48.828000Z</time>
      </trkpt>
      <trkpt lat="39.88633203428866" lon="116.34361693438032">
        <time>2026-07-23T22:21:48.828000Z</time>
      </trkpt>
      <trkpt lat="39.8861559906075" lon="116.34364689399864">
        <time>2026-07-23T22:21:48.828000Z</time>
      </trkpt>
      <trkpt lat="39.88600005182466" lon="116.3436159784474">
        <time>2026-07-23T22:21:48.828000Z</time>
      </trkpt>
      <trkpt lat="39.88570006091878" lon="116.34361901011523">
        <time>2026-07-23T22:21:48.828000Z</time>
      </trkpt>
      <trkpt lat="39.885410093852805" lon="116.34360806975289">
        <time>2026-07-23T22:21:48.828000Z</time>
      </trkpt>
      <trkpt lat="39.88512407975924" lon="116.34362407250356">
        <time>2026-07-23T22:21:48.828000Z</time>
      </trkpt>
      <trkpt lat="39.88483612478538" lon="116.34360614650404">
        <time>2026-07-23T22:21:48.828000Z</time>
      </trkpt>
      <trkpt lat="39.88455214360888" lon="116.3436031886764">
        <time>2026-07-23T22:21:48.828000Z</time>
      </trkpt>
      <trkpt lat="39.88417013939358" lon="116.34361620982617">
        <time>2026-07-23T22:21:48.828000Z</time>
      </trkpt>
      <trkpt lat="39.88389019972598" lon="116.34358930161311">
        <time>2026-07-23T22:21:48.828000Z</time>
      </trkpt>
      <trkpt lat="39.883612159315526" lon="116.34362027202178">
        <time>2026-07-23T22:21:48.828000Z</time>
      </trkpt>
      <trkpt lat="39.88333120584702" lon="116.34360134722381">
        <time>2026-07-23T22:21:48.828000Z</time>
      </trkpt>
      <trkpt lat="39.88306021373321" lon="116.34360437522005">
        <time>2026-07-23T22:21:48.828000Z</time>
      </trkpt>
      <trkpt lat="39.88272920718842" lon="116.34361738991996">
        <time>2026-07-23T22:21:48.828000Z</time>
      </trkpt>
      <trkpt lat="39.88245723078327" lon="116.34361143683554">
        <time>2026-07-23T22:21:48.828000Z</time>
      </trkpt>
      <trkpt lat="39.8821272190356" lon="116.34362744514652">
        <time>2026-07-23T22:21:48.828000Z</time>
      </trkpt>
      <trkpt lat="39.88178125321271" lon="116.34361750976684">
        <time>2026-07-23T22:21:48.828000Z</time>
      </trkpt>
      <trkpt lat="39.88150725440997" lon="116.34362452978961">
        <time>2026-07-23T22:21:48.828000Z</time>
      </trkpt>
      <trkpt lat="39.88122325264492" lon="116.34363354690183">
        <time>2026-07-23T22:21:48.828000Z</time>
      </trkpt>
      <trkpt lat="39.88093820584728" lon="116.34366850987402">
        <time>2026-07-23T22:21:48.828000Z</time>
      </trkpt>
      <trkpt lat="39.880650206060366" lon="116.3436765295864">
        <time>2026-07-23T22:21:48.828000Z</time>
      </trkpt>
      <trkpt lat="39.88032114588406" lon="116.3437204793779">
        <time>2026-07-23T22:21:48.828000Z</time>
      </trkpt>
      <trkpt lat="39.88003113758078" lon="116.34373348892295">
        <time>2026-07-23T22:21:48.828000Z</time>
      </trkpt>
      <trkpt lat="39.87974412048874" lon="116.34375148766563">
        <time>2026-07-23T22:21:48.828000Z</time>
      </trkpt>
      <trkpt lat="39.87945407931365" lon="116.34378345760823">
        <time>2026-07-23T22:21:48.828000Z</time>
      </trkpt>
      <trkpt lat="39.8791730533228" lon="116.3438064451901">
        <time>2026-07-23T22:21:48.828000Z</time>
      </trkpt>
      <trkpt lat="39.87882904779389" lon="116.34381946158352">
        <time>2026-07-23T22:21:48.828000Z</time>
      </trkpt>
      <trkpt lat="39.878545025474864" lon="116.34384045372809">
        <time>2026-07-23T22:21:48.928000Z</time>
      </trkpt>
      <trkpt lat="39.878204004279795" lon="116.3438624510039">
        <time>2026-07-23T22:21:48.928000Z</time>
      </trkpt>
      <trkpt lat="39.877922983604925" lon="116.3438824448701">
        <time>2026-07-23T22:21:48.928000Z</time>
      </trkpt>
      <trkpt lat="39.87765196938278" lon="116.34389844580882">
        <time>2026-07-23T22:21:48.928000Z</time>
      </trkpt>
      <trkpt lat="39.87737893971183" lon="116.34392342827013">
        <time>2026-07-23T22:21:48.928000Z</time>
      </trkpt>
      <trkpt lat="39.877201957184155" lon="116.34391846105171">
        <time>2026-07-23T22:21:48.928000Z</time>
      </trkpt>
      <trkpt lat="39.877137001957166" lon="116.34389451923481">
        <time>2026-07-23T22:21:48.928000Z</time>
      </trkpt>
      <trkpt lat="39.87686698082383" lon="116.34391451172307">
        <time>2026-07-23T22:21:48.928000Z</time>
      </trkpt>
      <trkpt lat="39.87658495685729" lon="116.34393650157365">
        <time>2026-07-23T22:21:48.928000Z</time>
      </trkpt>
      <trkpt lat="39.876298926202736" lon="116.34396248361651">
        <time>2026-07-23T22:21:48.928000Z</time>
      </trkpt>
      <trkpt lat="39.876137873750324" lon="116.34399743115236">
        <time>2026-07-23T22:21:48.928000Z</time>
      </trkpt>
      <trkpt lat="39.87605088848806" lon="116.34399145462964">
        <time>2026-07-23T22:21:48.928000Z</time>
      </trkpt>
      <trkpt lat="39.87596893137927" lon="116.34396194090996">
        <time>2026-07-23T22:21:48.928000Z</time>
      </trkpt>
      <trkpt lat="39.875667843761676" lon="116.34402842608816">
        <time>2026-07-23T22:21:48.928000Z</time>
      </trkpt>
      <trkpt lat="39.87538883878812" lon="116.3440394384808">
        <time>2026-07-23T22:21:48.928000Z</time>
      </trkpt>
      <trkpt lat="39.8752687757182" lon="116.34407937049902">
        <time>2026-07-23T22:21:48.928000Z</time>
      </trkpt>
      <trkpt lat="39.87494475578357" lon="116.34410036781134">
        <time>2026-07-23T22:21:48.928000Z</time>
      </trkpt>
      <trkpt lat="39.87466371126471" lon="116.34413433269299">
        <time>2026-07-23T22:21:48.928000Z</time>
      </trkpt>
      <trkpt lat="39.87438769415232" lon="116.34415233019254">
        <time>2026-07-23T22:21:48.928000Z</time>
      </trkpt>
      <trkpt lat="39.874085676659156" lon="116.34417132890859">
        <time>2026-07-23T22:21:48.928000Z</time>
      </trkpt>
      <trkpt lat="39.87380567361124" lon="116.34418134353584">
        <time>2026-07-23T22:21:48.928000Z</time>
      </trkpt>
      <trkpt lat="39.873522653484656" lon="116.34420133778588">
        <time>2026-07-23T22:21:48.928000Z</time>
      </trkpt>
      <trkpt lat="39.87323964546329" lon="116.34421434657173">
        <time>2026-07-23T22:21:48.928000Z</time>
      </trkpt>
      <trkpt lat="39.872958606318974" lon="116.34424531775872">
        <time>2026-07-23T22:21:48.928000Z</time>
      </trkpt>
      <trkpt lat="39.87262953001733" lon="116.3442992473334">
        <time>2026-07-23T22:21:48.928000Z</time>
      </trkpt>
      <trkpt lat="39.87233049361209" lon="116.344329222924">
        <time>2026-07-23T22:21:48.928000Z</time>
      </trkpt>
      <trkpt lat="39.872186475143" lon="116.3443442100313">
        <time>2026-07-23T22:21:48.928000Z</time>
      </trkpt>
      <trkpt lat="39.87186241941485" lon="116.34438616394719">
        <time>2026-07-23T22:21:48.928000Z</time>
      </trkpt>
      <trkpt lat="39.871721362947596" lon="116.34442310512644">
        <time>2026-07-23T22:21:48.928000Z</time>
      </trkpt>
      <trkpt lat="39.8714503682747" lon="116.34442812902255">
        <time>2026-07-23T22:21:48.928000Z</time>
      </trkpt>
      <trkpt lat="39.87115035274171" lon="116.34444612966587">
        <time>2026-07-23T22:21:48.928000Z</time>
      </trkpt>
      <trkpt lat="39.87085831273745" lon="116.34447810032542">
        <time>2026-07-23T22:21:48.928000Z</time>
      </trkpt>
      <trkpt lat="39.87058224958963" lon="116.34452304208789">
        <time>2026-07-23T22:21:48.928000Z</time>
      </trkpt>
      <trkpt lat="39.87028922004411" lon="116.34454902533572">
        <time>2026-07-23T22:21:48.928000Z</time>
      </trkpt>
      <trkpt lat="39.87001514142812" lon="116.34460294830879">
        <time>2026-07-23T22:21:48.928000Z</time>
      </trkpt>
      <trkpt lat="39.86973708885671" lon="116.34464190284187">
        <time>2026-07-23T22:21:48.928000Z</time>
      </trkpt>
      <trkpt lat="39.86946006203987" lon="116.34466588826534">
        <time>2026-07-23T22:21:48.928000Z</time>
      </trkpt>
      <trkpt lat="39.86916903598542" lon="116.34468987547042">
        <time>2026-07-23T22:22:02.928000Z</time>
      </trkpt>
      <trkpt lat="39.868903931387564" lon="116.34475876651112">
        <time>2026-07-23T22:22:03.028000Z</time>
      </trkpt>
      <trkpt lat="39.86861891368294" lon="116.34477776332251">
        <time>2026-07-23T22:22:03.128000Z</time>
      </trkpt>
      <trkpt lat="39.86834384404447" lon="116.34482669699968">
        <time>2026-07-23T22:22:03.328000Z</time>
      </trkpt>
      <trkpt lat="39.86812173571119" lon="116.34489658074989">
        <time>2026-07-23T22:22:03.428000Z</time>
      </trkpt>
      <trkpt lat="39.86797353802186" lon="116.34501635231886">
        <time>2026-07-23T22:22:03.428000Z</time>
      </trkpt>
      <trkpt lat="39.86789129099813" lon="116.34516306036765">
        <time>2026-07-23T22:22:03.528000Z</time>
      </trkpt>
      <trkpt lat="39.86783001597341" lon="116.34532573340964">
        <time>2026-07-23T22:22:03.528000Z</time>
      </trkpt>
      <trkpt lat="39.867806577782716" lon="116.34558320779324">
        <time>2026-07-23T22:22:03.628000Z</time>
      </trkpt>
      <trkpt lat="39.8678529828779" lon="116.34593148926953">
        <time>2026-07-23T22:22:03.728000Z</time>
      </trkpt>
      <trkpt lat="39.86786323500892" lon="116.34578279189743">
        <time>2026-07-23T22:22:03.828000Z</time>
      </trkpt>
      <trkpt lat="39.86784875936345" lon="116.34547542354771">
        <time>2026-07-23T22:22:03.928000Z</time>
      </trkpt>
      <trkpt lat="39.867894193491615" lon="116.34521994289115">
        <time>2026-07-23T22:22:04.028000Z</time>
      </trkpt>
      <trkpt lat="39.86800051607399" lon="116.34502832421006">
        <time>2026-07-23T22:22:04.128000Z</time>
      </trkpt>
      <trkpt lat="39.86817377067929" lon="116.34487461952007">
        <time>2026-07-23T22:22:04.228000Z</time>
      </trkpt>
      <trkpt lat="39.86845479537861" lon="116.34485163142098">
        <time>2026-07-23T22:22:04.328000Z</time>
      </trkpt>
      <trkpt lat="39.86874883486178" lon="116.34481966025137">
        <time>2026-07-23T22:22:04.428000Z</time>
      </trkpt>
      <trkpt lat="39.86907491731881" lon="116.34476173870848">
        <time>2026-07-23T22:22:04.628000Z</time>
      </trkpt>
      <trkpt lat="39.86935098702119" lon="116.34471280497382">
        <time>2026-07-23T22:22:04.728000Z</time>
      </trkpt>
      <trkpt lat="39.869626037951114" lon="116.3446748486947">
        <time>2026-07-23T22:22:04.828000Z</time>
      </trkpt>
      <trkpt lat="39.86991007987285" lon="116.34464188097748">
        <time>2026-07-23T22:22:04.928000Z</time>
      </trkpt>
      <trkpt lat="39.87018411376444" lon="116.34461390421274">
        <time>2026-07-23T22:22:05.028000Z</time>
      </trkpt>
      <trkpt lat="39.87045716665007" lon="116.34457495033494">
        <time>2026-07-23T22:22:05.228000Z</time>
      </trkpt>
      <trkpt lat="39.870748206617655" lon="116.3445429797353">
        <time>2026-07-23T22:22:05.328000Z</time>
      </trkpt>
      <trkpt lat="39.87103725017094" lon="116.34450901354856">
        <time>2026-07-23T22:22:05.428000Z</time>
      </trkpt>
      <trkpt lat="39.871323273276765" lon="116.34448702292856">
        <time>2026-07-23T22:22:05.528000Z</time>
      </trkpt>
      <trkpt lat="39.87162234565707" lon="116.34443609071764">
        <time>2026-07-23T22:22:05.728000Z</time>
      </trkpt>
      <trkpt lat="39.87198337704268" lon="116.34440710515149">
        <time>2026-07-23T22:22:05.828000Z</time>
      </trkpt>
      <trkpt lat="39.87226142134285" lon="116.34437314045341">
        <time>2026-07-23T22:22:05.928000Z</time>
      </trkpt>
      <trkpt lat="39.87254047769551" lon="116.3443321901635">
        <time>2026-07-23T22:22:06.028000Z</time>
      </trkpt>
      <trkpt lat="39.872820492681214" lon="116.34431519001748">
        <time>2026-07-23T22:22:06.228000Z</time>
      </trkpt>
      <trkpt lat="39.87310154556921" lon="116.34427623537685">
        <time>2026-07-23T22:22:06.328000Z</time>
      </trkpt>
      <trkpt lat="39.873382620929476" lon="116.34422430774462">
        <time>2026-07-23T22:22:06.428000Z</time>
      </trkpt>
      <trkpt lat="39.8736696339324" lon="116.34420830467685">
        <time>2026-07-23T22:22:06.528000Z</time>
      </trkpt>
      <trkpt lat="39.873948662899565" lon="116.34418332130954">
        <time>2026-07-23T22:22:06.628000Z</time>
      </trkpt>
      <trkpt lat="39.87423766722815" lon="116.34417230762047">
        <time>2026-07-23T22:22:06.828000Z</time>
      </trkpt>
      <trkpt lat="39.87451467391526" lon="116.34416029752698">
        <time>2026-07-23T22:22:06.928000Z</time>
      </trkpt>
      <trkpt lat="39.874808686672786" lon="116.34414429359516">
        <time>2026-07-23T22:22:07.028000Z</time>
      </trkpt>
      <trkpt lat="39.87507970925214" lon="116.34412330296234">
        <time>2026-07-23T22:22:07.128000Z</time>
      </trkpt>
      <trkpt lat="39.875372722116055" lon="116.34410729916898">
        <time>2026-07-23T22:22:07.228000Z</time>
      </trkpt>
      <trkpt lat="39.87551878558951" lon="116.3440663659197">
        <time>2026-07-23T22:22:07.328000Z</time>
      </trkpt>
      <trkpt lat="39.875849793139594" lon="116.34405235318435">
        <time>2026-07-23T22:22:07.528000Z</time>
      </trkpt>
      <trkpt lat="39.87612182614969" lon="116.34402537494162">
        <time>2026-07-23T22:22:07.628000Z</time>
      </trkpt>
      <trkpt lat="39.87641984924617" lon="116.34400338302775">
        <time>2026-07-23T22:22:07.728000Z</time>
      </trkpt>
      <trkpt lat="39.876499789927934" lon="116.34403530636851">
        <time>2026-07-23T22:22:07.828000Z</time>
      </trkpt>
      <trkpt lat="39.87680184569861" lon="116.34399435346269">
        <time>2026-07-23T22:22:07.928000Z</time>
      </trkpt>
      <trkpt lat="39.877078882015105" lon="116.34396537878169">
        <time>2026-07-23T22:22:08.028000Z</time>
      </trkpt>
      <trkpt lat="39.87722190947584" lon="116.34394540232498">
        <time>2026-07-23T22:22:08.128000Z</time>
      </trkpt>
      <trkpt lat="39.877404869222936" lon="116.34396334173559">
        <time>2026-07-23T22:22:08.128000Z</time>
      </trkpt>
      <trkpt lat="39.87768291420008" lon="116.34392937735392">
        <time>2026-07-23T22:22:08.328000Z</time>
      </trkpt>
      <trkpt lat="39.877970910269056" lon="116.34392335343841">
        <time>2026-07-23T22:22:08.428000Z</time>
      </trkpt>
      <trkpt lat="39.87825193266403" lon="116.34390236163696">
        <time>2026-07-23T22:22:08.528000Z</time>
      </trkpt>
      <trkpt lat="39.87839497750074" lon="116.34387240603228">
        <time>2026-07-23T22:22:08.628000Z</time>
      </trkpt>
      <trkpt lat="39.878708955033034" lon="116.34387635800944">
        <time>2026-07-23T22:22:08.728000Z</time>
      </trkpt>
      <trkpt lat="39.87898301420741" lon="116.34383441086185">
        <time>2026-07-23T22:22:08.828000Z</time>
      </trkpt>
      <trkpt lat="39.879186031896424" lon="116.34381841853931">
        <time>2026-07-23T22:22:08.928000Z</time>
      </trkpt>
      <trkpt lat="39.879492053187356" lon="116.34379742362279">
        <time>2026-07-23T22:22:09.028000Z</time>
      </trkpt>
      <trkpt lat="39.879809051445655" lon="116.34378940022512">
        <time>2026-07-23T22:22:09.228000Z</time>
      </trkpt>
      <trkpt lat="39.87994909307989" lon="116.34376144089998">
        <time>2026-07-23T22:22:09.228000Z</time>
      </trkpt>
      <trkpt lat="39.88022307962609" lon="116.34376140626276">
        <time>2026-07-23T22:22:09.428000Z</time>
      </trkpt>
      <trkpt lat="39.88050410571104" lon="116.3437384187016">
        <time>2026-07-23T22:22:09.528000Z</time>
      </trkpt>
      <trkpt lat="39.88078711092387" lon="116.34372740586797">
        <time>2026-07-23T22:22:09.628000Z</time>
      </trkpt>
      <trkpt lat="39.88105914270423" lon="116.34370142571916">
        <time>2026-07-23T22:22:09.728000Z</time>
      </trkpt>
      <trkpt lat="39.88133015375203" lon="116.34368742067016">
        <time>2026-07-23T22:22:09.828000Z</time>
      </trkpt>
      <trkpt lat="39.8816001544642" lon="116.34367940323052">
        <time>2026-07-23T22:22:10.028000Z</time>
      </trkpt>
      <trkpt lat="39.88192516119338" lon="116.3436663892737">
        <time>2026-07-23T22:22:10.128000Z</time>
      </trkpt>
      <trkpt lat="39.88204220581454" lon="116.34363743501498">
        <time>2026-07-23T22:22:10.228000Z</time>
      </trkpt>
      <trkpt lat="39.88237117248834" lon="116.34364737254711">
        <time>2026-07-23T22:22:10.328000Z</time>
      </trkpt>
      <trkpt lat="39.882663140983325" lon="116.34365731475816">
        <time>2026-07-23T22:22:10.428000Z</time>
      </trkpt>
      <trkpt lat="39.882945120392606" lon="116.34366127075748">
        <time>2026-07-23T22:22:10.528000Z</time>
      </trkpt>
      <trkpt lat="39.883216102087914" lon="116.34366423023441">
        <time>2026-07-23T22:22:10.628000Z</time>
      </trkpt>
      <trkpt lat="39.883494106014396" lon="116.34365421595953">
        <time>2026-07-23T22:22:10.828000Z</time>
      </trkpt>
      <trkpt lat="39.88376505825848" lon="116.34367413995456">
        <time>2026-07-23T22:22:10.928000Z</time>
      </trkpt>
      <trkpt lat="39.88406106482428" lon="116.34366212757541">
        <time>2026-07-23T22:22:11.028000Z</time>
      </trkpt>
      <trkpt lat="39.884356643563805" lon="116.34364422540943">
        <time>2026-07-23T22:22:11.128000Z</time>
      </trkpt>
      <trkpt lat="39.884642054266216" lon="116.34365207499035">
        <time>2026-07-23T22:22:11.228000Z</time>
      </trkpt>
      <trkpt lat="39.884924040751486" lon="116.34365203933541">
        <time>2026-07-23T22:22:11.428000Z</time>
      </trkpt>
      <trkpt lat="39.88523000529199" lon="116.34366397559795">
        <time>2026-07-23T22:22:11.528000Z</time>
      </trkpt>
      <trkpt lat="39.88551199355193" lon="116.34366294202918">
        <time>2026-07-23T22:22:11.628000Z</time>
      </trkpt>
      <trkpt lat="39.885854606070374" lon="116.34364518466971">
        <time>2026-07-23T22:22:11.828000Z</time>
      </trkpt>
      <trkpt lat="39.88613319598415" lon="116.34364983357439">
        <time>2026-07-23T22:22:11.928000Z</time>
      </trkpt>
      <trkpt lat="39.88640299447353" lon="116.34363788155578">
        <time>2026-07-23T22:22:12.028000Z</time>
      </trkpt>
      <trkpt lat="39.8867139623518" lon="116.34364782135478">
        <time>2026-07-23T22:22:12.128000Z</time>
      </trkpt>
      <trkpt lat="39.88698594598108" lon="116.34364978278604">
        <time>2026-07-23T22:22:12.228000Z</time>
      </trkpt>
      <trkpt lat="39.88726691532397" lon="116.34365972637968">
        <time>2026-07-23T22:22:12.428000Z</time>
      </trkpt>
      <trkpt lat="39.88756289611995" lon="116.34366268268835">
        <time>2026-07-23T22:22:12.528000Z</time>
      </trkpt>
      <trkpt lat="39.88784790868056" lon="116.34364767796082">
        <time>2026-07-23T22:22:12.628000Z</time>
      </trkpt>
      <trkpt lat="39.88811888722465" lon="116.34365263325418">
        <time>2026-07-23T22:22:12.728000Z</time>
      </trkpt>
      <trkpt lat="39.888339869874706" lon="116.34365659695777">
        <time>2026-07-23T22:22:12.828000Z</time>
      </trkpt>
      <trkpt lat="39.888422891990274" lon="116.34364161777548">
        <time>2026-07-23T22:22:12.928000Z</time>
      </trkpt>
      <trkpt lat="39.88870182335807" lon="116.34367351569708">
        <time>2026-07-23T22:22:13.028000Z</time>
      </trkpt>
      <trkpt lat="39.88903481639227" lon="116.34366848402182">
        <time>2026-07-23T22:22:13.128000Z</time>
      </trkpt>
      <trkpt lat="39.88932379069975" lon="116.3436754328647">
        <time>2026-07-23T22:22:13.228000Z</time>
      </trkpt>
      <trkpt lat="39.889613773651845" lon="116.3436773920164">
        <time>2026-07-23T22:22:13.428000Z</time>
      </trkpt>
      <trkpt lat="39.88990372193986" lon="116.34369930943187">
        <time>2026-07-23T22:22:13.528000Z</time>
      </trkpt>
      <trkpt lat="39.890220682864715" lon="116.34371324013154">
        <time>2026-07-23T22:22:13.628000Z</time>
      </trkpt>
      <trkpt lat="39.89027971305683" lon="116.34369427231353">
        <time>2026-07-23T22:22:13.728000Z</time>
      </trkpt>
      <trkpt lat="39.89059431693281" lon="116.34368474847669">
        <time>2026-07-23T22:22:13.828000Z</time>
      </trkpt>
      <trkpt lat="39.89074621725593" lon="116.3437186135519">
        <time>2026-07-23T22:22:13.828000Z</time>
      </trkpt>
      <trkpt lat="39.89089382281612" lon="116.34372417939612">
        <time>2026-07-23T22:22:13.928000Z</time>
      </trkpt>
      <trkpt lat="39.891047459383266" lon="116.3437086413439">
        <time>2026-07-23T22:22:14.028000Z</time>
      </trkpt>
      <trkpt lat="39.89132061780959" lon="116.3437210843231">
        <time>2026-07-23T22:22:14.128000Z</time>
      </trkpt>
      <trkpt lat="39.89165258334468" lon="116.34373201938638">
        <time>2026-07-23T22:22:14.228000Z</time>
      </trkpt>
      <trkpt lat="39.89194859390812" lon="116.34371801115468">
        <time>2026-07-23T22:22:14.328000Z</time>
      </trkpt>
      <trkpt lat="39.892238622111165" lon="116.34369402455226">
        <time>2026-07-23T22:22:14.528000Z</time>
      </trkpt>
      <trkpt lat="39.89250866167242" lon="116.34366405301509">
        <time>2026-07-23T22:22:14.628000Z</time>
      </trkpt>
      <trkpt lat="39.89279466235934" lon="116.34365603354155">
        <time>2026-07-23T22:22:14.728000Z</time>
      </trkpt>
      <trkpt lat="39.89313069372914" lon="116.34362904741545">
        <time>2026-07-23T22:22:14.928000Z</time>
      </trkpt>
      <trkpt lat="39.89342172373196" lon="116.3436040628185">
        <time>2026-07-23T22:22:15.028000Z</time>
      </trkpt>
      <trkpt lat="39.89369175646321" lon="116.34357808297959">
        <time>2026-07-23T22:22:15.128000Z</time>
      </trkpt>
      <trkpt lat="39.893974748691015" lon="116.34357505345224">
        <time>2026-07-23T22:22:15.228000Z</time>
      </trkpt>
      <trkpt lat="39.894257766979855" lon="116.34355705526663">
        <time>2026-07-23T22:22:15.328000Z</time>
      </trkpt>
      <trkpt lat="39.89455459278681" lon="116.34353894140422">
        <time>2026-07-23T22:22:15.528000Z</time>
      </trkpt>
      <trkpt lat="39.894837607282966" lon="116.34352484021386">
        <time>2026-07-23T22:22:15.628000Z</time>
      </trkpt>
      <trkpt lat="39.89515416084386" lon="116.3435179535355">
        <time>2026-07-23T22:22:15.728000Z</time>
      </trkpt>
      <trkpt lat="39.89543280365086" lon="116.34350501533139">
        <time>2026-07-23T22:22:15.928000Z</time>
      </trkpt>
      <trkpt lat="39.895475850343125" lon="116.34347706844001">
        <time>2026-07-23T22:22:15.928000Z</time>
      </trkpt>
      <trkpt lat="39.89537387757954" lon="116.34346410853017">
        <time>2026-07-23T22:22:15.928000Z</time>
      </trkpt>
      <trkpt lat="39.89504984369076" lon="116.3434920909576">
        <time>2026-07-23T22:22:16.128000Z</time>
      </trkpt>
      <trkpt lat="39.89483181541852" lon="116.34351407253587">
        <time>2026-07-23T23:07:28.928000Z</time>
      </trkpt>
      <trkpt lat="39.89455588883702" lon="116.34347918062598">
        <time>2026-07-23T23:07:40.928000Z</time>
      </trkpt>
      <trkpt lat="39.89427484261907" lon="116.34351314507907">
        <time>2026-07-23T23:07:52.928000Z</time>
      </trkpt>
      <trkpt lat="39.8939408075496" lon="116.34354212670867">
        <time>2026-07-23T23:08:07.928000Z</time>
      </trkpt>
      <trkpt lat="39.893668771407725" lon="116.34357010260271">
        <time>2026-07-23T23:08:19.928000Z</time>
      </trkpt>
      <trkpt lat="39.89339076507984" lon="116.34358111478339">
        <time>2026-07-23T23:08:31.928000Z</time>
      </trkpt>
      <trkpt lat="39.89311075539097" lon="116.34359412304156">
        <time>2026-07-23T23:08:43.928000Z</time>
      </trkpt>
      <trkpt lat="39.89283973142322" lon="116.34361511345686">
        <time>2026-07-23T23:08:55.928000Z</time>
      </trkpt>
      <trkpt lat="39.89254772579908" lon="116.3436261274177">
        <time>2026-07-23T23:09:07.928000Z</time>
      </trkpt>
      <trkpt lat="39.8922617320639" lon="116.34363015523786">
        <time>2026-07-23T23:09:19.928000Z</time>
      </trkpt>
      <trkpt lat="39.8919847049667" lon="116.34365314225177">
        <time>2026-07-23T23:09:31.928000Z</time>
      </trkpt>
      <trkpt lat="39.89173365067702" lon="116.34369109468368">
        <time>2026-07-23T23:09:43.928000Z</time>
      </trkpt>
      <trkpt lat="39.89173365067702" lon="116.34369109468368">
        <time>2026-07-23T23:09:46.028000Z</time>
      </trkpt>
      <trkpt lat="39.89155125552038" lon="116.34392363203374">
        <time>2026-07-23T23:10:59.228000Z</time>
      </trkpt>
      <trkpt lat="39.89175526683076" lon="116.34391163121703">
        <time>2026-07-23T23:11:08.528000Z</time>
      </trkpt>
      <trkpt lat="39.891903164834176" lon="116.34396649800354">
        <time>2026-07-23T23:11:14.628000Z</time>
      </trkpt>
      <trkpt lat="39.892208193969154" lon="116.34394151146039">
        <time>2026-07-23T23:11:26.928000Z</time>
      </trkpt>
      <trkpt lat="39.89250024623016" lon="116.34390355364471">
        <time>2026-07-23T23:11:39.028000Z</time>
      </trkpt>
      <trkpt lat="39.892799282632" lon="116.34387457622516">
        <time>2026-07-23T23:11:51.028000Z</time>
      </trkpt>
      <trkpt lat="39.89288439819488" lon="116.3438057092545">
        <time>2026-07-23T23:11:54.128000Z</time>
      </trkpt>
      <trkpt lat="39.89288854010614" lon="116.3437238797456">
        <time>2026-07-23T23:11:57.028000Z</time>
      </trkpt>
      <trkpt lat="39.892869305427595" lon="116.34328480215562">
        <time>2026-07-23T23:12:09.028000Z</time>
      </trkpt>
      <trkpt lat="39.892861778202324" lon="116.3430143716646">
        <time>2026-07-23T23:12:18.028000Z</time>
      </trkpt>
      <trkpt lat="39.892911062415614" lon="116.34285071020965">
        <time>2026-07-23T23:12:24.128000Z</time>
      </trkpt>
      <trkpt lat="39.8929861831184" lon="116.3427798501373">
        <time>2026-07-23T23:12:30.128000Z</time>
      </trkpt>
      <trkpt lat="39.89329611988083" lon="116.34280775200126">
        <time>2026-07-23T23:12:45.228000Z</time>
      </trkpt>
      <trkpt lat="39.89342145872185" lon="116.34279965207135">
        <time>2026-07-23T23:12:51.228000Z</time>
      </trkpt>
      <trkpt lat="39.89331422926059" lon="116.34274488235046">
        <time>2026-07-23T23:12:57.428000Z</time>
      </trkpt>
      <trkpt lat="39.893007297638384" lon="116.34271398646004">
        <time>2026-07-23T23:13:12.728000Z</time>
      </trkpt>
      <trkpt lat="39.89330687981316" lon="116.34180786927784">
        <time>2026-07-23T23:13:45.928000Z</time>
      </trkpt>
      <trkpt lat="39.89355676423329" lon="116.3418667124075">
        <time>2026-07-23T23:13:57.928000Z</time>
      </trkpt>
      <trkpt lat="39.89349670173884" lon="116.34190364147092">
        <time>2026-07-23T23:14:01.028000Z</time>
      </trkpt>
      <trkpt lat="39.8932126248892" lon="116.34195456918552">
        <time>2026-07-23T23:14:09.928000Z</time>
      </trkpt>
      <trkpt lat="39.8929276150972" lon="116.34196757764732">
        <time>2026-07-23T23:14:22.028000Z</time>
      </trkpt>
      <trkpt lat="39.892703572560016" lon="116.34199754235578">
        <time>2026-07-23T23:14:31.028000Z</time>
      </trkpt>
      <trkpt lat="39.892677697120874" lon="116.3419276940952">
        <time>2026-07-23T23:14:34.028000Z</time>
      </trkpt>
      <trkpt lat="39.892677850548665" lon="116.3418408787279">
        <time>2026-07-23T23:14:37.028000Z</time>
      </trkpt>
      <trkpt lat="39.8927039940675" lon="116.34175904959159">
        <time>2026-07-23T23:14:39.928000Z</time>
      </trkpt>
      <trkpt lat="39.89269611452509" lon="116.34169119511509">
        <time>2026-07-23T23:14:43.028000Z</time>
      </trkpt>
      <trkpt lat="39.892394137293" lon="116.34168624392215">
        <time>2026-07-23T23:14:55.028000Z</time>
      </trkpt>
      <trkpt lat="39.89211325583912" lon="116.3417296478973">
        <time>2026-07-23T23:15:07.128000Z</time>
      </trkpt>
      <trkpt lat="39.89202605362837" lon="116.34174316929771">
        <time>2026-07-23T23:15:10.028000Z</time>
      </trkpt>
      <trkpt lat="39.89168208897711" lon="116.34173223615836">
        <time>2026-07-23T23:15:25.128000Z</time>
      </trkpt>
      <trkpt lat="39.89161306921901" lon="116.34174521725723">
        <time>2026-07-23T23:15:28.128000Z</time>
      </trkpt>
      <trkpt lat="39.891324087919266" lon="116.3417422601648">
        <time>2026-07-23T23:15:40.228000Z</time>
      </trkpt>
      <trkpt lat="39.891031071511186" lon="116.34175926108404">
        <time>2026-07-23T23:15:52.428000Z</time>
      </trkpt>
      <trkpt lat="39.89076703259553" lon="116.34178823285386">
        <time>2026-07-23T23:16:04.728000Z</time>
      </trkpt>
      <trkpt lat="39.8907382582292" lon="116.34166150641057">
        <time>2026-07-23T23:16:10.928000Z</time>
      </trkpt>
      <trkpt lat="39.89076797731359" lon="116.34125536966454">
        <time>2026-07-23T23:16:23.028000Z</time>
      </trkpt>
      <trkpt lat="39.89079335773546" lon="116.34104082567029">
        <time>2026-07-23T23:16:29.028000Z</time>
      </trkpt>
      <trkpt lat="39.890731691292764" lon="116.34085523140257">
        <time>2026-07-23T23:16:35.028000Z</time>
      </trkpt>
      <trkpt lat="39.89071686464142" lon="116.34075844104588">
        <time>2026-07-23T23:16:38.028000Z</time>
      </trkpt>
    </trkseg>
  </trk>
</gpx>